{"type":"FeatureCollection", "features": [
{"type":"Feature","geometry":{"type":"Polygon","coordinates":[[[80.21667,30.5875],[80.19758,30.58715],[80.18576,30.57952],[80.17674,30.57881],[80.17326,30.57535],[80.15591,30.57465],[80.14758,30.57048],[80.13576,30.55869],[80.12917,30.55833],[80.11446,30.56307],[80.10638,30.57027],[80.08841,30.57147],[80.07821,30.59101],[80.06446,30.59223],[80.06054,30.59527],[80.03455,30.5964],[80.03333,30.59167],[80.02674,30.59131],[80.02326,30.58785],[80.00833,30.5875],[80.00895,30.50617],[80.01611,30.49792],[80.01306,30.49375],[80.01728,30.48797],[80.01188,30.47547],[80.01312,30.46451],[80.0218,30.4466],[80.03266,30.44502],[80.03395,30.41867],[80.03812,30.41297],[80.03333,30.39583],[80.01752,30.38665],[80.00798,30.36008],[80.00035,30.35242],[79.99965,30.33924],[79.98785,30.32326],[79.9875,30.3125],[80.02399,30.31188],[80.03693,30.29804],[80.03835,30.29252],[80.06601,30.28243],[80.07145,30.24266],[80.09915,30.22832],[80.09493,30.21315],[80.08138,30.20057],[80.07558,30.19908],[80.06723,30.18971],[80.05748,30.16335],[80.03125,30.15047],[80.0074,30.1589],[79.99804,30.15057],[79.99252,30.14915],[79.97415,30.11752],[79.96862,30.1161],[79.95925,30.10775],[79.9536,30.09362],[79.94486,30.08399],[79.9375,30.08333],[79.93665,30.08002],[79.92123,30.07403],[79.91667,30.06667],[79.91008,30.06702],[79.90659,30.07048],[79.87329,30.07119],[79.86875,30.06668],[79.86458,30.07082],[79.86076,30.06702],[79.82674,30.05798],[79.81702,30.04829],[79.80869,30.03159],[79.80798,30.02745],[79.8125,30.02083],[79.80591,30.02048],[79.80242,30.01702],[79.78924,30.01631],[79.78159,30.00869],[79.74758,30.00798],[79.74409,30.00452],[79.72258,30.00381],[79.71909,30.00035],[79.7125,30],[79.71159,30.00353],[79.67425,30.0089],[79.66888,30.00473],[79.66156,30.0036],[79.65221,30.01193],[79.63259,30.0214],[79.625,30.01667],[79.60833,30.02083],[79.59826,30.00869],[79.58924,30.00798],[79.58576,30.00452],[79.56424,30.00381],[79.56005,29.99965],[79.54341,30.00035],[79.52742,30.01215],[79.51008,30.01285],[79.50659,30.01631],[79.4875,30.02083],[79.48333,30.025],[79.48298,30.01424],[79.47119,29.99409],[79.47083,29.97917],[79.48807,29.97379],[79.48277,29.96325],[79.4839,29.96029],[79.48847,29.9504],[79.49934,29.94493],[79.50035,29.92674],[79.50452,29.92255],[79.50381,29.90174],[79.49585,29.89375],[79.50381,29.88576],[79.5125,29.86667],[79.56054,29.8661],[79.57304,29.86193],[79.58529,29.85057],[79.59388,29.84943],[79.60759,29.8411],[79.62826,29.84229],[79.6303,29.85026],[79.65196,29.83807],[79.66888,29.83693],[79.67696,29.82973],[79.68262,29.82828],[79.6839,29.81862],[79.70417,29.79167],[79.70085,29.79082],[79.69223,29.77304],[79.69263,29.76706],[79.70332,29.76165],[79.70904,29.7426],[79.72279,29.72973],[79.72877,29.7282],[79.73418,29.71752],[79.74102,29.71576],[79.75417,29.7],[79.75794,29.69903],[79.76193,29.69388],[79.76316,29.68007],[79.77279,29.67557],[79.79388,29.67443],[79.81029,29.66307],[79.82721,29.66193],[79.83665,29.65748],[79.8375,29.65417],[79.83333,29.65417],[79.8286,29.64658],[79.83286,29.63958],[79.82963,29.63541],[79.84223,29.61741],[79.8411,29.61029],[79.83307,29.59697],[79.84939,29.59075],[79.84965,29.56841],[79.84167,29.55833],[79.82674,29.55798],[79.82292,29.55418],[79.81909,29.55798],[79.80245,29.55869],[79.78579,29.53786],[79.77742,29.53369],[79.76841,29.53298],[79.75417,29.525],[79.75473,29.51446],[79.76249,29.5015],[79.75061,29.49492],[79.74943,29.46862],[79.74583,29.4625],[79.74583,29.45833],[79.7621,29.45737],[79.76752,29.44668],[79.77083,29.44583],[79.77083,29.44167],[79.76733,29.44077],[79.76179,29.41339],[79.75502,29.41165],[79.75057,29.40221],[79.74527,29.37621],[79.76888,29.3661],[79.79513,29.3449],[79.7964,29.33529],[79.8036,29.32721],[79.80488,29.31755],[79.8157,29.3121],[79.82027,29.30221],[79.82083,29.2875],[79.8284,29.28673],[79.82917,29.27917],[79.84082,29.27415],[79.84263,29.26706],[79.84779,29.26307],[79.86471,29.25777],[79.88529,29.2464],[79.89804,29.24527],[79.90794,29.2407],[79.91347,29.22956],[79.92415,29.22415],[79.92597,29.21706],[79.93946,29.2089],[79.94908,29.20763],[79.9536,29.20221],[79.95318,29.19265],[79.94591,29.1904],[79.93816,29.18129],[79.93202,29.16658],[79.91462,29.15899],[79.89653,29.15757],[79.89583,29.1375],[79.91165,29.13248],[79.9125,29.12917],[79.91912,29.13369],[79.93992,29.13298],[79.94341,29.12952],[79.96076,29.12881],[79.98091,29.11702],[79.9909,29.1159],[79.99249,29.10029],[80.00346,29.09479],[80.00417,29.08333],[80.01165,29.08248],[80.0125,29.07083],[80.01667,29.06667],[80.0125,29.0625],[80.01307,29.02279],[80.0339,28.99677],[80.03271,28.97591],[80.0256,28.97409],[80.0244,28.93851],[80.01308,28.93241],[80.00473,28.92304],[80.0036,28.91029],[80.00047,28.90625],[80.00417,28.89583],[80.00066,28.89493],[79.99548,28.86424],[79.99202,28.86076],[79.99131,28.83091],[79.98335,28.81875],[79.98715,28.81492],[79.9875,28.80417],[79.99826,28.80452],[80.00245,28.80869],[80.00662,28.80797],[80.01215,28.80242],[80.01285,28.79341],[80.02917,28.775],[80.03554,28.77557],[80.04425,28.78333],[80.05072,28.77641],[80.06174,28.7832],[80.05867,28.78839],[80.06802,28.80111],[80.05922,28.8168],[80.05179,28.82037],[80.05979,28.82539],[80.06536,28.8369],[80.05847,28.91663],[80.09632,28.97574],[80.10055,28.9869],[80.11792,28.98155],[80.12669,29.00611],[80.13542,29.0074],[80.13625,29.00959],[80.1245,29.01307],[80.13124,29.0305],[80.12637,29.03194],[80.13718,29.06047],[80.12942,29.06272],[80.14287,29.09952],[80.16509,29.11848],[80.1675,29.12576],[80.17801,29.12888],[80.18319,29.13718],[80.20309,29.12969],[80.20969,29.12197],[80.23304,29.11849],[80.24835,29.12803],[80.25534,29.13735],[80.27205,29.1413],[80.27171,29.14714],[80.25825,29.16477],[80.26043,29.17644],[80.25873,29.18703],[80.24054,29.20254],[80.2488,29.22123],[80.2574,29.21798],[80.26039,29.20691],[80.27567,29.20666],[80.28595,29.19585],[80.29298,29.197],[80.29738,29.20493],[80.29405,29.21182],[80.29608,29.22125],[80.29057,29.23156],[80.30019,29.24164],[80.29931,29.26102],[80.30465,29.27518],[80.30416,29.28468],[80.31839,29.30233],[80.31688,29.31525],[80.30919,29.32253],[80.29576,29.32453],[80.29092,29.33112],[80.29114,29.33604],[80.28006,29.34702],[80.27996,29.35907],[80.27137,29.36469],[80.27158,29.37378],[80.27916,29.37884],[80.27309,29.38621],[80.27512,29.39301],[80.24215,29.41138],[80.24598,29.41583],[80.24416,29.424],[80.24763,29.43559],[80.24224,29.44288],[80.24498,29.44679],[80.25481,29.44799],[80.25731,29.45174],[80.2661,29.44927],[80.27437,29.45012],[80.26907,29.45554],[80.27567,29.45852],[80.27928,29.45784],[80.28083,29.4516],[80.30178,29.45278],[80.28694,29.47698],[80.29352,29.47958],[80.29873,29.49061],[80.3047,29.48623],[80.31306,29.48481],[80.31422,29.49943],[80.3292,29.50575],[80.33213,29.51294],[80.34171,29.51028],[80.34967,29.51921],[80.34863,29.52436],[80.35561,29.52795],[80.35788,29.53277],[80.34857,29.54044],[80.34152,29.54054],[80.34563,29.54861],[80.34247,29.55277],[80.36358,29.55636],[80.36307,29.56393],[80.37849,29.56105],[80.37911,29.57158],[80.38805,29.57147],[80.39101,29.58116],[80.40794,29.59597],[80.40893,29.60423],[80.40598,29.6133],[80.41098,29.62543],[80.41825,29.6267],[80.42087,29.62985],[80.42026,29.63833],[80.41432,29.64351],[80.41585,29.65258],[80.41012,29.6538],[80.40602,29.65986],[80.39943,29.65855],[80.3988,29.66211],[80.3904,29.66451],[80.38987,29.67121],[80.38417,29.67509],[80.38486,29.68547],[80.38023,29.68959],[80.37943,29.70089],[80.37207,29.71549],[80.37587,29.72005],[80.36825,29.72195],[80.36564,29.72638],[80.3696,29.734],[80.36432,29.74015],[80.36587,29.74842],[80.36907,29.75105],[80.38527,29.75046],[80.38577,29.75906],[80.39737,29.75891],[80.39627,29.76528],[80.40475,29.778],[80.40368,29.78192],[80.40724,29.78409],[80.40695,29.79474],[80.4127,29.79165],[80.41588,29.79564],[80.42867,29.79785],[80.43503,29.80597],[80.44347,29.79926],[80.46432,29.80238],[80.47999,29.79539],[80.49386,29.7958],[80.49261,29.80173],[80.49989,29.80821],[80.49754,29.81111],[80.50668,29.82302],[80.52195,29.82743],[80.5236,29.83245],[80.53138,29.83869],[80.53566,29.8389],[80.53873,29.8475],[80.54389,29.84668],[80.55312,29.85134],[80.55138,29.85636],[80.56127,29.86645],[80.55678,29.87036],[80.56555,29.87927],[80.57239,29.89489],[80.56971,29.90875],[80.57411,29.92404],[80.59112,29.9496],[80.60185,29.95813],[80.62957,29.96543],[80.64879,29.95573],[80.67455,29.95721],[80.68243,29.96239],[80.69041,29.97462],[80.71227,29.99061],[80.71896,30.00058],[80.737,29.99936],[80.74456,30.00385],[80.75772,30.0242],[80.75589,30.03985],[80.76103,30.04952],[80.77954,30.05681],[80.78988,30.07329],[80.79962,30.08093],[80.80561,30.08999],[80.81373,30.09309],[80.82071,30.09969],[80.82584,30.10011],[80.82919,30.09729],[80.83977,30.09871],[80.84601,30.10438],[80.84189,30.11117],[80.84472,30.11623],[80.86254,30.12105],[80.86845,30.12619],[80.87477,30.12649],[80.87683,30.13439],[80.87145,30.14759],[80.86776,30.17387],[80.88197,30.1837],[80.89561,30.20839],[80.90273,30.21538],[80.91972,30.2142],[80.92131,30.19834],[80.91828,30.18983],[80.94442,30.17869],[80.96005,30.17899],[80.9947,30.19136],[81.02903,30.19576],[81.03785,30.20241],[81.04202,30.21005],[81.03264,30.21945],[81.03008,30.22202],[81.02946,30.22679],[81.0271,30.22846],[81.02936,30.23326],[81.02833,30.24908],[81.01678,30.25233],[81.00925,30.25957],[81.00544,30.26311],[80.9717,30.27076],[80.95342,30.2714],[80.94804,30.26723],[80.93248,30.2661],[80.92501,30.27233],[80.92954,30.28122],[80.89626,30.294],[80.86272,30.29947],[80.84589,30.30521],[80.81154,30.32214],[80.80933,30.32035],[80.80478,30.32177],[80.80434,30.32712],[80.78733,30.34261],[80.78274,30.35876],[80.78007,30.35899],[80.77911,30.36273],[80.77599,30.36641],[80.75097,30.38373],[80.74609,30.39715],[80.71352,30.40817],[80.70266,30.41726],[80.68835,30.41752],[80.6875,30.42083],[80.68013,30.4254],[80.67832,30.43248],[80.67279,30.4339],[80.66711,30.43994],[80.6497,30.44602],[80.63924,30.45035],[80.63402,30.45557],[80.62045,30.46252],[80.61424,30.46285],[80.60659,30.47048],[80.58995,30.47119],[80.58576,30.46702],[80.57258,30.46631],[80.55242,30.45035],[80.54796,30.45021],[80.53908,30.4492],[80.5171,30.47318],[80.5095,30.47552],[80.49833,30.48417],[80.44769,30.49765],[80.41948,30.51518],[80.41741,30.52064],[80.41105,30.52404],[80.39831,30.51676],[80.38559,30.51505],[80.37833,30.52188],[80.3739,30.52145],[80.36203,30.52672],[80.35089,30.52429],[80.35,30.52083],[80.34668,30.52168],[80.34527,30.52721],[80.3214,30.55196],[80.32112,30.55724],[80.29656,30.56692],[80.28579,30.56631],[80.28166,30.57041],[80.27703,30.56583],[80.26171,30.56506],[80.25776,30.55884],[80.24891,30.5687],[80.22683,30.57894],[80.22677,30.58368],[80.22326,30.58715],[80.21667,30.5875]]]},"properties":{"basin_name":"Sharda Basin","SUB_AREA":19506.7}},
{"type":"Feature","geometry":{"type":"MultiPolygon","coordinates":[[[[81.03785,30.20241],[81.04328,30.20456],[81.04661,30.21087],[81.03264,30.21945],[81.04202,30.21005],[81.03785,30.20241]]],[[[81.02936,30.23326],[81.03321,30.24639],[81.02833,30.24908],[81.02936,30.23326]]],[[[80.9717,30.27076],[80.92954,30.28122],[80.92501,30.27233],[80.93248,30.2661],[80.94804,30.26723],[80.95342,30.2714],[80.9717,30.27076]]],[[[80.81154,30.32214],[80.80434,30.32712],[80.80478,30.32177],[80.80933,30.32035],[80.81154,30.32214]]],[[[80.78274,30.35876],[80.77911,30.36273],[80.78007,30.35899],[80.78274,30.35876]]],[[[80.77599,30.36641],[80.75803,30.38761],[80.74609,30.39715],[80.75097,30.38373],[80.77599,30.36641]]],[[[80.66711,30.43994],[80.67279,30.4339],[80.67832,30.43248],[80.68013,30.4254],[80.6875,30.42083],[80.68835,30.41752],[80.70266,30.41726],[80.67807,30.43745],[80.66711,30.43994]]]]},"properties":{"basin_name":"","SUB_AREA":22731.7}},
{"type":"Feature","geometry":{"type":"Polygon","coordinates":[[[80.05072,28.77641],[80.04425,28.78333],[80.03554,28.77557],[80.02917,28.775],[80.01285,28.79341],[80.01215,28.80242],[80.00662,28.80797],[80.00245,28.80869],[79.99826,28.80452],[79.9875,28.80417],[79.98715,28.81492],[79.98335,28.81875],[79.99131,28.83091],[79.99202,28.86076],[79.99548,28.86424],[80.00066,28.89493],[80.00417,28.89583],[80.00047,28.90625],[80.0036,28.91029],[80.00473,28.92304],[80.01308,28.93241],[80.0244,28.93851],[80.0256,28.97409],[80.03271,28.97591],[80.0339,28.99677],[80.01307,29.02279],[80.0125,29.0625],[80.01667,29.06667],[80.0125,29.07083],[80.01165,29.08248],[80.00417,29.08333],[80.00346,29.09479],[79.99249,29.10029],[79.9909,29.1159],[79.98091,29.11702],[79.96076,29.12881],[79.94341,29.12952],[79.93992,29.13298],[79.91912,29.13369],[79.9125,29.12917],[79.91165,29.13248],[79.89583,29.1375],[79.89653,29.15757],[79.91462,29.15899],[79.93202,29.16658],[79.93816,29.18129],[79.94591,29.1904],[79.95318,29.19265],[79.9536,29.20221],[79.94908,29.20763],[79.93946,29.2089],[79.92597,29.21706],[79.92415,29.22415],[79.91347,29.22956],[79.90794,29.2407],[79.89804,29.24527],[79.88529,29.2464],[79.86471,29.25777],[79.84779,29.26307],[79.84263,29.26706],[79.84082,29.27415],[79.82917,29.27917],[79.8284,29.28673],[79.82083,29.2875],[79.81995,29.28404],[79.80925,29.28263],[79.80473,29.27721],[79.8036,29.26446],[79.79498,29.24668],[79.79167,29.24583],[79.79537,29.23957],[79.78807,29.23138],[79.78679,29.22172],[79.77721,29.21723],[79.76008,29.21631],[79.75242,29.20869],[79.73579,29.20798],[79.73159,29.21215],[79.71424,29.21285],[79.71076,29.21631],[79.68333,29.21667],[79.68277,29.20196],[79.67546,29.1854],[79.6911,29.16888],[79.69223,29.16029],[79.6964,29.15491],[79.69516,29.14256],[79.68818,29.14077],[79.67027,29.12185],[79.67917,29.1],[79.6839,29.09879],[79.68277,29.08112],[79.67964,29.07708],[79.68277,29.07304],[79.68807,29.03112],[79.69943,29.01471],[79.70066,29.0009],[79.70417,29],[79.70381,28.99341],[79.69168,28.98125],[79.70381,28.96492],[79.70452,28.95174],[79.70833,28.94583],[79.72432,28.9365],[79.7299,28.89663],[79.73688,28.89105],[79.74488,28.8961],[79.74645,28.88534],[79.75062,28.87964],[79.74997,28.87172],[79.75925,28.87085],[79.76675,28.87493],[79.78082,28.87139],[79.78861,28.87269],[79.79325,28.88287],[79.7998,28.88748],[79.8147,28.88369],[79.81383,28.88656],[79.81802,28.88781],[79.82929,28.88445],[79.82839,28.87782],[79.83347,28.8706],[79.83538,28.87489],[79.8441,28.87554],[79.84577,28.86354],[79.8496,28.8593],[79.84505,28.85537],[79.84534,28.85111],[79.83893,28.84789],[79.83119,28.85563],[79.82978,28.85324],[79.83678,28.83992],[79.83087,28.83778],[79.82727,28.84167],[79.82382,28.83901],[79.83131,28.83076],[79.837,28.83283],[79.83471,28.82724],[79.82915,28.82139],[79.8236,28.80658],[79.81897,28.80547],[79.8199,28.81216],[79.81645,28.81692],[79.80723,28.80566],[79.80732,28.80188],[79.81394,28.79688],[79.81457,28.80261],[79.81995,28.79611],[79.82289,28.79563],[79.82432,28.79829],[79.82693,28.79497],[79.83433,28.79859],[79.83832,28.79753],[79.84152,28.80427],[79.84609,28.80474],[79.84547,28.80075],[79.84934,28.79964],[79.85289,28.80613],[79.85031,28.80601],[79.85076,28.81045],[79.84659,28.81044],[79.85294,28.81373],[79.84661,28.81744],[79.8463,28.82318],[79.84863,28.82515],[79.85407,28.82411],[79.85102,28.82855],[79.85387,28.82699],[79.85772,28.83064],[79.86142,28.83053],[79.85888,28.8338],[79.86319,28.84022],[79.8647,28.83777],[79.87166,28.84014],[79.87461,28.83634],[79.87256,28.83156],[79.87573,28.83311],[79.87847,28.83031],[79.87857,28.83356],[79.8834,28.83398],[79.88212,28.83693],[79.88822,28.83656],[79.89391,28.83146],[79.89199,28.82561],[79.89407,28.8204],[79.91453,28.81848],[79.91078,28.8099],[79.91552,28.80427],[79.90554,28.80299],[79.87849,28.81483],[79.8696,28.80834],[79.87473,28.80236],[79.87306,28.79728],[79.8833,28.79454],[79.88426,28.79],[79.89728,28.78623],[79.90136,28.78198],[79.90647,28.78196],[79.90982,28.7854],[79.91781,28.78236],[79.91884,28.7865],[79.92378,28.78671],[79.92652,28.79001],[79.93982,28.78772],[79.92408,28.77316],[79.93057,28.76802],[79.93258,28.76272],[79.9432,28.75989],[79.93863,28.75038],[79.94359,28.74862],[79.94648,28.74236],[79.94369,28.73511],[79.94549,28.73058],[79.95416,28.72283],[80.03013,28.74863],[80.05072,28.77641]]]},"properties":{"basin_name":"Garra Basin","SUB_AREA":7038.4}},
{"type":"Feature","geometry":{"type":"Polygon","coordinates":[[[79.48333,30.025],[79.47746,30.03298],[79.47258,30.03369],[79.46492,30.04131],[79.43995,30.03298],[79.43159,30.04131],[79.41008,30.04202],[79.40242,30.04965],[79.38995,30.05035],[79.38542,30.04585],[79.35659,30.06215],[79.3375,30.0625],[79.33369,30.06841],[79.33333,30.07917],[79.32258,30.07952],[79.30591,30.08785],[79.29619,30.09755],[79.29583,30.10417],[79.26841,30.09965],[79.26492,30.09619],[79.23924,30.09548],[79.23542,30.09168],[79.23125,30.09582],[79.21909,30.08785],[79.20174,30.08715],[79.19826,30.08369],[79.19167,30.08333],[79.19548,30.07742],[79.19583,30.06667],[79.19167,30.0625],[79.18665,30.03418],[79.16076,30.02119],[79.15174,30.02048],[79.14826,30.01702],[79.13091,30.01631],[79.10869,29.99412],[79.10798,29.98508],[79.10035,29.96909],[79.1,29.96667],[79.11076,29.96631],[79.11458,29.96251],[79.11876,29.96667],[79.12952,29.95588],[79.12881,29.93924],[79.12048,29.93088],[79.12119,29.91421],[79.12917,29.90833],[79.12881,29.90591],[79.11667,29.89167],[79.11723,29.88529],[79.12871,29.87293],[79.12443,29.86741],[79.12564,29.8509],[79.14167,29.84167],[79.14107,29.82175],[79.13277,29.81962],[79.1339,29.81029],[79.13807,29.80491],[79.13693,29.79779],[79.12585,29.78665],[79.12409,29.77979],[79.10196,29.7786],[79.09792,29.77547],[79.09388,29.7786],[79.08529,29.77973],[79.07721,29.78693],[79.04925,29.78807],[79.04388,29.7839],[79.02842,29.78277],[79.02304,29.78693],[79.01667,29.7875],[79.01578,29.79096],[79,29.79583],[78.99388,29.78807],[78.97279,29.78693],[78.96335,29.78248],[78.96158,29.77558],[78.95221,29.76723],[78.94259,29.76596],[78.93807,29.76054],[78.9375,29.75417],[78.92009,29.7589],[78.91175,29.7536],[78.88971,29.77027],[78.87279,29.7714],[78.85638,29.78277],[78.82279,29.7839],[78.81763,29.7879],[78.8116,29.80351],[78.79167,29.80417],[78.7871,29.81153],[78.78002,29.81335],[78.77917,29.81667],[78.76492,29.80869],[78.75591,29.80798],[78.74829,29.80381],[78.73576,29.81215],[78.71667,29.81667],[78.71631,29.82326],[78.70662,29.83715],[78.68333,29.8375],[78.68267,29.84493],[78.67574,29.84671],[78.67443,29.85491],[78.6786,29.86029],[78.67973,29.87575],[78.6714,29.88946],[78.67027,29.89804],[78.66307,29.90612],[78.6625,29.92083],[78.64362,29.9214],[78.63847,29.9254],[78.63659,29.93271],[78.625,29.93333],[78.62443,29.92696],[78.61723,29.91888],[78.61596,29.90925],[78.61054,29.90473],[78.60196,29.9036],[78.58971,29.8964],[78.58005,29.89512],[78.57403,29.87956],[78.56667,29.875],[78.56723,29.86862],[78.5714,29.86325],[78.5702,29.84682],[78.56054,29.83807],[78.55502,29.83665],[78.55325,29.82977],[78.5375,29.82917],[78.53636,29.8336],[78.53138,29.82973],[78.51592,29.8286],[78.51041,29.83287],[78.4882,29.81575],[78.48679,29.80505],[78.47168,29.79915],[78.46307,29.78138],[78.4625,29.7625],[78.45896,29.76159],[78.45803,29.7443],[78.48854,29.73813],[78.50096,29.7329],[78.51398,29.72305],[78.52145,29.69347],[78.52149,29.65782],[78.54081,29.62709],[78.56507,29.60109],[78.5812,29.58561],[78.61667,29.55877],[78.62425,29.55654],[78.63851,29.54666],[78.65047,29.546],[78.70037,29.50573],[78.71121,29.50036],[78.72009,29.50217],[78.74501,29.50078],[78.74919,29.49596],[78.75655,29.49459],[78.77757,29.47714],[78.79967,29.46457],[78.81056,29.46581],[78.82274,29.45975],[78.84108,29.45715],[78.88087,29.44338],[78.9002,29.44149],[78.91872,29.43426],[78.94233,29.43857],[78.94024,29.43526],[78.94312,29.43469],[78.92571,29.42595],[78.91838,29.40351],[78.91148,29.39961],[78.91179,29.39375],[78.90219,29.38495],[78.89216,29.38096],[78.88734,29.37305],[78.87774,29.37497],[78.87573,29.37198],[78.87958,29.36936],[78.87871,29.36601],[78.86032,29.3582],[78.85193,29.36033],[78.85113,29.35552],[78.85598,29.34972],[78.84987,29.34482],[78.84024,29.34597],[78.82745,29.35421],[78.82586,29.36555],[78.83026,29.36801],[78.82473,29.36713],[78.81051,29.34012],[78.7999,29.33458],[78.80472,29.31925],[78.7982,29.31901],[78.79591,29.31177],[78.78955,29.3153],[78.7954,29.32501],[78.79345,29.32817],[78.79052,29.33059],[78.78679,29.32611],[78.77748,29.32573],[78.77333,29.32849],[78.77431,29.33198],[78.76655,29.3374],[78.75376,29.33122],[78.74955,29.32324],[78.75032,29.31735],[78.74068,29.31579],[78.74067,29.32042],[78.73367,29.3219],[78.73577,29.31853],[78.73209,29.31756],[78.73134,29.31352],[78.73445,29.30294],[78.72719,29.30551],[78.72299,29.30345],[78.71859,29.30664],[78.72269,29.29932],[78.73452,29.29957],[78.76502,29.27931],[78.77321,29.27113],[78.77019,29.26704],[78.77383,29.26199],[78.78509,29.25365],[78.78975,29.25496],[78.79077,29.2469],[78.79841,29.24442],[78.80737,29.23668],[78.82008,29.23214],[78.82571,29.23611],[78.83231,29.23675],[78.83816,29.24255],[78.8413,29.23969],[78.83946,29.23679],[78.84337,29.23484],[78.84554,29.23677],[78.84954,29.23271],[78.85107,29.23682],[78.85834,29.24184],[78.86217,29.23943],[78.85859,29.23299],[78.87069,29.22725],[78.87448,29.23025],[78.87648,29.22553],[78.87176,29.22257],[78.87947,29.21881],[78.87854,29.21426],[78.88328,29.21131],[78.87522,29.20517],[78.88104,29.19992],[78.8855,29.20317],[78.89062,29.20118],[78.89128,29.19808],[78.88675,29.19508],[78.89006,29.19221],[78.89636,29.19358],[78.89974,29.18588],[78.89457,29.18576],[78.90317,29.18091],[78.90347,29.17824],[78.90875,29.17856],[78.90167,29.16956],[78.90905,29.16354],[78.90637,29.15174],[78.91287,29.15438],[78.91545,29.15245],[78.91105,29.14443],[78.91876,29.13553],[78.90633,29.12501],[78.92702,29.11813],[78.93464,29.12964],[78.94375,29.12751],[78.95645,29.11989],[78.96417,29.1305],[78.97287,29.12691],[78.97468,29.13595],[78.98234,29.14305],[78.98984,29.13949],[78.99128,29.13068],[79.00424,29.1259],[79.00171,29.12226],[79.00817,29.11191],[79.01419,29.11662],[79.0267,29.11242],[79.03456,29.1177],[79.04063,29.12767],[79.03175,29.1281],[79.02732,29.13244],[79.01921,29.12934],[79.01692,29.13077],[79.01494,29.13395],[79.02111,29.14583],[79.01782,29.15384],[79.02382,29.15555],[79.02978,29.14697],[79.0374,29.14482],[79.03595,29.15309],[79.03937,29.15841],[79.03237,29.15913],[79.02912,29.16413],[79.03584,29.16939],[79.04538,29.16418],[79.0537,29.15487],[79.07487,29.15164],[79.1119,29.12792],[79.11946,29.12577],[79.12687,29.13268],[79.1535,29.11518],[79.15084,29.10341],[79.15318,29.10155],[79.14832,29.09914],[79.15153,29.0954],[79.14212,29.08194],[79.1425,29.06695],[79.14876,29.05845],[79.16191,29.04896],[79.17511,29.04625],[79.16916,29.04238],[79.17085,29.03942],[79.168,29.03826],[79.16751,29.0322],[79.16235,29.02921],[79.16528,29.01779],[79.16843,29.01942],[79.17581,29.01574],[79.17106,29.01187],[79.18094,29.01288],[79.18595,29.01764],[79.19384,29.01559],[79.19077,29.02318],[79.19426,29.01972],[79.20365,29.02074],[79.21173,29.02756],[79.23155,29.01512],[79.25102,29.01024],[79.24775,29.00334],[79.25913,28.9924],[79.30727,28.96647],[79.31268,28.96897],[79.30986,28.97172],[79.3119,28.97706],[79.32146,28.9718],[79.33722,28.97213],[79.3647,28.96807],[79.36517,28.97074],[79.36099,28.97193],[79.36211,28.98144],[79.37236,28.98747],[79.37714,28.97139],[79.38175,28.9698],[79.38733,28.9497],[79.39065,28.94739],[79.40471,28.94921],[79.40748,28.95225],[79.41901,28.94003],[79.41584,28.92787],[79.42795,28.91978],[79.42689,28.91618],[79.42487,28.91675],[79.42764,28.91269],[79.42511,28.91213],[79.42532,28.90522],[79.42252,28.90303],[79.42466,28.89743],[79.42294,28.89349],[79.42773,28.89298],[79.43099,28.8868],[79.4249,28.86812],[79.43923,28.86207],[79.44518,28.86383],[79.44537,28.867],[79.44995,28.86755],[79.45164,28.87163],[79.46194,28.86676],[79.47722,28.86457],[79.47873,28.87114],[79.49714,28.87287],[79.50992,28.86453],[79.5114,28.86722],[79.52178,28.86474],[79.53304,28.86971],[79.54791,28.89097],[79.55494,28.89376],[79.55275,28.8958],[79.55648,28.89926],[79.57062,28.89253],[79.57124,28.88646],[79.57755,28.88864],[79.57835,28.88349],[79.58427,28.87918],[79.58019,28.87115],[79.58097,28.86616],[79.57349,28.85465],[79.57565,28.85045],[79.58436,28.84627],[79.58751,28.84999],[79.59712,28.85125],[79.6039,28.85683],[79.61331,28.85283],[79.62138,28.86431],[79.62613,28.86662],[79.63092,28.86112],[79.63601,28.86681],[79.64486,28.86343],[79.64745,28.86702],[79.65605,28.86977],[79.66571,28.86557],[79.66342,28.86194],[79.66744,28.8597],[79.68189,28.85679],[79.68316,28.84997],[79.692,28.84788],[79.68996,28.84533],[79.70667,28.84101],[79.70962,28.8511],[79.71855,28.84881],[79.71991,28.84567],[79.72637,28.86097],[79.73652,28.85626],[79.73825,28.85876],[79.74565,28.85992],[79.74997,28.87172],[79.75062,28.87964],[79.74645,28.88534],[79.74488,28.8961],[79.73688,28.89105],[79.7299,28.89663],[79.72432,28.9365],[79.70833,28.94583],[79.70452,28.95174],[79.70381,28.96492],[79.69168,28.98125],[79.70381,28.99341],[79.70417,29],[79.70066,29.0009],[79.69943,29.01471],[79.68807,29.03112],[79.68277,29.07304],[79.67964,29.07708],[79.68277,29.08112],[79.6839,29.09879],[79.67917,29.1],[79.67027,29.12185],[79.68818,29.14077],[79.69516,29.14256],[79.6964,29.15491],[79.69223,29.16029],[79.6911,29.16888],[79.67546,29.1854],[79.68277,29.20196],[79.68333,29.21667],[79.71076,29.21631],[79.71424,29.21285],[79.73159,29.21215],[79.73579,29.20798],[79.75242,29.20869],[79.76008,29.21631],[79.77721,29.21723],[79.78679,29.22172],[79.78807,29.23138],[79.79537,29.23957],[79.79167,29.24583],[79.79498,29.24668],[79.8036,29.26446],[79.80473,29.27721],[79.80925,29.28263],[79.81995,29.28404],[79.82083,29.2875],[79.82027,29.30221],[79.8157,29.3121],[79.80488,29.31755],[79.8036,29.32721],[79.7964,29.33529],[79.79513,29.3449],[79.76888,29.3661],[79.74527,29.37621],[79.75057,29.40221],[79.75502,29.41165],[79.76179,29.41339],[79.76733,29.44077],[79.77083,29.44167],[79.77083,29.44583],[79.76752,29.44668],[79.7621,29.45737],[79.74583,29.45833],[79.74583,29.4625],[79.74943,29.46862],[79.75061,29.49492],[79.76249,29.5015],[79.75473,29.51446],[79.75417,29.525],[79.76841,29.53298],[79.77742,29.53369],[79.78579,29.53786],[79.80245,29.55869],[79.81909,29.55798],[79.82292,29.55418],[79.82674,29.55798],[79.84167,29.55833],[79.84965,29.56841],[79.84939,29.59075],[79.83307,29.59697],[79.8411,29.61029],[79.84223,29.61741],[79.82963,29.63541],[79.83286,29.63958],[79.8286,29.64658],[79.83333,29.65417],[79.8375,29.65417],[79.83665,29.65748],[79.82721,29.66193],[79.81029,29.66307],[79.79388,29.67443],[79.77279,29.67557],[79.76316,29.68007],[79.76193,29.69388],[79.75794,29.69903],[79.75417,29.7],[79.74102,29.71576],[79.73418,29.71752],[79.72877,29.7282],[79.72279,29.72973],[79.70904,29.7426],[79.70332,29.76165],[79.69263,29.76706],[79.69223,29.77304],[79.70085,29.79082],[79.70417,29.79167],[79.6839,29.81862],[79.68262,29.82828],[79.67696,29.82973],[79.66888,29.83693],[79.65196,29.83807],[79.6303,29.85026],[79.62826,29.84229],[79.60759,29.8411],[79.59388,29.84943],[79.58529,29.85057],[79.57304,29.86193],[79.56054,29.8661],[79.5125,29.86667],[79.50381,29.88576],[79.49585,29.89375],[79.50381,29.90174],[79.50452,29.92255],[79.50035,29.92674],[79.49934,29.94493],[79.48847,29.9504],[79.4839,29.96029],[79.48277,29.96325],[79.48807,29.97379],[79.47083,29.97917],[79.47119,29.99409],[79.48298,30.01424],[79.48333,30.025]]]},"properties":{"basin_name":"Ramganga Basin","SUB_AREA":24962.2}},
{"type":"Feature","geometry":{"type":"MultiPolygon","coordinates":[[[[77.93624,30.24917],[77.93243,30.25351],[77.91862,30.25473],[77.90221,30.2661],[77.88946,30.26723],[77.88541,30.27037],[77.87712,30.26299],[77.88166,30.26227],[77.88574,30.26698],[77.89276,30.26569],[77.91089,30.25699],[77.93624,30.24917]]],[[[77.86332,30.26764],[77.8625,30.27083],[77.85916,30.27101],[77.86332,30.26764]]],[[[77.85586,30.27123],[77.85,30.275],[77.84965,30.27105],[77.85586,30.27123]]],[[[78.27083,30.42083],[78.26993,30.41733],[78.25591,30.41702],[78.23992,30.42881],[78.22674,30.42952],[78.21076,30.44131],[78.20174,30.44202],[78.18992,30.44965],[78.18333,30.45],[78.18217,30.45453],[78.17304,30.4464],[78.16592,30.44527],[78.15221,30.4536],[78.14341,30.45381],[78.13958,30.45001],[78.13576,30.45381],[78.12258,30.45452],[78.11875,30.45832],[78.11492,30.45452],[78.10662,30.45381],[78.1,30.45833],[78.09886,30.46276],[78.09388,30.4589],[78.0875,30.45833],[78.08807,30.45196],[78.09223,30.44658],[78.08693,30.43825],[78.08807,30.42696],[78.09223,30.42158],[78.0911,30.39779],[78.08248,30.38418],[78.0754,30.38237],[78.06987,30.37123],[78.06471,30.36723],[78.05196,30.3661],[78.03971,30.35473],[78.0125,30.34583],[78.01215,30.32258],[78.00452,30.31076],[78.00381,30.29758],[77.99202,30.28159],[77.99131,30.27258],[77.97535,30.25659],[77.97464,30.25171],[77.96909,30.24619],[77.95591,30.24619],[77.95208,30.24999],[77.94826,30.24619],[77.93995,30.24548],[77.93683,30.24858],[77.94147,30.23979],[77.94982,30.24231],[77.95151,30.24528],[77.9617,30.24237],[77.958,30.24224],[77.94692,30.23406],[77.93213,30.21439],[77.91894,30.21128],[77.91202,30.18253],[77.88118,30.15073],[77.86609,30.11914],[77.86042,30.11319],[77.84936,30.1047],[77.83682,30.10352],[77.83303,30.09458],[77.83428,30.09052],[77.82805,30.08592],[77.82167,30.08568],[77.80119,30.09548],[77.7997,30.08719],[77.79675,30.08528],[77.79845,30.08355],[77.77114,30.04802],[77.77005,30.04255],[77.78137,30.0335],[77.77938,30.03067],[77.78549,30.02789],[77.78198,30.01863],[77.77581,30.01797],[77.77391,30.01475],[77.76221,30.00949],[77.76234,30.00706],[77.76254,30.00334],[77.76312,29.99266],[77.76862,29.98807],[77.77825,29.9868],[77.78277,29.98138],[77.78333,29.96667],[77.79077,29.96601],[77.80085,29.94252],[77.80775,29.94075],[77.82279,29.9214],[77.84082,29.91165],[77.84619,29.89758],[77.85381,29.88992],[77.85452,29.85174],[77.85833,29.84583],[77.85497,29.84497],[77.8536,29.83871],[77.86165,29.83665],[77.86339,29.82988],[77.87411,29.82846],[77.8786,29.81888],[77.87973,29.79509],[77.87083,29.7875],[77.8714,29.77279],[77.87973,29.76344],[77.87292,29.75464],[77.86875,29.75786],[77.85892,29.75325],[77.85057,29.74388],[77.84943,29.73112],[77.84527,29.72575],[77.84651,29.7134],[77.85443,29.71136],[77.85,29.7],[77.85591,29.70381],[77.86577,29.70351],[77.87082,29.69375],[77.86675,29.68809],[77.87471,29.68729],[77.87948,29.69291],[77.87901,29.70024],[77.88265,29.70243],[77.8909,29.69886],[77.89661,29.7022],[77.90207,29.70119],[77.91253,29.69592],[77.91396,29.69848],[77.92007,29.69929],[77.91577,29.70221],[77.91692,29.70556],[77.91979,29.705],[77.92644,29.71422],[77.93457,29.71112],[77.93815,29.71448],[77.94094,29.71084],[77.94702,29.71248],[77.95302,29.70735],[77.94957,29.70413],[77.95098,29.70159],[77.93989,29.69608],[77.95093,29.68736],[77.94744,29.68309],[77.94937,29.6798],[77.96996,29.66643],[77.96645,29.65014],[77.97945,29.64266],[77.98186,29.64512],[77.98379,29.64364],[77.97739,29.63125],[77.97769,29.61345],[77.96021,29.61165],[77.94842,29.61691],[77.9333,29.60051],[77.94034,29.59271],[77.9671,29.58014],[77.97311,29.58031],[77.97493,29.58502],[77.98645,29.58438],[77.99516,29.5958],[78.0008,29.58621],[78.0216,29.58085],[78.01524,29.58725],[78.01828,29.5982],[78.03307,29.61161],[78.04649,29.61608],[78.04885,29.61461],[78.05747,29.63069],[78.06855,29.63042],[78.08669,29.62503],[78.08146,29.63514],[78.0934,29.64045],[78.10403,29.64123],[78.11929,29.64997],[78.13054,29.65254],[78.13758,29.66354],[78.17162,29.69157],[78.18051,29.69683],[78.1884,29.69229],[78.19603,29.69268],[78.20358,29.72826],[78.20016,29.73029],[78.20392,29.73727],[78.22165,29.74066],[78.22958,29.73669],[78.24023,29.74143],[78.24592,29.73452],[78.25009,29.73426],[78.25975,29.73834],[78.26219,29.74355],[78.26703,29.74284],[78.28453,29.76178],[78.29268,29.75906],[78.30952,29.77996],[78.3129,29.77941],[78.33566,29.79661],[78.39276,29.76739],[78.40906,29.76338],[78.42851,29.76446],[78.44514,29.75038],[78.45803,29.7443],[78.45896,29.76159],[78.4625,29.7625],[78.46307,29.78138],[78.47168,29.79915],[78.48679,29.80505],[78.4882,29.81575],[78.51041,29.83287],[78.51592,29.8286],[78.53138,29.82973],[78.53636,29.8336],[78.5375,29.82917],[78.55325,29.82977],[78.55502,29.83665],[78.56054,29.83807],[78.5702,29.84682],[78.5714,29.86325],[78.56723,29.86862],[78.56667,29.875],[78.57403,29.87956],[78.58005,29.89512],[78.58971,29.8964],[78.60196,29.9036],[78.61054,29.90473],[78.61596,29.90925],[78.61723,29.91888],[78.62443,29.92696],[78.625,29.93333],[78.63659,29.93271],[78.63847,29.9254],[78.64362,29.9214],[78.6625,29.92083],[78.66307,29.90612],[78.67027,29.89804],[78.6714,29.88946],[78.67973,29.87575],[78.6786,29.86029],[78.67443,29.85491],[78.67574,29.84671],[78.68267,29.84493],[78.68333,29.8375],[78.70662,29.83715],[78.71631,29.82326],[78.71667,29.81667],[78.73576,29.81215],[78.74829,29.80381],[78.75591,29.80798],[78.76492,29.80869],[78.77917,29.81667],[78.78002,29.81335],[78.7871,29.81153],[78.79167,29.80417],[78.8116,29.80351],[78.81763,29.7879],[78.82279,29.7839],[78.85638,29.78277],[78.87279,29.7714],[78.88971,29.77027],[78.91175,29.7536],[78.92009,29.7589],[78.9375,29.75417],[78.93807,29.76054],[78.94259,29.76596],[78.95221,29.76723],[78.96158,29.77558],[78.96335,29.78248],[78.97279,29.78693],[78.99388,29.78807],[79,29.79583],[79.01578,29.79096],[79.01667,29.7875],[79.02304,29.78693],[79.02842,29.78277],[79.04388,29.7839],[79.04925,29.78807],[79.07721,29.78693],[79.08529,29.77973],[79.09388,29.7786],[79.09792,29.77547],[79.10196,29.7786],[79.12409,29.77979],[79.12585,29.78665],[79.13693,29.79779],[79.13807,29.80491],[79.1339,29.81029],[79.13277,29.81962],[79.14107,29.82175],[79.14167,29.84167],[79.12564,29.8509],[79.12443,29.86741],[79.12871,29.87293],[79.11723,29.88529],[79.11667,29.89167],[79.12881,29.90591],[79.12917,29.90833],[79.12119,29.91421],[79.12048,29.93088],[79.12881,29.93924],[79.12952,29.95588],[79.11876,29.96667],[79.11458,29.96251],[79.11076,29.96631],[79.1,29.96667],[79.10035,29.96909],[79.10798,29.98508],[79.10869,29.99412],[79.13091,30.01631],[79.14826,30.01702],[79.15174,30.02048],[79.16076,30.02119],[79.18665,30.03418],[79.19167,30.0625],[79.19583,30.06667],[79.19548,30.07742],[79.19167,30.08333],[79.1875,30.0875],[79.17674,30.08785],[79.17326,30.09131],[79.15591,30.09202],[79.15,30.09583],[79.14934,30.10743],[79.14362,30.1089],[79.13394,30.11768],[79.13277,30.14677],[79.14121,30.15625],[79.13275,30.16575],[79.12571,30.16755],[79.12429,30.17828],[79.11862,30.17973],[79.10221,30.19527],[79.09644,30.19675],[79.09583,30.2125],[79.075,30.22083],[79.06424,30.22048],[79.06076,30.21702],[79.03529,30.2161],[79.02979,30.21151],[79.02854,30.18841],[79.01888,30.1839],[78.99362,30.18277],[78.98958,30.17964],[78.98542,30.18286],[78.98138,30.17973],[78.96341,30.17853],[78.9625,30.175],[78.95174,30.17535],[78.94412,30.17952],[78.93958,30.17501],[78.92742,30.18298],[78.91912,30.18369],[78.91492,30.17952],[78.90174,30.17881],[78.89826,30.17535],[78.88924,30.17465],[78.87742,30.16702],[78.85417,30.16667],[78.85035,30.16076],[78.85,30.14583],[78.83946,30.14527],[78.82983,30.14077],[78.82851,30.1259],[78.825,30.125],[78.82083,30.11667],[78.81079,30.12119],[78.80659,30.11702],[78.78995,30.11631],[78.77917,30.125],[78.77465,30.14409],[78.76496,30.15381],[78.75245,30.15869],[78.73958,30.15001],[78.72326,30.16215],[78.71841,30.16285],[78.70659,30.17465],[78.7,30.175],[78.68966,30.16312],[78.68369,30.16141],[78.67145,30.14799],[78.67002,30.13819],[78.64784,30.13688],[78.63549,30.12978],[78.62083,30.12917],[78.60502,30.13835],[78.60417,30.14167],[78.6,30.14167],[78.58091,30.14131],[78.57328,30.13715],[78.56492,30.14548],[78.55417,30.15],[78.55332,30.15332],[78.53554,30.16193],[78.51667,30.1625],[78.5161,30.17721],[78.50332,30.19915],[78.49388,30.2036],[78.48112,30.20473],[78.46757,30.21731],[78.46577,30.22433],[78.45342,30.22557],[78.44804,30.2214],[78.44092,30.22027],[78.43333,30.22917],[78.42703,30.22981],[78.41788,30.23765],[78.41186,30.25032],[78.42019,30.26453],[78.42148,30.2813],[78.42525,30.28662],[78.41667,30.2875],[78.41631,30.29826],[78.40869,30.30591],[78.40798,30.32742],[78.40381,30.33505],[78.40833,30.34167],[78.39252,30.34668],[78.38693,30.36054],[78.36713,30.38541],[78.3714,30.39241],[78.36578,30.40346],[78.34779,30.4089],[78.33576,30.42048],[78.31008,30.42119],[78.30625,30.42499],[78.29583,30.4125],[78.28333,30.4125],[78.28248,30.41582],[78.27083,30.42083]]]]},"properties":{"basin_name":"Ganga Basin","SUB_AREA":21281.5}},
{"type":"Feature","geometry":{"type":"Polygon","coordinates":[[[79.14583,31.4234],[79.12742,31.43486],[79.10848,31.43763],[79.09956,31.44332],[79.09,31.44499],[79.07465,31.45592],[79.07119,31.45242],[79.06631,31.43504],[79.06005,31.42881],[79.05125,31.42931],[79.05151,31.41979],[79.02374,31.39637],[79.01277,31.37038],[79.02119,31.35588],[79.02047,31.35171],[79.01492,31.34619],[79.00417,31.34167],[79,31.34167],[78.99577,31.3486],[78.96698,31.33689],[78.94759,31.31952],[78.94166,31.27421],[78.93707,31.26062],[78.93269,31.25294],[78.9121,31.25515],[78.91155,31.25147],[78.91761,31.24576],[78.92206,31.22531],[78.92904,31.21697],[78.94773,31.21677],[78.94868,31.21331],[78.94383,31.20648],[78.948,31.19851],[78.95831,31.19037],[78.95753,31.18659],[78.9792,31.17902],[78.98591,31.17383],[78.9905,31.16127],[78.98822,31.15421],[78.99083,31.14816],[78.98758,31.14329],[78.99076,31.13806],[78.9996,31.13469],[79.00892,31.10992],[79.00216,31.11242],[78.99004,31.10852],[78.97299,31.10808],[78.96308,31.10118],[78.95073,31.09798],[78.94512,31.10057],[78.93223,31.10068],[78.92593,31.10944],[78.92057,31.11072],[78.91273,31.10764],[78.91231,31.10208],[78.9086,31.09886],[78.90044,31.09979],[78.89064,31.0969],[78.88543,31.09872],[78.87289,31.10886],[78.86524,31.12001],[78.84801,31.12511],[78.84147,31.12971],[78.83814,31.13834],[78.83121,31.1406],[78.82296,31.15774],[78.82489,31.16351],[78.81072,31.17187],[78.81047,31.18026],[78.81738,31.18961],[78.81641,31.19437],[78.81036,31.19815],[78.80454,31.19829],[78.79551,31.19582],[78.78596,31.19221],[78.78159,31.18785],[78.77258,31.18715],[78.77257,31.18714],[78.76667,31.18333],[78.76149,31.18615],[78.75984,31.1869],[78.71867,31.18783],[78.71714,31.18787],[78.7049,31.18904],[78.68963,31.19642],[78.68921,31.19667],[78.68306,31.19772],[78.66819,31.19222],[78.65801,31.18504],[78.65955,31.19142],[78.65553,31.19105],[78.65322,31.19844],[78.6488,31.20285],[78.64909,31.2118],[78.63117,31.21312],[78.62083,31.22083],[78.62048,31.21008],[78.61285,31.20242],[78.61215,31.19758],[78.57952,31.16495],[78.57881,31.16008],[78.56668,31.14792],[78.57048,31.14409],[78.57119,31.13162],[78.54619,31.10242],[78.54583,31.09583],[78.55174,31.09202],[78.56079,31.09131],[78.56631,31.08576],[78.56702,31.07258],[78.57465,31.06076],[78.57535,31.05174],[78.58298,31.04409],[78.58298,31.03924],[78.57535,31.03159],[78.57465,31.02258],[78.55833,31.00417],[78.55869,30.99758],[78.56631,30.98992],[78.56702,30.98504],[78.575,30.97917],[78.57048,30.97255],[78.57119,30.96424],[78.57952,30.95588],[78.575,30.94583],[78.55612,30.94527],[78.54675,30.93692],[78.54127,30.92597],[78.50612,30.91193],[78.50097,30.90794],[78.49909,30.90062],[78.45612,30.89527],[78.44804,30.88807],[78.43529,30.88693],[78.43125,30.8838],[78.42721,30.88693],[78.40342,30.88807],[78.39252,30.88248],[78.39082,30.87585],[78.38418,30.87415],[78.38333,30.85],[78.36909,30.83785],[78.36008,30.83715],[78.35659,30.83369],[78.33826,30.83262],[78.33675,30.81336],[78.30833,30.80417],[78.30798,30.79341],[78.29202,30.77742],[78.2875,30.76667],[78.27304,30.77443],[78.26175,30.77557],[78.24804,30.76723],[78.24092,30.7661],[78.23447,30.7711],[78.225,30.75417],[78.22535,30.73508],[78.23749,30.72292],[78.23333,30.71667],[78.20617,30.71188],[78.19383,30.70062],[78.17164,30.69931],[78.16605,30.68286],[78.17091,30.67621],[78.16667,30.675],[78.16631,30.65174],[78.15833,30.64167],[78.16285,30.61841],[78.16631,30.61492],[78.16667,30.5875],[78.18554,30.58693],[78.18946,30.5839],[78.19908,30.58263],[78.2036,30.57721],[78.20487,30.56759],[78.22434,30.55743],[78.22566,30.54263],[78.23248,30.53693],[78.23958,30.5412],[78.25762,30.53245],[78.25905,30.52168],[78.26372,30.52063],[78.27009,30.52557],[78.28248,30.51998],[78.29223,30.50075],[78.28661,30.48821],[78.27589,30.48679],[78.2661,30.46325],[78.27036,30.45208],[78.2661,30.44658],[78.27083,30.42083],[78.28248,30.41582],[78.28333,30.4125],[78.29583,30.4125],[78.30625,30.42499],[78.31008,30.42119],[78.33576,30.42048],[78.34779,30.4089],[78.36578,30.40346],[78.3714,30.39241],[78.36713,30.38541],[78.38693,30.36054],[78.39252,30.34668],[78.40833,30.34167],[78.40381,30.33505],[78.40798,30.32742],[78.40869,30.30591],[78.41631,30.29826],[78.41667,30.2875],[78.42525,30.28662],[78.42148,30.2813],[78.42019,30.26453],[78.41186,30.25032],[78.41788,30.23765],[78.42703,30.22981],[78.43333,30.22917],[78.44092,30.22027],[78.44804,30.2214],[78.45342,30.22557],[78.46577,30.22433],[78.46757,30.21731],[78.48112,30.20473],[78.49388,30.2036],[78.50332,30.19915],[78.5161,30.17721],[78.51667,30.1625],[78.53554,30.16193],[78.55332,30.15332],[78.55417,30.15],[78.56492,30.14548],[78.57328,30.13715],[78.58091,30.14131],[78.6,30.14167],[78.60417,30.15417],[78.61249,30.15983],[78.6089,30.16446],[78.6036,30.19388],[78.58693,30.21325],[78.59675,30.22846],[78.60638,30.22973],[78.61446,30.23693],[78.62016,30.2384],[78.6214,30.25099],[78.60777,30.26741],[78.61307,30.27575],[78.6089,30.28112],[78.60869,30.29409],[78.61667,30.30417],[78.61631,30.31076],[78.60035,30.32674],[78.60528,30.33732],[78.61033,30.34106],[78.62717,30.34227],[78.64505,30.35477],[78.65363,30.3494],[78.66181,30.35083],[78.66318,30.36986],[78.67699,30.37856],[78.69826,30.37881],[78.70591,30.37119],[78.71909,30.36631],[78.72329,30.36215],[78.73162,30.36702],[78.73576,30.36631],[78.73924,30.36285],[78.74829,30.36214],[78.75833,30.35],[78.78138,30.34943],[78.79082,30.34498],[78.79167,30.34167],[78.79758,30.34548],[78.80659,30.34619],[78.81008,30.34965],[78.82742,30.35035],[78.8375,30.35833],[78.83686,30.39502],[78.82701,30.39645],[78.82083,30.40417],[78.82585,30.41582],[78.83138,30.41723],[78.84493,30.42981],[78.84943,30.43946],[78.85057,30.44658],[78.8463,30.45208],[78.85,30.45833],[78.82917,30.48333],[78.83924,30.49131],[78.85242,30.49202],[78.86631,30.50588],[78.86702,30.51492],[78.87082,30.51875],[78.86702,30.52258],[78.86631,30.54409],[78.85835,30.55208],[78.86631,30.56008],[78.86702,30.56912],[78.88091,30.58298],[78.88579,30.58369],[78.89202,30.58995],[78.88786,30.60662],[78.89341,30.61215],[78.89829,30.61286],[78.90381,30.61841],[78.90452,30.62329],[78.9125,30.62917],[78.90869,30.63508],[78.90798,30.66005],[78.91249,30.66458],[78.90835,30.66875],[78.91215,30.67258],[78.9125,30.69167],[78.91582,30.69252],[78.92027,30.70196],[78.92597,30.72044],[78.93112,30.72443],[78.94902,30.72563],[78.95502,30.73665],[78.95833,30.7375],[78.96909,30.73715],[78.97671,30.73298],[78.98091,30.73715],[78.99409,30.73785],[79.00588,30.75381],[79.01076,30.75452],[79.02465,30.76838],[79.02535,30.78088],[79.02048,30.78922],[79.02881,30.79758],[79.03333,30.80833],[79.03992,30.80798],[79.05174,30.80035],[79.06909,30.79965],[79.07258,30.79619],[79.08162,30.79548],[79.09167,30.77917],[79.09804,30.7786],[79.10342,30.77443],[79.11471,30.77557],[79.12384,30.7837],[79.125,30.77917],[79.13777,30.77837],[79.13268,30.77108],[79.13419,30.75876],[79.14375,30.75063],[79.14788,30.75351],[79.16046,30.75482],[79.16642,30.75899],[79.19068,30.74902],[79.19265,30.74265],[79.19924,30.74061],[79.2,30.73333],[79.23992,30.73369],[79.24375,30.73749],[79.24758,30.73369],[79.27326,30.73369],[79.28333,30.74167],[79.28266,30.75317],[79.27701,30.75478],[79.26049,30.77022],[79.24235,30.77581],[79.24105,30.79799],[79.23333,30.80833],[79.23369,30.81909],[79.23715,30.82258],[79.24167,30.84167],[79.25,30.84583],[79.25769,30.86037],[79.25917,30.87007],[79.27427,30.87161],[79.27564,30.89199],[79.27144,30.89792],[79.28269,30.91453],[79.28398,30.92992],[79.26731,30.94787],[79.26758,30.95773],[79.28333,30.95833],[79.28425,30.96731],[79.325,30.9625],[79.32562,30.98966],[79.32924,30.99462],[79.32284,30.99645],[79.30355,31.0115],[79.31598,31.01331],[79.31667,31.025],[79.35221,31.02973],[79.36192,31.03425],[79.37027,31.04362],[79.37175,31.04942],[79.38112,31.05777],[79.38665,31.05918],[79.38847,31.06627],[79.39362,31.07027],[79.41181,31.07496],[79.40773,31.07699],[79.3988,31.10779],[79.33253,31.12735],[79.3127,31.14205],[79.30096,31.16781],[79.30316,31.19037],[79.29787,31.21047],[79.28437,31.23239],[79.27154,31.23716],[79.26921,31.23761],[79.25371,31.24173],[79.25094,31.24734],[79.23971,31.25777],[79.23418,31.25918],[79.23333,31.2625],[79.2379,31.26987],[79.24498,31.27168],[79.24943,31.28112],[79.25,31.29167],[79.24907,31.29491],[79.23033,31.30428],[79.22562,31.31451],[79.22438,31.32157],[79.23272,31.33117],[79.23296,31.33524],[79.21157,31.34639],[79.19721,31.35837],[79.18534,31.35895],[79.17159,31.3633],[79.17022,31.37547],[79.17438,31.38117],[79.17562,31.39214],[79.17222,31.39679],[79.16836,31.40013],[79.16424,31.40035],[79.15452,31.41004],[79.15381,31.41492],[79.14583,31.4234]]]},"properties":{"basin_name":"Bhagirathi Basin","SUB_AREA":7646.8}},
{"type":"Feature","geometry":{"type":"Polygon","coordinates":[[[79.41253,31.07482],[79.41181,31.07496],[79.39362,31.07027],[79.38847,31.06627],[79.38665,31.05918],[79.38112,31.05777],[79.37175,31.04942],[79.37027,31.04362],[79.36192,31.03425],[79.35221,31.02973],[79.31667,31.025],[79.31598,31.01331],[79.30355,31.0115],[79.32284,30.99645],[79.32924,30.99462],[79.32562,30.98966],[79.325,30.9625],[79.28425,30.96731],[79.28333,30.95833],[79.26758,30.95773],[79.26731,30.94787],[79.28398,30.92992],[79.28269,30.91453],[79.27144,30.89792],[79.27564,30.89199],[79.27427,30.87161],[79.25917,30.87007],[79.25769,30.86037],[79.25,30.84583],[79.24167,30.84167],[79.23715,30.82258],[79.23369,30.81909],[79.23333,30.80833],[79.24105,30.79799],[79.24235,30.77581],[79.26049,30.77022],[79.27701,30.75478],[79.28266,30.75317],[79.28333,30.74167],[79.27326,30.73369],[79.24758,30.73369],[79.24375,30.73749],[79.23992,30.73369],[79.2,30.73333],[79.19924,30.74061],[79.19265,30.74265],[79.19068,30.74902],[79.16642,30.75899],[79.16046,30.75482],[79.14788,30.75351],[79.14375,30.75063],[79.13419,30.75876],[79.13268,30.77108],[79.13777,30.77837],[79.125,30.77917],[79.12384,30.7837],[79.11471,30.77557],[79.10342,30.77443],[79.09804,30.7786],[79.09167,30.77917],[79.08162,30.79548],[79.07258,30.79619],[79.06909,30.79965],[79.05174,30.80035],[79.03992,30.80798],[79.03333,30.80833],[79.02881,30.79758],[79.02048,30.78922],[79.02535,30.78088],[79.02465,30.76838],[79.01076,30.75452],[79.00588,30.75381],[78.99409,30.73785],[78.98091,30.73715],[78.97671,30.73298],[78.96909,30.73715],[78.95833,30.7375],[78.95502,30.73665],[78.94902,30.72563],[78.93112,30.72443],[78.92597,30.72044],[78.92027,30.70196],[78.91582,30.69252],[78.9125,30.69167],[78.91215,30.67258],[78.90835,30.66875],[78.91249,30.66458],[78.90798,30.66005],[78.90869,30.63508],[78.9125,30.62917],[78.90452,30.62329],[78.90381,30.61841],[78.89829,30.61286],[78.89341,30.61215],[78.88786,30.60662],[78.89202,30.58995],[78.88579,30.58369],[78.88091,30.58298],[78.86702,30.56912],[78.86631,30.56008],[78.85835,30.55208],[78.86631,30.54409],[78.86702,30.52258],[78.87082,30.51875],[78.86702,30.51492],[78.86631,30.50588],[78.85242,30.49202],[78.83924,30.49131],[78.82917,30.48333],[78.85,30.45833],[78.8463,30.45208],[78.85057,30.44658],[78.84943,30.43946],[78.84493,30.42981],[78.83138,30.41723],[78.82585,30.41582],[78.82083,30.40417],[78.82701,30.39645],[78.83686,30.39502],[78.8375,30.35833],[78.82742,30.35035],[78.81008,30.34965],[78.80659,30.34619],[78.79758,30.34548],[78.79167,30.34167],[78.79082,30.34498],[78.78138,30.34943],[78.75833,30.35],[78.74829,30.36214],[78.73924,30.36285],[78.73576,30.36631],[78.73162,30.36702],[78.72329,30.36215],[78.71909,30.36631],[78.70591,30.37119],[78.69826,30.37881],[78.67699,30.37856],[78.66318,30.36986],[78.66181,30.35083],[78.65363,30.3494],[78.64505,30.35477],[78.62717,30.34227],[78.61033,30.34106],[78.60528,30.33732],[78.60035,30.32674],[78.61631,30.31076],[78.61667,30.30417],[78.60869,30.29409],[78.6089,30.28112],[78.61307,30.27575],[78.60777,30.26741],[78.6214,30.25099],[78.62016,30.2384],[78.61446,30.23693],[78.60638,30.22973],[78.59675,30.22846],[78.58693,30.21325],[78.6036,30.19388],[78.6089,30.16446],[78.61249,30.15983],[78.60417,30.15417],[78.6,30.14167],[78.60417,30.14167],[78.60502,30.13835],[78.62083,30.12917],[78.63549,30.12978],[78.64784,30.13688],[78.67002,30.13819],[78.67145,30.14799],[78.68369,30.16141],[78.68966,30.16312],[78.7,30.175],[78.70659,30.17465],[78.71841,30.16285],[78.72326,30.16215],[78.73958,30.15001],[78.75245,30.15869],[78.76496,30.15381],[78.77465,30.14409],[78.77917,30.125],[78.78995,30.11631],[78.80659,30.11702],[78.81079,30.12119],[78.82083,30.11667],[78.825,30.125],[78.82851,30.1259],[78.82983,30.14077],[78.83946,30.14527],[78.85,30.14583],[78.85035,30.16076],[78.85417,30.16667],[78.87742,30.16702],[78.88924,30.17465],[78.89826,30.17535],[78.90174,30.17881],[78.91492,30.17952],[78.91912,30.18369],[78.92742,30.18298],[78.93958,30.17501],[78.94412,30.17952],[78.95174,30.17535],[78.9625,30.175],[78.96341,30.17853],[78.98138,30.17973],[78.98542,30.18286],[78.98958,30.17964],[78.99362,30.18277],[79.01888,30.1839],[79.02854,30.18841],[79.02979,30.21151],[79.03529,30.2161],[79.06076,30.21702],[79.06424,30.22048],[79.075,30.22083],[79.09583,30.2125],[79.09644,30.19675],[79.10221,30.19527],[79.11862,30.17973],[79.12429,30.17828],[79.12571,30.16755],[79.13275,30.16575],[79.14121,30.15625],[79.13277,30.14677],[79.13394,30.11768],[79.14362,30.1089],[79.14934,30.10743],[79.15,30.09583],[79.15591,30.09202],[79.17326,30.09131],[79.17674,30.08785],[79.1875,30.0875],[79.19167,30.08333],[79.19826,30.08369],[79.20174,30.08715],[79.21909,30.08785],[79.23125,30.09582],[79.23542,30.09168],[79.23924,30.09548],[79.26492,30.09619],[79.26841,30.09965],[79.29583,30.10417],[79.29619,30.09755],[79.30591,30.08785],[79.32258,30.07952],[79.33333,30.07917],[79.33369,30.06841],[79.3375,30.0625],[79.35659,30.06215],[79.38542,30.04585],[79.38995,30.05035],[79.40242,30.04965],[79.41008,30.04202],[79.43159,30.04131],[79.43995,30.03298],[79.46492,30.04131],[79.47258,30.03369],[79.47746,30.03298],[79.48333,30.025],[79.4875,30.02083],[79.50659,30.01631],[79.51008,30.01285],[79.52742,30.01215],[79.54341,30.00035],[79.56005,29.99965],[79.56424,30.00381],[79.58576,30.00452],[79.58924,30.00798],[79.59826,30.00869],[79.60833,30.02083],[79.625,30.01667],[79.63259,30.0214],[79.65221,30.01193],[79.66156,30.0036],[79.66888,30.00473],[79.67425,30.0089],[79.71159,30.00353],[79.7125,30],[79.71909,30.00035],[79.72258,30.00381],[79.74409,30.00452],[79.74758,30.00798],[79.78159,30.00869],[79.78924,30.01631],[79.80242,30.01702],[79.80591,30.02048],[79.8125,30.02083],[79.80798,30.02745],[79.80869,30.03159],[79.81702,30.04829],[79.82674,30.05798],[79.86076,30.06702],[79.86458,30.07082],[79.86875,30.06668],[79.87329,30.07119],[79.90659,30.07048],[79.91008,30.06702],[79.91667,30.06667],[79.92123,30.07403],[79.93665,30.08002],[79.9375,30.08333],[79.94486,30.08399],[79.9536,30.09362],[79.95925,30.10775],[79.96862,30.1161],[79.97415,30.11752],[79.99252,30.14915],[79.99804,30.15057],[80.0074,30.1589],[80.03125,30.15047],[80.05748,30.16335],[80.06723,30.18971],[80.07558,30.19908],[80.08138,30.20057],[80.09493,30.21315],[80.09915,30.22832],[80.07145,30.24266],[80.06601,30.28243],[80.03835,30.29252],[80.03693,30.29804],[80.02399,30.31188],[79.9875,30.3125],[79.98785,30.32326],[79.99965,30.33924],[80.00035,30.35242],[80.00798,30.36008],[80.01752,30.38665],[80.03333,30.39583],[80.03812,30.41297],[80.03395,30.41867],[80.03266,30.44502],[80.0218,30.4466],[80.01312,30.46451],[80.01188,30.47547],[80.01728,30.48797],[80.01306,30.49375],[80.01611,30.49792],[80.00895,30.50617],[80.00833,30.5875],[80.02326,30.58785],[80.02674,30.59131],[80.03333,30.59167],[80.03455,30.5964],[80.06054,30.59527],[80.06446,30.59223],[80.07821,30.59101],[80.08841,30.57147],[80.10638,30.57027],[80.11446,30.56307],[80.12917,30.55833],[80.13576,30.55869],[80.14758,30.57048],[80.15591,30.57465],[80.17326,30.57535],[80.17674,30.57881],[80.18576,30.57952],[80.19758,30.58715],[80.21667,30.5875],[80.21637,30.61072],[80.2123,30.62492],[80.22095,30.64201],[80.21078,30.65025],[80.20815,30.65227],[80.19715,30.66231],[80.19706,30.66557],[80.19761,30.68001],[80.20315,30.68447],[80.20516,30.68689],[80.23242,30.68811],[80.23369,30.70659],[80.24844,30.72136],[80.24996,30.7317],[80.25032,30.74241],[80.2429,30.74663],[80.23988,30.75775],[80.22961,30.75878],[80.21491,30.74906],[80.2001,30.76472],[80.20322,30.77652],[80.18756,30.78985],[80.18518,30.79555],[80.18381,30.79815],[80.17777,30.80405],[80.15815,30.80588],[80.1542,30.79974],[80.15737,30.78873],[80.14354,30.78975],[80.13774,30.7841],[80.12242,30.77736],[80.11091,30.7793],[80.08827,30.7958],[80.0873,30.79812],[80.08444,30.80489],[80.0749,30.81707],[80.05747,30.82941],[80.05796,30.83604],[80.05261,30.84161],[80.04771,30.83802],[80.04203,30.83582],[80.02507,30.84809],[80.01225,30.86354],[79.99987,30.86701],[79.99347,30.87534],[79.99087,30.87788],[79.98784,30.87893],[79.97483,30.88142],[79.96401,30.88692],[79.96076,30.88369],[79.94758,30.88298],[79.94409,30.87952],[79.92917,30.87917],[79.92892,30.88315],[79.91039,30.91507],[79.89026,30.91864],[79.88994,30.92143],[79.88772,30.92978],[79.88742,30.93467],[79.88706,30.94054],[79.87583,30.96752],[79.87052,30.97093],[79.86527,30.97391],[79.86443,30.97438],[79.85384,30.97564],[79.84797,30.97148],[79.83718,30.97019],[79.82963,30.97449],[79.81637,30.97393],[79.81382,30.97626],[79.80877,30.98058],[79.80088,30.97948],[79.79728,30.97852],[79.79655,30.98094],[79.79263,30.98695],[79.78503,30.98753],[79.77859,30.98802],[79.77672,30.98843],[79.75662,31.00392],[79.7468,30.9996],[79.73978,30.98758],[79.73548,30.98154],[79.71711,30.976],[79.70943,30.97817],[79.70242,30.97119],[79.69509,30.97367],[79.6749,30.98349],[79.66642,30.98327],[79.66498,30.9829],[79.6636,30.96653],[79.65177,30.96179],[79.64444,30.95842],[79.63327,30.95338],[79.61985,30.95129],[79.61412,30.94425],[79.60551,30.93982],[79.60346,30.93265],[79.60005,30.94189],[79.59277,30.94681],[79.58295,30.94968],[79.57176,30.94855],[79.56454,30.95721],[79.55559,30.95732],[79.55206,30.96252],[79.54604,30.97109],[79.54034,30.97546],[79.54402,30.98306],[79.53995,30.98714],[79.53091,30.98785],[79.52119,30.99755],[79.52048,31.00659],[79.50869,31.01841],[79.50798,31.02671],[79.51143,31.03019],[79.49253,31.03344],[79.48959,31.03354],[79.46859,31.03347],[79.43845,31.02802],[79.43333,31.025],[79.43327,31.02833],[79.42476,31.03049],[79.42419,31.05705],[79.41253,31.07482]]]},"properties":{"basin_name":"Alakananda Basin","SUB_AREA":11116.7}},
{"type":"Feature","geometry":{"type":"MultiPolygon","coordinates":[[[[77.86675,29.68809],[77.87082,29.69375],[77.86577,29.70351],[77.85591,29.70381],[77.85,29.7],[77.85443,29.71136],[77.84651,29.7134],[77.84527,29.72575],[77.84943,29.73112],[77.85057,29.74388],[77.85892,29.75325],[77.86875,29.75786],[77.87292,29.75464],[77.87973,29.76344],[77.8714,29.77279],[77.87083,29.7875],[77.87973,29.79509],[77.8786,29.81888],[77.87411,29.82846],[77.86339,29.82988],[77.86165,29.83665],[77.8536,29.83871],[77.85497,29.84497],[77.85833,29.84583],[77.85452,29.85174],[77.85381,29.88992],[77.84619,29.89758],[77.84082,29.91165],[77.82279,29.9214],[77.80775,29.94075],[77.80085,29.94252],[77.79077,29.96601],[77.78333,29.96667],[77.78277,29.98138],[77.77825,29.9868],[77.76862,29.98807],[77.76312,29.99266],[77.76254,30.00334],[77.75538,29.999],[77.76038,29.99511],[77.75034,29.98587],[77.74371,29.98336],[77.74603,29.98055],[77.7402,29.97529],[77.74062,29.96956],[77.7333,29.95593],[77.74836,29.95164],[77.74299,29.94094],[77.74062,29.94219],[77.73047,29.93169],[77.74289,29.92493],[77.74298,29.9181],[77.74778,29.91117],[77.73653,29.90666],[77.7386,29.90321],[77.73392,29.89964],[77.72927,29.90051],[77.73186,29.8928],[77.72507,29.89031],[77.72275,29.88442],[77.71846,29.8874],[77.71602,29.88588],[77.71695,29.87847],[77.72077,29.87616],[77.71521,29.87299],[77.7143,29.86945],[77.72344,29.85505],[77.74189,29.85185],[77.74404,29.83988],[77.74022,29.83473],[77.7557,29.8253],[77.75399,29.8208],[77.75899,29.8185],[77.75608,29.81284],[77.75158,29.81068],[77.76322,29.80263],[77.76545,29.79592],[77.77467,29.79102],[77.77238,29.78],[77.77786,29.77498],[77.77312,29.7687],[77.78036,29.76502],[77.76931,29.75059],[77.76953,29.74534],[77.78268,29.73624],[77.76997,29.71836],[77.77113,29.71441],[77.78334,29.7094],[77.79185,29.70994],[77.8026,29.70339],[77.81048,29.70237],[77.79905,29.68619],[77.8286,29.66866],[77.83862,29.67049],[77.85025,29.67998],[77.8557,29.68006],[77.86281,29.68945],[77.86675,29.68809]]],[[[77.85,30.275],[77.84721,30.27572],[77.84653,30.27164],[77.84965,30.27105],[77.85,30.275]]],[[[77.84645,30.27647],[77.83576,30.28298],[77.82674,30.28369],[77.82326,30.28715],[77.81501,30.28707],[77.83283,30.28018],[77.84075,30.27376],[77.84217,30.27639],[77.84645,30.27647]]]]},"properties":{"basin_name":"","SUB_AREA":5895.6}},
{"type":"Feature","geometry":{"type":"Polygon","coordinates":[[[78.37888,31.28447],[78.36621,31.28506],[78.35638,31.27973],[78.34925,31.2786],[78.34692,31.28041],[78.33817,31.28176],[78.33636,31.27474],[78.33238,31.27782],[78.32349,31.27784],[78.31743,31.28066],[78.31609,31.2817],[78.31116,31.28314],[78.30862,31.27777],[78.31045,31.27109],[78.30633,31.25989],[78.29188,31.25995],[78.28287,31.26621],[78.27603,31.26151],[78.26047,31.23975],[78.24951,31.24004],[78.25071,31.23331],[78.24562,31.22968],[78.23231,31.23405],[78.22032,31.23394],[78.21579,31.22872],[78.21467,31.22134],[78.2012,31.21725],[78.18703,31.22705],[78.16023,31.22548],[78.1581,31.2189],[78.15362,31.21822],[78.14768,31.21059],[78.13338,31.20833],[78.1286,31.20078],[78.12348,31.20015],[78.10362,31.18538],[78.06596,31.18717],[78.05121,31.17989],[78.04264,31.1785],[78.04104,31.17292],[78.03384,31.16971],[78.02971,31.16411],[78.03034,31.15097],[78.02062,31.15155],[78.01445,31.15778],[78.00082,31.16195],[77.98472,31.15695],[77.96732,31.17337],[77.9589,31.17092],[77.95149,31.16131],[77.94316,31.16126],[77.92479,31.15043],[77.91581,31.15389],[77.90131,31.15182],[77.89874,31.15023],[77.90045,31.1422],[77.89401,31.13396],[77.88905,31.13299],[77.88913,31.1195],[77.88052,31.11479],[77.87323,31.11497],[77.86382,31.10851],[77.86047,31.10159],[77.86374,31.09396],[77.85124,31.07337],[77.83806,31.07265],[77.82893,31.05827],[77.82436,31.05545],[77.82205,31.05519],[77.82296,31.05866],[77.81136,31.0591],[77.81679,31.05669],[77.81604,31.04998],[77.82162,31.04671],[77.82137,31.04274],[77.82982,31.02876],[77.82288,31.02928],[77.81747,31.03304],[77.81145,31.03163],[77.807,31.02677],[77.80751,31.01621],[77.80994,31.01099],[77.82501,31.0098],[77.82199,31.00429],[77.83182,30.99399],[77.82417,30.98842],[77.82406,30.98047],[77.8163,30.97278],[77.81438,30.96178],[77.82419,30.95711],[77.83219,30.95959],[77.83759,30.95317],[77.82862,30.95329],[77.82436,30.9505],[77.81398,30.95383],[77.79366,30.96875],[77.77372,30.97418],[77.76917,30.97419],[77.76659,30.97014],[77.75382,30.96413],[77.74883,30.95113],[77.75404,30.93754],[77.75274,30.93381],[77.76394,30.93045],[77.7628,30.91818],[77.76589,30.91968],[77.76752,30.91733],[77.78422,30.91694],[77.78653,30.92026],[77.80493,30.92359],[77.81357,30.92132],[77.81094,30.91663],[77.81587,30.91032],[77.81528,30.90438],[77.80883,30.8967],[77.80138,30.89332],[77.79886,30.86804],[77.80359,30.86499],[77.80568,30.85321],[77.77923,30.86037],[77.77613,30.87541],[77.77341,30.87754],[77.76321,30.8804],[77.75822,30.8768],[77.75719,30.85998],[77.74587,30.85112],[77.74402,30.84659],[77.75768,30.83513],[77.76128,30.82607],[77.74837,30.82163],[77.7456,30.81314],[77.73294,30.80108],[77.73187,30.79187],[77.72136,30.77579],[77.70378,30.76516],[77.70896,30.75249],[77.70244,30.74595],[77.70796,30.73991],[77.72068,30.74179],[77.72836,30.73414],[77.73319,30.73534],[77.7373,30.73034],[77.73659,30.72415],[77.74669,30.71972],[77.74562,30.71387],[77.75582,30.70692],[77.7504,30.70011],[77.75258,30.69665],[77.74694,30.69443],[77.74741,30.67985],[77.75916,30.67577],[77.76421,30.67082],[77.77251,30.6691],[77.78119,30.65997],[77.7895,30.66223],[77.79253,30.65869],[77.78123,30.64667],[77.78674,30.6417],[77.78639,30.6367],[77.79062,30.634],[77.78605,30.62994],[77.78614,30.62442],[77.79255,30.62091],[77.79626,30.61365],[77.78025,30.61284],[77.77111,30.61638],[77.76894,30.61452],[77.77167,30.5969],[77.76435,30.59592],[77.75564,30.60469],[77.7519,30.60178],[77.7461,30.60389],[77.74325,30.60149],[77.74679,30.59746],[77.74325,30.59616],[77.74315,30.59311],[77.75664,30.58561],[77.77403,30.55784],[77.78357,30.55983],[77.79411,30.5532],[77.79964,30.55766],[77.80637,30.55449],[77.81785,30.56102],[77.8226,30.55378],[77.81994,30.54682],[77.82734,30.52912],[77.82586,30.52625],[77.82022,30.52499],[77.81852,30.50807],[77.81505,30.50513],[77.79986,30.50106],[77.78307,30.50058],[77.77567,30.49431],[77.76436,30.49108],[77.7394,30.47602],[77.72098,30.473],[77.7072,30.45924],[77.69794,30.45586],[77.69025,30.44802],[77.67077,30.44419],[77.65237,30.44805],[77.64327,30.43184],[77.637,30.43319],[77.63192,30.43125],[77.62268,30.43466],[77.59613,30.42729],[77.57427,30.41338],[77.57236,30.40791],[77.57604,30.39739],[77.59043,30.40628],[77.59831,30.40488],[77.6017,30.3997],[77.60288,30.40293],[77.61849,30.40238],[77.62289,30.40519],[77.62925,30.3979],[77.64726,30.40473],[77.65725,30.40067],[77.65973,30.39056],[77.67242,30.39047],[77.67655,30.38778],[77.67808,30.37566],[77.68607,30.37925],[77.6904,30.37595],[77.70608,30.34707],[77.72084,30.33082],[77.73209,30.32809],[77.74701,30.3201],[77.76116,30.31829],[77.78425,30.30565],[77.79424,30.29716],[77.81501,30.28707],[77.82326,30.28715],[77.82674,30.28369],[77.83576,30.28298],[77.84645,30.27647],[77.84721,30.27572],[77.85,30.275],[77.85586,30.27123],[77.85595,30.27118],[77.8581,30.27107],[77.85916,30.27101],[77.8625,30.27083],[77.86332,30.26764],[77.86373,30.26733],[77.87681,30.26318],[77.87712,30.26299],[77.88541,30.27037],[77.88946,30.26723],[77.90221,30.2661],[77.91862,30.25473],[77.93243,30.25351],[77.93624,30.24917],[77.93683,30.24858],[77.93995,30.24548],[77.94826,30.24619],[77.95208,30.24999],[77.95591,30.24619],[77.96909,30.24619],[77.97464,30.25171],[77.97535,30.25659],[77.99131,30.27258],[77.99202,30.28159],[78.00381,30.29758],[78.00452,30.31076],[78.01215,30.32258],[78.0125,30.34583],[78.03971,30.35473],[78.05196,30.3661],[78.06471,30.36723],[78.06987,30.37123],[78.0754,30.38237],[78.08248,30.38418],[78.0911,30.39779],[78.09223,30.42158],[78.08807,30.42696],[78.08693,30.43825],[78.09223,30.44658],[78.08807,30.45196],[78.0875,30.45833],[78.09388,30.4589],[78.09886,30.46276],[78.1,30.45833],[78.10662,30.45381],[78.11492,30.45452],[78.11875,30.45832],[78.12258,30.45452],[78.13576,30.45381],[78.13958,30.45001],[78.14341,30.45381],[78.15221,30.4536],[78.16592,30.44527],[78.17304,30.4464],[78.18217,30.45453],[78.18333,30.45],[78.18992,30.44965],[78.20174,30.44202],[78.21076,30.44131],[78.22674,30.42952],[78.23992,30.42881],[78.25591,30.41702],[78.26993,30.41733],[78.27083,30.42083],[78.2661,30.44658],[78.27036,30.45208],[78.2661,30.46325],[78.27589,30.48679],[78.28661,30.48821],[78.29223,30.50075],[78.28248,30.51998],[78.27009,30.52557],[78.26372,30.52063],[78.25905,30.52168],[78.25762,30.53245],[78.23958,30.5412],[78.23248,30.53693],[78.22566,30.54263],[78.22434,30.55743],[78.20487,30.56759],[78.2036,30.57721],[78.19908,30.58263],[78.18946,30.5839],[78.18554,30.58693],[78.16667,30.5875],[78.16631,30.61492],[78.16285,30.61841],[78.15833,30.64167],[78.16631,30.65174],[78.16667,30.675],[78.17091,30.67621],[78.16605,30.68286],[78.17164,30.69931],[78.19383,30.70062],[78.20617,30.71188],[78.23333,30.71667],[78.23749,30.72292],[78.22535,30.73508],[78.225,30.75417],[78.23447,30.7711],[78.24092,30.7661],[78.24804,30.76723],[78.26175,30.77557],[78.27304,30.77443],[78.2875,30.76667],[78.29202,30.77742],[78.30798,30.79341],[78.30833,30.80417],[78.33675,30.81336],[78.33826,30.83262],[78.35659,30.83369],[78.36008,30.83715],[78.36909,30.83785],[78.38333,30.85],[78.38418,30.87415],[78.39082,30.87585],[78.39252,30.88248],[78.40342,30.88807],[78.42721,30.88693],[78.43125,30.8838],[78.43529,30.88693],[78.44804,30.88807],[78.45612,30.89527],[78.49909,30.90062],[78.50097,30.90794],[78.50612,30.91193],[78.54127,30.92597],[78.54675,30.93692],[78.55612,30.94527],[78.575,30.94583],[78.57952,30.95588],[78.57119,30.96424],[78.57048,30.97255],[78.575,30.97917],[78.56702,30.98504],[78.56631,30.98992],[78.55869,30.99758],[78.55833,31.00417],[78.57465,31.02258],[78.57535,31.03159],[78.58298,31.03924],[78.58298,31.04409],[78.57535,31.05174],[78.57465,31.06076],[78.56702,31.07258],[78.56631,31.08576],[78.56079,31.09131],[78.55174,31.09202],[78.54583,31.09583],[78.54619,31.10242],[78.57119,31.13162],[78.57048,31.14409],[78.56668,31.14792],[78.57881,31.16008],[78.57952,31.16495],[78.61215,31.19758],[78.61285,31.20242],[78.62048,31.21008],[78.62083,31.22083],[78.6134,31.22149],[78.6125,31.225],[78.57696,31.22027],[78.5634,31.20769],[78.56159,31.2006],[78.55204,31.20028],[78.52359,31.19682],[78.51175,31.1911],[78.50638,31.19527],[78.48424,31.19646],[78.47482,31.21738],[78.46827,31.22579],[78.46716,31.22724],[78.46259,31.23331],[78.45,31.2375],[78.44642,31.24316],[78.44221,31.24738],[78.4375,31.25161],[78.43658,31.25412],[78.43225,31.25389],[78.42591,31.24425],[78.41345,31.23956],[78.40695,31.24219],[78.40283,31.24789],[78.40635,31.25407],[78.40402,31.25936],[78.40244,31.26213],[78.4,31.26458],[78.39722,31.26737],[78.39583,31.27083],[78.38775,31.27292],[78.3863,31.27143],[78.38587,31.27459],[78.37888,31.28447]]]},"properties":{"basin_name":"Yamuna Basin","SUB_AREA":18284.9}},
{"type":"Feature","geometry":{"type":"MultiPolygon","coordinates":[[[[78.77257,31.18714],[78.76149,31.18615],[78.76667,31.18333],[78.77257,31.18714]]],[[[78.75984,31.1869],[78.72673,31.1897],[78.71867,31.18783],[78.75984,31.1869]]],[[[78.77258,31.18715],[78.78159,31.18785],[78.78596,31.19221],[78.77258,31.18715]]],[[[78.66819,31.19222],[78.68306,31.19772],[78.67127,31.19669],[78.66819,31.19222]]],[[[78.65955,31.19142],[78.65322,31.19844],[78.65553,31.19105],[78.65955,31.19142]]],[[[78.52359,31.19682],[78.50756,31.19587],[78.48375,31.19894],[78.4798,31.21378],[78.47482,31.21738],[78.48424,31.19646],[78.50638,31.19527],[78.51175,31.1911],[78.52359,31.19682]]],[[[78.64909,31.2118],[78.64667,31.21501],[78.62597,31.21787],[78.62257,31.22407],[78.61228,31.22883],[78.60229,31.22852],[78.59676,31.22512],[78.58214,31.22637],[78.56807,31.21915],[78.55204,31.20028],[78.56159,31.2006],[78.5634,31.20769],[78.57696,31.22027],[78.6125,31.225],[78.6134,31.22149],[78.62083,31.22083],[78.63117,31.21312],[78.64909,31.2118]]],[[[78.46259,31.23331],[78.45571,31.24102],[78.44999,31.24064],[78.44642,31.24316],[78.45,31.2375],[78.46259,31.23331]]],[[[78.39722,31.26737],[78.39617,31.27531],[78.38775,31.27292],[78.39583,31.27083],[78.39722,31.26737]]],[[[78.33817,31.28176],[78.33238,31.27782],[78.33636,31.27474],[78.33817,31.28176]]],[[[78.38587,31.27459],[78.38392,31.28207],[78.37888,31.28447],[78.38587,31.27459]]],[[[78.34692,31.28041],[78.34925,31.2786],[78.35638,31.27973],[78.36621,31.28506],[78.34692,31.28041]]]]},"properties":{"basin_name":"","SUB_AREA":25542.7}},
{"type":"Feature","geometry":{"type":"MultiPolygon","coordinates":[[[[78.99577,31.3486],[79,31.34167],[79.00417,31.34167],[79.01492,31.34619],[79.02047,31.35171],[79.02119,31.35588],[79.01277,31.37038],[79.01083,31.35708],[78.99577,31.3486]]],[[[79.05125,31.42931],[79.06005,31.42881],[79.06631,31.43504],[79.07119,31.45242],[79.07465,31.45592],[79.06793,31.46153],[79.05908,31.45889],[79.05247,31.44694],[79.05125,31.42931]]]]},"properties":{"basin_name":"","SUB_AREA":2660.7}},
{"type":"Feature","geometry":{"type":"MultiPolygon","coordinates":[[[[79.25094,31.24734],[79.25239,31.266],[79.26988,31.27858],[79.2715,31.28677],[79.23921,31.31421],[79.23936,31.31794],[79.2465,31.3253],[79.24648,31.33004],[79.23296,31.33524],[79.23272,31.33117],[79.22438,31.32157],[79.22562,31.31451],[79.23033,31.30428],[79.24907,31.29491],[79.25,31.29167],[79.24943,31.28112],[79.24498,31.27168],[79.2379,31.26987],[79.23333,31.2625],[79.23418,31.25918],[79.23971,31.25777],[79.25094,31.24734]]],[[[79.19721,31.35837],[79.19221,31.36281],[79.18235,31.38517],[79.17222,31.39679],[79.17562,31.39214],[79.17438,31.38117],[79.17022,31.37547],[79.17159,31.3633],[79.18534,31.35895],[79.19721,31.35837]]],[[[79.16836,31.40013],[79.14583,31.4234],[79.15381,31.41492],[79.15452,31.41004],[79.16424,31.40035],[79.16836,31.40013]]]]},"properties":{"basin_name":"","SUB_AREA":702.2}},
{"type":"Feature","geometry":{"type":"MultiPolygon","coordinates":[[[[80.29656,30.56692],[80.28307,30.57219],[80.28166,30.57041],[80.28579,30.56631],[80.29656,30.56692]]],[[[80.22677,30.58368],[80.2288,30.60349],[80.21637,30.61072],[80.21667,30.5875],[80.22326,30.58715],[80.22677,30.58368]]],[[[80.2123,30.62492],[80.22182,30.63334],[80.22095,30.64201],[80.2123,30.62492]]],[[[80.20315,30.68447],[80.23457,30.68829],[80.23687,30.70747],[80.24844,30.72136],[80.23369,30.70659],[80.23242,30.68811],[80.20516,30.68689],[80.20315,30.68447]]],[[[80.23988,30.75775],[80.23849,30.76228],[80.22961,30.75878],[80.23988,30.75775]]],[[[80.05796,30.83604],[80.05602,30.84151],[80.05322,30.84199],[80.05065,30.84064],[80.04771,30.83802],[80.05261,30.84161],[80.05796,30.83604]]],[[[79.96401,30.88692],[79.96215,30.89002],[79.95369,30.88506],[79.94491,30.88616],[79.93085,30.88133],[79.92892,30.88315],[79.92917,30.87917],[79.94409,30.87952],[79.94758,30.88298],[79.96076,30.88369],[79.96401,30.88692]]],[[[79.86443,30.97438],[79.85616,30.97742],[79.82963,30.97449],[79.83718,30.97019],[79.84797,30.97148],[79.85384,30.97564],[79.86443,30.97438]]],[[[79.70943,30.97817],[79.70161,30.97308],[79.69509,30.97367],[79.70242,30.97119],[79.70943,30.97817]]],[[[79.80088,30.97948],[79.79655,30.98094],[79.79728,30.97852],[79.80088,30.97948]]],[[[79.75662,31.00392],[79.75301,31.00787],[79.7471,31.00304],[79.73978,30.98758],[79.7468,30.9996],[79.75662,31.00392]]],[[[79.43327,31.02833],[79.43333,31.025],[79.43845,31.02802],[79.43327,31.02833]]],[[[79.54402,30.98306],[79.54844,30.98953],[79.53812,30.99019],[79.51903,31.02671],[79.51143,31.03019],[79.50798,31.02671],[79.50869,31.01841],[79.52048,31.00659],[79.52119,30.99755],[79.53091,30.98785],[79.53995,30.98714],[79.54402,30.98306]]],[[[79.42419,31.05705],[79.42457,31.07107],[79.41253,31.07482],[79.42419,31.05705]]]]},"properties":{"basin_name":"","SUB_AREA":8768}},
{"type":"Feature","geometry":{"type":"MultiPolygon","coordinates":[[[[80.6497,30.44602],[80.63402,30.45557],[80.63924,30.45035],[80.6497,30.44602]]],[[[80.62045,30.46252],[80.59801,30.47877],[80.58556,30.48214],[80.57659,30.47819],[80.56985,30.46662],[80.55554,30.46486],[80.54796,30.45021],[80.55242,30.45035],[80.57258,30.46631],[80.58576,30.46702],[80.58995,30.47119],[80.60659,30.47048],[80.61424,30.46285],[80.62045,30.46252]]],[[[80.41741,30.52064],[80.41558,30.52533],[80.41105,30.52404],[80.41741,30.52064]]],[[[80.32112,30.55724],[80.3214,30.55196],[80.34527,30.52721],[80.34668,30.52168],[80.35,30.52083],[80.35089,30.52429],[80.36203,30.52672],[80.32112,30.55724]]]]},"properties":{"basin_name":"","SUB_AREA":2613.1}}
]}