{"type":"FeatureCollection", "features": [
{"type":"Feature","geometry":{"type":"Point","coordinates":[79.42428,29.75333]},"properties":{"Ptr_Id":"UPCL-DH-TF-1","Ptr_Cc_Mva":3.15,"Ptr_Status":"Connected","Ptr_Ss_Nam":"33/11kv Dwarahat S/s"}},
{"type":"Feature","geometry":{"type":"Point","coordinates":[79.42427,29.75325]},"properties":{"Ptr_Id":"UPCL-DH-TF-2","Ptr_Cc_Mva":3.15,"Ptr_Status":"Connected","Ptr_Ss_Nam":"33/11kv Dwarahat S/s"}},
{"type":"Feature","geometry":{"type":"Point","coordinates":[79.6629,29.61006]},"properties":{"Ptr_Id":"UPCL-LX-TF-1","Ptr_Cc_Mva":5,"Ptr_Status":"Operational","Ptr_Ss_Nam":"33/11KV Laxmeshwar S/s"}},
{"type":"Feature","geometry":{"type":"Point","coordinates":[79.66302,29.61008]},"properties":{"Ptr_Id":"UPCL-LX-TF-2","Ptr_Cc_Mva":5,"Ptr_Status":"Operational","Ptr_Ss_Nam":"33/11KV Laxmeshwar S/s"}},
{"type":"Feature","geometry":{"type":"Point","coordinates":[79.6371,29.59394]},"properties":{"Ptr_Id":"UPCL-KT-TF-1","Ptr_Cc_Mva":5,"Ptr_Status":"Operational","Ptr_Ss_Nam":"33/11KV Khatyari S/s"}},
{"type":"Feature","geometry":{"type":"Point","coordinates":[79.63707,29.59397]},"properties":{"Ptr_Id":"UPCL-KT-TF-2","Ptr_Cc_Mva":5,"Ptr_Status":"Operational","Ptr_Ss_Nam":"33/11KV Khatyari S/s"}},
{"type":"Feature","geometry":{"type":"Point","coordinates":[79.66941,29.59719]},"properties":{"Ptr_Id":"UPCL-BK-TF-1","Ptr_Cc_Mva":5,"Ptr_Status":"Operational","Ptr_Ss_Nam":"33/11KV Buck S/s"}},
{"type":"Feature","geometry":{"type":"Point","coordinates":[79.66949,29.59732]},"properties":{"Ptr_Id":"UPCL-BK-TF-2","Ptr_Cc_Mva":5,"Ptr_Status":"Operational","Ptr_Ss_Nam":"33/11KV Buck S/s"}},
{"type":"Feature","geometry":{"type":"Point","coordinates":[79.44201,29.64299]},"properties":{"Ptr_Id":"UPCL-RN-TF-2","Ptr_Cc_Mva":5,"Ptr_Status":"Connected","Ptr_Ss_Nam":"33/11KV Ranikhet S/s"}},
{"type":"Feature","geometry":{"type":"Point","coordinates":[79.44199,29.64296]},"properties":{"Ptr_Id":"UPCL-RN-TF-1","Ptr_Cc_Mva":5,"Ptr_Status":"Connected","Ptr_Ss_Nam":"33/11KV Ranikhet S/s"}},
{"type":"Feature","geometry":{"type":"Point","coordinates":[79.77008,29.82959]},"properties":{"Ptr_Id":"UPCL-BG-TF-1","Ptr_Cc_Mva":5,"Ptr_Status":"1","Ptr_Ss_Nam":"33/11 KV Bageshwar S/s"}},
{"type":"Feature","geometry":{"type":"Point","coordinates":[79.77003,29.82964]},"properties":{"Ptr_Id":"UPCL-BG-TF-2","Ptr_Cc_Mva":5,"Ptr_Status":"1","Ptr_Ss_Nam":"33/11 KV Bageshwar S/s"}},
{"type":"Feature","geometry":{"type":"Point","coordinates":[79.54593,30.63391]},"properties":{"Ptr_Id":"UPCL-PN-TF-1","Ptr_Cc_Mva":5,"Ptr_Status":"Operational","Ptr_Ss_Nam":"33/11 KV Pandukeshwar S/s"}},
{"type":"Feature","geometry":{"type":"Point","coordinates":[79.31376,30.39379]},"properties":{"Ptr_Id":"UPCL-GK-1","Ptr_Cc_Mva":7.5,"Ptr_Status":"Operational","Ptr_Ss_Nam":"66/33/11 kV KOTHIYAL SAIN S/s"}},
{"type":"Feature","geometry":{"type":"Point","coordinates":[79.31362,30.39386]},"properties":{"Ptr_Id":"UPCL-GK-PT-1","Ptr_Cc_Mva":5,"Ptr_Status":"Operational","Ptr_Ss_Nam":"66/33/11 kV KOTHIYAL SAIN S/s"}},
{"type":"Feature","geometry":{"type":"Point","coordinates":[79.3136,30.39375]},"properties":{"Ptr_Id":"UPCL-GK-PT-2","Ptr_Cc_Mva":5,"Ptr_Status":"Operational","Ptr_Ss_Nam":"66/33/11 kV KOTHIYAL SAIN S/s"}},
{"type":"Feature","geometry":{"type":"Point","coordinates":[79.31359,30.39368]},"properties":{"Ptr_Id":"UPCL-GK-PT-3","Ptr_Cc_Mva":5,"Ptr_Status":"Operational","Ptr_Ss_Nam":"66/33/11 kV KOTHIYAL SAIN S/s"}},
{"type":"Feature","geometry":{"type":"Point","coordinates":[79.55112,30.56239]},"properties":{"Ptr_Id":"MR-PT-3","Ptr_Cc_Mva":7.5,"Ptr_Status":"Yes","Ptr_Ss_Nam":"66/33/11 kV Marwari S/s"}},
{"type":"Feature","geometry":{"type":"Point","coordinates":[79.55119,30.5623]},"properties":{"Ptr_Id":"MR-PT-1","Ptr_Cc_Mva":5,"Ptr_Status":"Yes","Ptr_Ss_Nam":"66/33/11 kV Marwari S/s"}},
{"type":"Feature","geometry":{"type":"Point","coordinates":[79.55126,30.56237]},"properties":{"Ptr_Id":"MR-PT-2","Ptr_Cc_Mva":5,"Ptr_Status":"Yes","Ptr_Ss_Nam":"66/33/11 kV Marwari S/s"}},
{"type":"Feature","geometry":{"type":"Point","coordinates":[79.16693,30.27526]},"properties":{"Ptr_Id":"UPCL-GC-TF-1","Ptr_Cc_Mva":5,"Ptr_Status":"Connected","Ptr_Ss_Nam":"33/11 KV Gauchar S/s"}},
{"type":"Feature","geometry":{"type":"Point","coordinates":[79.21993,30.26148]},"properties":{"Ptr_Id":"UPCL-KG-TF-1","Ptr_Cc_Mva":5,"Ptr_Status":"Connected","Ptr_Ss_Nam":"66/33/11kv Karanprayag s/s"}},
{"type":"Feature","geometry":{"type":"Point","coordinates":[79.32026,30.33278]},"properties":{"Ptr_Id":"UPCL-NG-TF-1","Ptr_Cc_Mva":3,"Ptr_Status":"Connected","Ptr_Ss_Nam":"33/11 kV Nandprayag S/s"}},
{"type":"Feature","geometry":{"type":"Point","coordinates":[80.10149,29.33032]},"properties":{"Ptr_Id":"UPCL-CW-TF-2","Ptr_Cc_Mva":3.15,"Ptr_Status":"Connected","Ptr_Ss_Nam":"33/11kv Champawat S/s"}},
{"type":"Feature","geometry":{"type":"Point","coordinates":[80.10143,29.33026]},"properties":{"Ptr_Id":"UPCL-CW-TF-1","Ptr_Cc_Mva":3,"Ptr_Status":"Connected","Ptr_Ss_Nam":"33/11kv Champawat S/s"}},
{"type":"Feature","geometry":{"type":"Point","coordinates":[80.0845,29.40866]},"properties":{"Ptr_Id":"UPCL-LG-TF-1","Ptr_Cc_Mva":3.15,"Ptr_Status":"Connected","Ptr_Ss_Nam":"33/11kv Lohaghat S/s"}},
{"type":"Feature","geometry":{"type":"Point","coordinates":[80.08452,29.40861]},"properties":{"Ptr_Id":"UPCL-LG-TF-2","Ptr_Cc_Mva":3.15,"Ptr_Status":"Connected","Ptr_Ss_Nam":"33/11kv Lohaghat S/s"}},
{"type":"Feature","geometry":{"type":"Point","coordinates":[80.10953,29.07409]},"properties":{"Ptr_Id":"UPCL-TP-TF-1","Ptr_Cc_Mva":5,"Ptr_Status":"1","Ptr_Ss_Nam":"33/11KV S/S TANAKPUR"}},
{"type":"Feature","geometry":{"type":"Point","coordinates":[80.1096,29.07407]},"properties":{"Ptr_Id":"UPCL-TP-TF-2","Ptr_Cc_Mva":5,"Ptr_Status":"1","Ptr_Ss_Nam":"33/11KV S/S TANAKPUR"}},
{"type":"Feature","geometry":{"type":"Point","coordinates":[78.19074,30.00312]},"properties":{"Ptr_Id":"UPCL-SK-2","Ptr_Cc_Mva":5,"Ptr_Status":"Live","Ptr_Ss_Nam":"Import point from Shantikunj"}},
{"type":"Feature","geometry":{"type":"Point","coordinates":[78.19082,30.00321]},"properties":{"Ptr_Id":"UPCL-SK-1","Ptr_Cc_Mva":5,"Ptr_Status":"Live","Ptr_Ss_Nam":"Import point from Shantikunj"}},
{"type":"Feature","geometry":{"type":"Point","coordinates":[78.28535,30.07377]},"properties":{"Ptr_Id":"UPCL-BR-TF-2","Ptr_Cc_Mva":5,"Ptr_Status":"Connected","Ptr_Ss_Nam":"33/11 KV Bairaj S/s"}},
{"type":"Feature","geometry":{"type":"Point","coordinates":[78.255,30.0686]},"properties":{"Ptr_Id":"UPCL-VD-TF-1","Ptr_Cc_Mva":8,"Ptr_Status":"Connected","Ptr_Ss_Nam":"33/11 KV Veerbhadra S/s"}},
{"type":"Feature","geometry":{"type":"Point","coordinates":[78.25506,30.06884]},"properties":{"Ptr_Id":"UPCL-VD-TF-2","Ptr_Cc_Mva":8,"Ptr_Status":"Connected","Ptr_Ss_Nam":"33/11 KV Veerbhadra S/s"}},
{"type":"Feature","geometry":{"type":"Point","coordinates":[78.28523,30.07384]},"properties":{"Ptr_Id":"UPCL-BR-TF-1","Ptr_Cc_Mva":8,"Ptr_Status":"Connected","Ptr_Ss_Nam":"33/11 KV Bairaj S/s"}},
{"type":"Feature","geometry":{"type":"Point","coordinates":[78.08922,30.45589]},"properties":{"Ptr_Id":"UPCL-LN-1","Ptr_Cc_Mva":5,"Ptr_Status":"3","Ptr_Ss_Nam":"33/11 KV LANDORE SSTN"}},
{"type":"Feature","geometry":{"type":"Point","coordinates":[78.07086,30.44784]},"properties":{"Ptr_Id":"UPCL-KY-2","Ptr_Cc_Mva":5,"Ptr_Status":"3","Ptr_Ss_Nam":"33/11 KV KYARKULI SSTN"}},
{"type":"Feature","geometry":{"type":"Point","coordinates":[78.0541,30.46894]},"properties":{"Ptr_Id":"UPCL-HV-1","Ptr_Cc_Mva":5,"Ptr_Status":"3","Ptr_Ss_Nam":"33/11 kV HAPPY VALLEY S/s"}},
{"type":"Feature","geometry":{"type":"Point","coordinates":[78.08929,30.45593]},"properties":{"Ptr_Id":"UPCL-LN-2","Ptr_Cc_Mva":5,"Ptr_Status":"3","Ptr_Ss_Nam":"33/11 KV LANDORE SSTN"}},
{"type":"Feature","geometry":{"type":"Point","coordinates":[78.07079,30.44782]},"properties":{"Ptr_Id":"UPCL-KY-1","Ptr_Cc_Mva":5,"Ptr_Status":"3","Ptr_Ss_Nam":"33/11 KV KYARKULI SSTN"}},
{"type":"Feature","geometry":{"type":"Point","coordinates":[78.06902,30.45796]},"properties":{"Ptr_Id":"UPCL-KB-1","Ptr_Cc_Mva":10,"Ptr_Status":"3","Ptr_Ss_Nam":"33/11 KV KUNJ BHAWAN SSTN"}},
{"type":"Feature","geometry":{"type":"Point","coordinates":[78.05416,30.4689]},"properties":{"Ptr_Id":"UPCL-HV-2","Ptr_Cc_Mva":5,"Ptr_Status":"3","Ptr_Ss_Nam":"33/11 kV HAPPY VALLEY S/s"}},
{"type":"Feature","geometry":{"type":"Point","coordinates":[78.1235,30.19391]},"properties":{"Ptr_Id":"UPCL-LC-TF-1","Ptr_Cc_Mva":5,"Ptr_Status":"Connected","Ptr_Ss_Nam":"33/11 KV Lachhiwala S/s"}},
{"type":"Feature","geometry":{"type":"Point","coordinates":[78.12362,30.19391]},"properties":{"Ptr_Id":"UPCL-LC-TF-2","Ptr_Cc_Mva":5,"Ptr_Status":"Connected","Ptr_Ss_Nam":"33/11 KV Lachhiwala S/s"}},
{"type":"Feature","geometry":{"type":"Point","coordinates":[77.74775,30.43391]},"properties":{"Ptr_Id":"UPCL-HT-TF-2","Ptr_Cc_Mva":5,"Ptr_Status":"Connected","Ptr_Ss_Nam":"33/11 KV Herbertpur S/s"}},
{"type":"Feature","geometry":{"type":"Point","coordinates":[77.74782,30.43386]},"properties":{"Ptr_Id":"UPCL-HT-TF-1","Ptr_Cc_Mva":5,"Ptr_Status":"Connected","Ptr_Ss_Nam":"33/11 KV Herbertpur S/s"}},
{"type":"Feature","geometry":{"type":"Point","coordinates":[78.05391,30.30064]},"properties":{"Ptr_Id":"UPCL-NC-1","Ptr_Cc_Mva":10,"Ptr_Status":"1","Ptr_Ss_Nam":"33/11 kV NEHRU COLONY S/s"}},
{"type":"Feature","geometry":{"type":"Point","coordinates":[78.05417,30.29348]},"properties":{"Ptr_Id":"UPCL-DO-1","Ptr_Cc_Mva":10,"Ptr_Status":"1","Ptr_Ss_Nam":"33/11 kV Doordarshan S/s"}},
{"type":"Feature","geometry":{"type":"Point","coordinates":[78.05426,30.2936]},"properties":{"Ptr_Id":"UPCL-DO-2","Ptr_Cc_Mva":10,"Ptr_Status":"1","Ptr_Ss_Nam":"33/11 kV Doordarshan S/s"}},
{"type":"Feature","geometry":{"type":"Point","coordinates":[78.05846,30.37039]},"properties":{"Ptr_Id":"UPCL-AW-TF-2","Ptr_Cc_Mva":5,"Ptr_Status":"Operational","Ptr_Ss_Nam":"33/11KV Anarwala S/s"}},
{"type":"Feature","geometry":{"type":"Point","coordinates":[78.05851,30.37048]},"properties":{"Ptr_Id":"UPCL-AW-TF-3","Ptr_Cc_Mva":5,"Ptr_Status":"Operational","Ptr_Ss_Nam":"33/11KV Anarwala S/s"}},
{"type":"Feature","geometry":{"type":"Point","coordinates":[78.0583,30.3705]},"properties":{"Ptr_Id":"UPCL-AW-TF-1","Ptr_Cc_Mva":3,"Ptr_Status":"Operational","Ptr_Ss_Nam":"33/11KV Anarwala S/s"}},
{"type":"Feature","geometry":{"type":"Point","coordinates":[78.09282,30.39206]},"properties":{"Ptr_Id":"UPCL-DP-1","Ptr_Cc_Mva":10,"Ptr_Status":"Operational","Ptr_Ss_Nam":"33/11KV Dhakpatti S/s"}},
{"type":"Feature","geometry":{"type":"Point","coordinates":[78.09286,30.39201]},"properties":{"Ptr_Id":"UPCL-DP-2","Ptr_Cc_Mva":10,"Ptr_Status":"Operational","Ptr_Ss_Nam":"33/11KV Dhakpatti S/s"}},
{"type":"Feature","geometry":{"type":"Point","coordinates":[78.06197,30.34885]},"properties":{"Ptr_Id":"UPCL-HB-PT-1","Ptr_Cc_Mva":10,"Ptr_Status":"Operational","Ptr_Ss_Nam":"33/11KV Hathibarkala S/s"}},
{"type":"Feature","geometry":{"type":"Point","coordinates":[78.06195,30.34879]},"properties":{"Ptr_Id":"UPCL-HB-PT-2","Ptr_Cc_Mva":10,"Ptr_Status":"Operational","Ptr_Ss_Nam":"33/11KV Hathibarkala S/s"}},
{"type":"Feature","geometry":{"type":"Point","coordinates":[78.06504,30.33164]},"properties":{"Ptr_Id":"UPCL-SD-TF-1","Ptr_Cc_Mva":10,"Ptr_Status":"Operational","Ptr_Ss_Nam":"33/11KV Sahastradhara S/s"}},
{"type":"Feature","geometry":{"type":"Point","coordinates":[78.06509,30.33175]},"properties":{"Ptr_Id":"UPCL-SD-TF-2","Ptr_Cc_Mva":10,"Ptr_Status":"Operational","Ptr_Ss_Nam":"33/11KV Sahastradhara S/s"}},
{"type":"Feature","geometry":{"type":"Point","coordinates":[77.9992,30.32756]},"properties":{"Ptr_Id":"UPCL-VV-2","Ptr_Cc_Mva":10,"Ptr_Status":"Operational","Ptr_Ss_Nam":"33/11 KV S/S VASANT VIHAR"}},
{"type":"Feature","geometry":{"type":"Point","coordinates":[77.99915,30.32756]},"properties":{"Ptr_Id":"UPCL-VV-1","Ptr_Cc_Mva":10,"Ptr_Status":"Operational","Ptr_Ss_Nam":"33/11 KV S/S VASANT VIHAR"}},
{"type":"Feature","geometry":{"type":"Point","coordinates":[78.00413,30.35354]},"properties":{"Ptr_Id":"UPCL-AC-3","Ptr_Cc_Mva":0.75,"Ptr_Status":"Operational","Ptr_Ss_Nam":"33/.4 V S/S AUDIT COLONY"}},
{"type":"Feature","geometry":{"type":"Point","coordinates":[78.00408,30.3536]},"properties":{"Ptr_Id":"UPCL-AC-1","Ptr_Cc_Mva":0.75,"Ptr_Status":"Inoperative","Ptr_Ss_Nam":"33/.4 V S/S AUDIT COLONY"}},
{"type":"Feature","geometry":{"type":"Point","coordinates":[78.00402,30.35369]},"properties":{"Ptr_Id":"UPCL-AC-2","Ptr_Cc_Mva":0.75,"Ptr_Status":"Inoperative","Ptr_Ss_Nam":"33/.4 V S/S AUDIT COLONY"}},
{"type":"Feature","geometry":{"type":"Point","coordinates":[78.01117,30.32342]},"properties":{"Ptr_Id":"UPCL-VC-1","Ptr_Cc_Mva":1.5,"Ptr_Status":"1","Ptr_Ss_Nam":"132/33 kV VICTORIA BHAWAN S/s"}},
{"type":"Feature","geometry":{"type":"Point","coordinates":[78.02874,30.33728]},"properties":{"Ptr_Id":"UPCL-OG-1","Ptr_Cc_Mva":1.5,"Ptr_Status":"1","Ptr_Ss_Nam":"132/33 kV ONGC S/s"}},
{"type":"Feature","geometry":{"type":"Point","coordinates":[78.00286,30.26411]},"properties":{"Ptr_Id":"UPCL-GE-1","Ptr_Cc_Mva":3,"Ptr_Status":"1","Ptr_Ss_Nam":"132/33 kV GE MES-1 S/s"}},
{"type":"Feature","geometry":{"type":"Point","coordinates":[78.01708,30.34413]},"properties":{"Ptr_Id":"UPCL-DK-1","Ptr_Cc_Mva":3,"Ptr_Status":"1","Ptr_Ss_Nam":"132/33 kV KDMIPE S/s"}},
{"type":"Feature","geometry":{"type":"Point","coordinates":[77.9821,30.33371]},"properties":{"Ptr_Id":"UPCL-IM-1","Ptr_Cc_Mva":5,"Ptr_Status":"1","Ptr_Ss_Nam":"132/33 kV I M A S/s"}},
{"type":"Feature","geometry":{"type":"Point","coordinates":[78.03055,30.35159]},"properties":{"Ptr_Id":"UPCL-ME-1","Ptr_Cc_Mva":5,"Ptr_Status":"1","Ptr_Ss_Nam":"132/33 kV GE MES-2 S/s"}},
{"type":"Feature","geometry":{"type":"Point","coordinates":[78.05692,30.37048]},"properties":{"Ptr_Id":"UPCL-MS-1","Ptr_Cc_Mva":1.5,"Ptr_Status":"1","Ptr_Ss_Nam":"132/33 kV GE MES-3 S/s"}},
{"type":"Feature","geometry":{"type":"Point","coordinates":[78.01495,30.35443]},"properties":{"Ptr_Id":"UPCL-NW-2","Ptr_Cc_Mva":10,"Ptr_Status":"Operational","Ptr_Ss_Nam":"33/11 kV IHM Nimbuwala S/s"}},
{"type":"Feature","geometry":{"type":"Point","coordinates":[78.01498,30.35446]},"properties":{"Ptr_Id":"UPCL-NW-1","Ptr_Cc_Mva":10,"Ptr_Status":"Operational","Ptr_Ss_Nam":"33/11 kV IHM Nimbuwala S/s"}},
{"type":"Feature","geometry":{"type":"Point","coordinates":[78.01124,30.32337]},"properties":{"Ptr_Id":"UPCL-UB-2","Ptr_Cc_Mva":10,"Ptr_Status":"Operational","Ptr_Ss_Nam":"33/11 kV Urja Bhawan S/s"}},
{"type":"Feature","geometry":{"type":"Point","coordinates":[78.01129,30.32337]},"properties":{"Ptr_Id":"UPCL-UB-1","Ptr_Cc_Mva":10,"Ptr_Status":"Operational","Ptr_Ss_Nam":"33/11 kV Urja Bhawan S/s"}},
{"type":"Feature","geometry":{"type":"Point","coordinates":[78.03854,30.26025]},"properties":{"Ptr_Id":"UPCL-MW-1","Ptr_Cc_Mva":10,"Ptr_Status":"Operational","Ptr_Ss_Nam":"33/11 kV Mothrowala S/s"}},
{"type":"Feature","geometry":{"type":"Point","coordinates":[78.03851,30.26022]},"properties":{"Ptr_Id":"UPCL-MW-2","Ptr_Cc_Mva":10,"Ptr_Status":"Operational","Ptr_Ss_Nam":"33/11 kV Mothrowala S/s"}},
{"type":"Feature","geometry":{"type":"Point","coordinates":[78.02573,30.31521]},"properties":{"Ptr_Id":"UPCL-TF-1","Ptr_Cc_Mva":8,"Ptr_Status":"1","Ptr_Ss_Nam":"33/11 kV SAHARANPUR ROAD S/s"}},
{"type":"Feature","geometry":{"type":"Point","coordinates":[78.02576,30.31524]},"properties":{"Ptr_Id":"UPCL-TF-2","Ptr_Cc_Mva":8,"Ptr_Status":"1","Ptr_Ss_Nam":"33/11 kV SAHARANPUR ROAD S/s"}},
{"type":"Feature","geometry":{"type":"Point","coordinates":[78.05137,30.30693]},"properties":{"Ptr_Id":"UPCL-AR-1","Ptr_Cc_Mva":8,"Ptr_Status":"1","Ptr_Ss_Nam":"33/11 kV ARAGHAR S/s"}},
{"type":"Feature","geometry":{"type":"Point","coordinates":[78.05121,30.30702]},"properties":{"Ptr_Id":"UPCL-AR-3","Ptr_Cc_Mva":8,"Ptr_Status":"1","Ptr_Ss_Nam":"33/11 kV ARAGHAR S/s"}},
{"type":"Feature","geometry":{"type":"Point","coordinates":[78.05128,30.30698]},"properties":{"Ptr_Id":"UPCL-AR-2","Ptr_Cc_Mva":10,"Ptr_Status":"1","Ptr_Ss_Nam":"33/11 kV ARAGHAR S/s"}},
{"type":"Feature","geometry":{"type":"Point","coordinates":[78.05111,30.30707]},"properties":{"Ptr_Id":"UPCL-AR-4","Ptr_Cc_Mva":12.5,"Ptr_Status":"1","Ptr_Ss_Nam":"33/11 kV ARAGHAR S/s"}},
{"type":"Feature","geometry":{"type":"Point","coordinates":[78.04278,30.32089]},"properties":{"Ptr_Id":"UPCL-PR-2","Ptr_Cc_Mva":8,"Ptr_Status":"Operational","Ptr_Ss_Nam":"33/11 kV PATEL ROAD S/s"}},
{"type":"Feature","geometry":{"type":"Point","coordinates":[78.04284,30.32091]},"properties":{"Ptr_Id":"UPCL-PR-1","Ptr_Cc_Mva":8,"Ptr_Status":"Operational","Ptr_Ss_Nam":"33/11 kV PATEL ROAD S/s"}},
{"type":"Feature","geometry":{"type":"Point","coordinates":[78.05175,30.32656]},"properties":{"Ptr_Id":"UPCL-EC-1","Ptr_Cc_Mva":5,"Ptr_Status":"1","Ptr_Ss_Nam":"33/11 kV E C Road S/s"}},
{"type":"Feature","geometry":{"type":"Point","coordinates":[78.05185,30.32654]},"properties":{"Ptr_Id":"UPCL-EC-2","Ptr_Cc_Mva":12.5,"Ptr_Status":"1","Ptr_Ss_Nam":"33/11 kV E C Road S/s"}},
{"type":"Feature","geometry":{"type":"Point","coordinates":[78.04243,30.32408]},"properties":{"Ptr_Id":"UPCL-CT-1","Ptr_Cc_Mva":10,"Ptr_Status":"3","Ptr_Ss_Nam":"33/11 kV CLOCK TOWER S/s"}},
{"type":"Feature","geometry":{"type":"Point","coordinates":[78.04796,30.32642]},"properties":{"Ptr_Id":"UPCL-PD-2","Ptr_Cc_Mva":12.5,"Ptr_Status":"3","Ptr_Ss_Nam":"33/11 kV PARADE GROUND S/s"}},
{"type":"Feature","geometry":{"type":"Point","coordinates":[78.04793,30.32638]},"properties":{"Ptr_Id":"UPCL-PD-1","Ptr_Cc_Mva":12.5,"Ptr_Status":"3","Ptr_Ss_Nam":"33/11 kV PARADE GROUND S/s"}},
{"type":"Feature","geometry":{"type":"Point","coordinates":[78.02598,30.32595]},"properties":{"Ptr_Id":"UPCL-GG-1","Ptr_Cc_Mva":5,"Ptr_Status":"Operational","Ptr_Ss_Nam":"33/11 kV Govindgarh S/s"}},
{"type":"Feature","geometry":{"type":"Point","coordinates":[78.02594,30.32591]},"properties":{"Ptr_Id":"UPCL-GG-2","Ptr_Cc_Mva":5,"Ptr_Status":"Operational","Ptr_Ss_Nam":"33/11 kV Govindgarh S/s"}},
{"type":"Feature","geometry":{"type":"Point","coordinates":[78.00965,30.34586]},"properties":{"Ptr_Id":"UPCL-KR-1","Ptr_Cc_Mva":10,"Ptr_Status":"Operational","Ptr_Ss_Nam":"33/11 kV Kaulagarh S/s"}},
{"type":"Feature","geometry":{"type":"Point","coordinates":[78.0096,30.34582]},"properties":{"Ptr_Id":"UPCL-KR-2","Ptr_Cc_Mva":10,"Ptr_Status":"Operational","Ptr_Ss_Nam":"33/11 kV Kaulagarh S/s"}},
{"type":"Feature","geometry":{"type":"Point","coordinates":[78.00954,30.34578]},"properties":{"Ptr_Id":"UPCL-KR-3","Ptr_Cc_Mva":10,"Ptr_Status":"Operational","Ptr_Ss_Nam":"33/11 kV Kaulagarh S/s"}},
{"type":"Feature","geometry":{"type":"Point","coordinates":[78.29533,30.10371]},"properties":{"Ptr_Id":"UPCL-NP-1","Ptr_Cc_Mva":10,"Ptr_Status":"Yes","Ptr_Ss_Nam":"33/11 kV NAGAR PALIKA S/s"}},
{"type":"Feature","geometry":{"type":"Point","coordinates":[78.27994,30.11427]},"properties":{"Ptr_Id":"UPCL-SV-2","Ptr_Cc_Mva":10,"Ptr_Status":"Yes","Ptr_Ss_Nam":"33/11 kV SHAIL VIHAR S/s"}},
{"type":"Feature","geometry":{"type":"Point","coordinates":[78.27989,30.11416]},"properties":{"Ptr_Id":"UPCL-SV-1","Ptr_Cc_Mva":10,"Ptr_Status":"Yes","Ptr_Ss_Nam":"33/11 kV SHAIL VIHAR S/s"}},
{"type":"Feature","geometry":{"type":"Point","coordinates":[78.28149,30.1063]},"properties":{"Ptr_Id":"UPCL-MB-1","Ptr_Cc_Mva":5,"Ptr_Status":"Yes","Ptr_Ss_Nam":"33/11 kV MANERI BHALLI S/s"}},
{"type":"Feature","geometry":{"type":"Point","coordinates":[77.99042,30.28083]},"properties":{"Ptr_Id":"UPCL-TG-1","Ptr_Cc_Mva":12.5,"Ptr_Status":"1","Ptr_Ss_Nam":"33/11 kV Transport Nagar S/s"}},
{"type":"Feature","geometry":{"type":"Point","coordinates":[77.99038,30.28076]},"properties":{"Ptr_Id":"UPCL-TG-2","Ptr_Cc_Mva":12.5,"Ptr_Status":"1","Ptr_Ss_Nam":"33/11 kV Transport Nagar S/s"}},
{"type":"Feature","geometry":{"type":"Point","coordinates":[78.04941,30.28053]},"properties":{"Ptr_Id":"AB/2","Ptr_Cc_Mva":10,"Ptr_Status":"Yes","Ptr_Ss_Nam":"33/11 kV AJABPUR S/s"}},
{"type":"Feature","geometry":{"type":"Point","coordinates":[78.04934,30.28041]},"properties":{"Ptr_Id":"AB/1","Ptr_Cc_Mva":10,"Ptr_Status":"Yes","Ptr_Ss_Nam":"33/11 kV AJABPUR S/s"}},
{"type":"Feature","geometry":{"type":"Point","coordinates":[77.99633,30.2889]},"properties":{"Ptr_Id":"UPCL-TR-1","Ptr_Cc_Mva":10,"Ptr_Status":"1","Ptr_Ss_Nam":"33/11 kV Turner Road S/s"}},
{"type":"Feature","geometry":{"type":"Point","coordinates":[77.99641,30.28886]},"properties":{"Ptr_Id":"UPCL-TR-2","Ptr_Cc_Mva":12.5,"Ptr_Status":"1","Ptr_Ss_Nam":"33/11 kV Turner Road S/s"}},
{"type":"Feature","geometry":{"type":"Point","coordinates":[78.03795,30.33584]},"properties":{"Ptr_Id":"UPCL-BD-1","Ptr_Cc_Mva":10,"Ptr_Status":"1","Ptr_Ss_Nam":"33/11 kV BINDAL S/s"}},
{"type":"Feature","geometry":{"type":"Point","coordinates":[78.03789,30.33577]},"properties":{"Ptr_Id":"UPCL-BD-2","Ptr_Cc_Mva":10,"Ptr_Status":"1","Ptr_Ss_Nam":"33/11 kV BINDAL S/s"}},
{"type":"Feature","geometry":{"type":"Point","coordinates":[78.01532,30.30218]},"properties":{"Ptr_Id":"UPCL-NR-3","Ptr_Cc_Mva":10,"Ptr_Status":"Operational","Ptr_Ss_Nam":"33/11 kV NIRANJANPUR S/s"}},
{"type":"Feature","geometry":{"type":"Point","coordinates":[78.01526,30.30218]},"properties":{"Ptr_Id":"UPCL-NR-2","Ptr_Cc_Mva":10,"Ptr_Status":"Operational","Ptr_Ss_Nam":"33/11 kV NIRANJANPUR S/s"}},
{"type":"Feature","geometry":{"type":"Point","coordinates":[78.01519,30.30219]},"properties":{"Ptr_Id":"UPCL-NR-1","Ptr_Cc_Mva":12.5,"Ptr_Status":"Operational","Ptr_Ss_Nam":"33/11 kV NIRANJANPUR S/s"}},
{"type":"Feature","geometry":{"type":"Point","coordinates":[78.03242,30.28287]},"properties":{"Ptr_Id":"UPCL-KA-1","Ptr_Cc_Mva":10,"Ptr_Status":"Operational","Ptr_Ss_Nam":"33/11 kV KARGI S/s"}},
{"type":"Feature","geometry":{"type":"Point","coordinates":[78.03245,30.2829]},"properties":{"Ptr_Id":"UPCL-KA-2","Ptr_Cc_Mva":10,"Ptr_Status":"Operational","Ptr_Ss_Nam":"33/11 kV KARGI S/s"}},
{"type":"Feature","geometry":{"type":"Point","coordinates":[78.0331,30.29584]},"properties":{"Ptr_Id":"UPCL-PB-1","Ptr_Cc_Mva":10,"Ptr_Status":"Operational","Ptr_Ss_Nam":"33/11 kV Patri Bag S/s"}},
{"type":"Feature","geometry":{"type":"Point","coordinates":[78.03308,30.29581]},"properties":{"Ptr_Id":"UPCL-PB-2","Ptr_Cc_Mva":10,"Ptr_Status":"Operational","Ptr_Ss_Nam":"33/11 kV Patri Bag S/s"}},
{"type":"Feature","geometry":{"type":"Point","coordinates":[77.87485,30.68649]},"properties":{"Ptr_Id":"UPCL-CK-TF-2","Ptr_Cc_Mva":5,"Ptr_Status":"1","Ptr_Ss_Nam":"33/11 KV Chakrata S/s"}},
{"type":"Feature","geometry":{"type":"Point","coordinates":[77.87495,30.68656]},"properties":{"Ptr_Id":"UPCL-CK-TF-1","Ptr_Cc_Mva":5,"Ptr_Status":"1","Ptr_Ss_Nam":"33/11 KV Chakrata S/s"}},
{"type":"Feature","geometry":{"type":"Point","coordinates":[77.77373,30.47199]},"properties":{"Ptr_Id":"UPCL-VN-TF-2","Ptr_Cc_Mva":8,"Ptr_Status":"Operational","Ptr_Ss_Nam":"33/11 kV Vikas Nagar S/s"}},
{"type":"Feature","geometry":{"type":"Point","coordinates":[77.77365,30.47207]},"properties":{"Ptr_Id":"UPCL-VN-TF-1","Ptr_Cc_Mva":10,"Ptr_Status":"Operational","Ptr_Ss_Nam":"33/11 kV Vikas Nagar S/s"}},
{"type":"Feature","geometry":{"type":"Point","coordinates":[77.93331,29.80812]},"properties":{"Ptr_Id":"UPCL-LD-TF-2","Ptr_Cc_Mva":10,"Ptr_Status":"Yes","Ptr_Ss_Nam":"33/11 kV Landhora S/s"}},
{"type":"Feature","geometry":{"type":"Point","coordinates":[77.93335,29.8081]},"properties":{"Ptr_Id":"UPCL-LD-TF-1","Ptr_Cc_Mva":10,"Ptr_Status":"Yes","Ptr_Ss_Nam":"33/11 kV Landhora S/s"}},
{"type":"Feature","geometry":{"type":"Point","coordinates":[78.02245,29.74376]},"properties":{"Ptr_Id":"UPCL-LS-TF-1","Ptr_Cc_Mva":12.5,"Ptr_Status":"Operational","Ptr_Ss_Nam":"33/11 kV Laksar S/s"}},
{"type":"Feature","geometry":{"type":"Point","coordinates":[78.02249,29.74369]},"properties":{"Ptr_Id":"UPCL-LS-TF-2","Ptr_Cc_Mva":12.5,"Ptr_Status":"Operational","Ptr_Ss_Nam":"33/11 kV Laksar S/s"}},
{"type":"Feature","geometry":{"type":"Point","coordinates":[78.15766,29.93891]},"properties":{"Ptr_Id":"UPCL-BC-1","Ptr_Cc_Mva":10,"Ptr_Status":"Live","Ptr_Ss_Nam":"33/11 kV BAIRAGI CAMP S/s"}},
{"type":"Feature","geometry":{"type":"Point","coordinates":[78.15755,29.93891]},"properties":{"Ptr_Id":"UPCL-BC-2","Ptr_Cc_Mva":10,"Ptr_Status":"Live","Ptr_Ss_Nam":"33/11 kV BAIRAGI CAMP S/s"}},
{"type":"Feature","geometry":{"type":"Point","coordinates":[78.18256,29.97142]},"properties":{"Ptr_Id":"UPCL-BW-PTR-2","Ptr_Cc_Mva":12.5,"Ptr_Status":"Live","Ptr_Ss_Nam":"33/11 kV BHOOPATWALA S/s"}},
{"type":"Feature","geometry":{"type":"Point","coordinates":[78.18243,29.9714]},"properties":{"Ptr_Id":"UPCL-BW-PTR-1","Ptr_Cc_Mva":10,"Ptr_Status":"Live","Ptr_Ss_Nam":"33/11 kV BHOOPATWALA S/s"}},
{"type":"Feature","geometry":{"type":"Point","coordinates":[78.17182,29.94087]},"properties":{"Ptr_Id":"UPCL-GS-2","Ptr_Cc_Mva":5,"Ptr_Status":"Live","Ptr_Ss_Nam":"33/11 kV GOURI SHANKAR S/s"}},
{"type":"Feature","geometry":{"type":"Point","coordinates":[78.17161,29.94068]},"properties":{"Ptr_Id":"UPCL-GS-1","Ptr_Cc_Mva":5,"Ptr_Status":"Live","Ptr_Ss_Nam":"33/11 kV GOURI SHANKAR S/s"}},
{"type":"Feature","geometry":{"type":"Point","coordinates":[78.1161,29.92008]},"properties":{"Ptr_Id":"UPCL-GU-2","Ptr_Cc_Mva":8,"Ptr_Status":"Live","Ptr_Ss_Nam":"33/11 kV GURUKUL S/s"}},
{"type":"Feature","geometry":{"type":"Point","coordinates":[78.11613,29.91997]},"properties":{"Ptr_Id":"UPCL-GU-1","Ptr_Cc_Mva":12.5,"Ptr_Status":"Live","Ptr_Ss_Nam":"33/11 kV GURUKUL S/s"}},
{"type":"Feature","geometry":{"type":"Point","coordinates":[78.10398,29.93629]},"properties":{"Ptr_Id":"UPCL-JT-PT-1","Ptr_Cc_Mva":5,"Ptr_Status":"Live","Ptr_Ss_Nam":"Import Point From 132 kV JWALAPUR S/s"}},
{"type":"Feature","geometry":{"type":"Point","coordinates":[78.10359,29.93631]},"properties":{"Ptr_Id":"UPCL-JT-PT-2","Ptr_Cc_Mva":5,"Ptr_Status":"Live","Ptr_Ss_Nam":"Import Point From 132 kV JWALAPUR S/s"}},
{"type":"Feature","geometry":{"type":"Point","coordinates":[78.09884,29.92036]},"properties":{"Ptr_Id":"UPCL-JW-2","Ptr_Cc_Mva":12.5,"Ptr_Status":"Dead","Ptr_Ss_Nam":"33/11 kV JWALAPUR-I S/s"}},
{"type":"Feature","geometry":{"type":"Point","coordinates":[78.09877,29.92035]},"properties":{"Ptr_Id":"UPCL-JW-1","Ptr_Cc_Mva":10,"Ptr_Status":"Dead","Ptr_Ss_Nam":"33/11 kV JWALAPUR-I S/s"}},
{"type":"Feature","geometry":{"type":"Point","coordinates":[78.17093,29.9533]},"properties":{"Ptr_Id":"UPCL-LW-PT-1","Ptr_Cc_Mva":10,"Ptr_Status":"Live","Ptr_Ss_Nam":"33/11 kV LALJIWALA S/s"}},
{"type":"Feature","geometry":{"type":"Point","coordinates":[78.17083,29.9532]},"properties":{"Ptr_Id":"UPCL-LW-PT-2","Ptr_Cc_Mva":12.5,"Ptr_Status":"Live","Ptr_Ss_Nam":"33/11 kV LALJIWALA S/s"}},
{"type":"Feature","geometry":{"type":"Point","coordinates":[78.14766,29.94028]},"properties":{"Ptr_Id":"UPCL-MP-1","Ptr_Cc_Mva":10,"Ptr_Status":"Live","Ptr_Ss_Nam":"33/11 kV MAYAPUR S/s"}},
{"type":"Feature","geometry":{"type":"Point","coordinates":[78.14761,29.94033]},"properties":{"Ptr_Id":"UPCL-MP-2","Ptr_Cc_Mva":10,"Ptr_Status":"Live","Ptr_Ss_Nam":"33/11 kV MAYAPUR S/s"}},
{"type":"Feature","geometry":{"type":"Point","coordinates":[78.08504,29.92811]},"properties":{"Ptr_Id":"UPCL-JP-2","Ptr_Cc_Mva":5,"Ptr_Status":"Live","Ptr_Ss_Nam":"33/11 kV JWALAPUR-III S/s"}},
{"type":"Feature","geometry":{"type":"Point","coordinates":[78.08504,29.92799]},"properties":{"Ptr_Id":"UPCL-JP-1","Ptr_Cc_Mva":5,"Ptr_Status":"Live","Ptr_Ss_Nam":"33/11 kV JWALAPUR-III S/s"}},
{"type":"Feature","geometry":{"type":"Point","coordinates":[78.10237,29.93504]},"properties":{"Ptr_Id":"UPCL-JL-PT-1","Ptr_Cc_Mva":10,"Ptr_Status":"Live","Ptr_Ss_Nam":"33/11 kV JWALAPUR-II S/s"}},
{"type":"Feature","geometry":{"type":"Point","coordinates":[78.10247,29.93504]},"properties":{"Ptr_Id":"UPCL-JL-PT-2","Ptr_Cc_Mva":8,"Ptr_Status":"Live","Ptr_Ss_Nam":"33/11 kV JWALAPUR-II S/s"}},
{"type":"Feature","geometry":{"type":"Point","coordinates":[78.11472,29.93123]},"properties":{"Ptr_Id":"UPCL-BS-PT-1","Ptr_Cc_Mva":8,"Ptr_Status":"Live","Ptr_Ss_Nam":"33/11 kV BHEL SECTOR_2 S/s"}},
{"type":"Feature","geometry":{"type":"Point","coordinates":[78.11472,29.93113]},"properties":{"Ptr_Id":"UPCL-BS-PT-2","Ptr_Cc_Mva":8,"Ptr_Status":"Live","Ptr_Ss_Nam":"33/11 kV BHEL SECTOR_2 S/s"}},
{"type":"Feature","geometry":{"type":"Point","coordinates":[77.89269,29.8748]},"properties":{"Ptr_Id":"UPCL-SP-TF-1","Ptr_Cc_Mva":10,"Ptr_Status":"Operational","Ptr_Ss_Nam":"33/11Kv Solanipuram S/s"}},
{"type":"Feature","geometry":{"type":"Point","coordinates":[77.89277,29.8748]},"properties":{"Ptr_Id":"UPCL-SP-TF-2","Ptr_Cc_Mva":10,"Ptr_Status":"Operational","Ptr_Ss_Nam":"33/11Kv Solanipuram S/s"}},
{"type":"Feature","geometry":{"type":"Point","coordinates":[77.86546,29.87196]},"properties":{"Ptr_Id":"UPCL-RM-TF-1","Ptr_Cc_Mva":5,"Ptr_Status":"Operational","Ptr_Ss_Nam":"132/33/11KV Ramnagar S/s"}},
{"type":"Feature","geometry":{"type":"Point","coordinates":[77.86539,29.87199]},"properties":{"Ptr_Id":"UPCL-RM-TF-2","Ptr_Cc_Mva":8,"Ptr_Status":"Operational","Ptr_Ss_Nam":"132/33/11KV Ramnagar S/s"}},
{"type":"Feature","geometry":{"type":"Point","coordinates":[77.86527,29.87205]},"properties":{"Ptr_Id":"UPCL-RM-TF-I/C-1","Ptr_Cc_Mva":40,"Ptr_Status":"Operational","Ptr_Ss_Nam":"132/33/11KV Ramnagar S/s"}},
{"type":"Feature","geometry":{"type":"Point","coordinates":[77.86517,29.87211]},"properties":{"Ptr_Id":"UPCL-RM-TF-I/C-2","Ptr_Cc_Mva":40,"Ptr_Status":"Operational","Ptr_Ss_Nam":"132/33/11KV Ramnagar S/s"}},
{"type":"Feature","geometry":{"type":"Point","coordinates":[77.86449,29.87316]},"properties":{"Ptr_Id":"UPCL-RM-TF-3","Ptr_Cc_Mva":5,"Ptr_Status":"Operational","Ptr_Ss_Nam":"132/33/11KV Ramnagar S/s"}},
{"type":"Feature","geometry":{"type":"Point","coordinates":[77.86491,29.87296]},"properties":{"Ptr_Id":"UPCL-RM-TF-I/C-4","Ptr_Cc_Mva":20,"Ptr_Status":"Operational","Ptr_Ss_Nam":"132/33/11KV Ramnagar S/s"}},
{"type":"Feature","geometry":{"type":"Point","coordinates":[77.86514,29.87285]},"properties":{"Ptr_Id":"UPCL-RM-TF-I/C-3","Ptr_Cc_Mva":20,"Ptr_Status":"Operational","Ptr_Ss_Nam":"132/33/11KV Ramnagar S/s"}},
{"type":"Feature","geometry":{"type":"Point","coordinates":[78.14655,29.94817]},"properties":{"Ptr_Id":"UPCL-IA-PT-2","Ptr_Cc_Mva":10,"Ptr_Status":"Live","Ptr_Ss_Nam":"33/11 kV INDUSTRIAL AREA S/s"}},
{"type":"Feature","geometry":{"type":"Point","coordinates":[78.14644,29.94811]},"properties":{"Ptr_Id":"UPCL-IA-PT-1","Ptr_Cc_Mva":10,"Ptr_Status":"Live","Ptr_Ss_Nam":"33/11 kV INDUSTRIAL AREA S/s"}},
{"type":"Feature","geometry":{"type":"Point","coordinates":[77.86046,29.79076]},"properties":{"Ptr_Id":"UPCL-MG-TF-2","Ptr_Cc_Mva":12.5,"Ptr_Status":"Yes","Ptr_Ss_Nam":"33/11 kV Manglore S/s"}},
{"type":"Feature","geometry":{"type":"Point","coordinates":[77.86048,29.79082]},"properties":{"Ptr_Id":"UPCL-MG-TF-1","Ptr_Cc_Mva":12.5,"Ptr_Status":"Yes","Ptr_Ss_Nam":"33/11 kV Manglore S/s"}},
{"type":"Feature","geometry":{"type":"Point","coordinates":[77.8706,29.80857]},"properties":{"Ptr_Id":"UPCL-NM-TF-2","Ptr_Cc_Mva":5,"Ptr_Status":"Yes","Ptr_Ss_Nam":"33/11 kV New Manglore S/s"}},
{"type":"Feature","geometry":{"type":"Point","coordinates":[77.87055,29.80852]},"properties":{"Ptr_Id":"UPCL-NM-TF-1","Ptr_Cc_Mva":8,"Ptr_Status":"Yes","Ptr_Ss_Nam":"33/11 kV New Manglore S/s"}},
{"type":"Feature","geometry":{"type":"Point","coordinates":[78.16042,29.94431]},"properties":{"Ptr_Id":"UPCL-LP-2","Ptr_Cc_Mva":10,"Ptr_Status":"Live","Ptr_Ss_Nam":"33/11 kV LALTARO PUL S/s"}},
{"type":"Feature","geometry":{"type":"Point","coordinates":[78.16052,29.94439]},"properties":{"Ptr_Id":"UPCL-LP-1","Ptr_Cc_Mva":10,"Ptr_Status":"Live","Ptr_Ss_Nam":"33/11 kV LALTARO PUL S/s"}},
{"type":"Feature","geometry":{"type":"Point","coordinates":[78.1208,29.92557]},"properties":{"Ptr_Id":"UPCL-AN-2","Ptr_Cc_Mva":10,"Ptr_Status":"Live","Ptr_Ss_Nam":"33/11 kV ARYA NAGAR S/s"}},
{"type":"Feature","geometry":{"type":"Point","coordinates":[78.1209,29.92565]},"properties":{"Ptr_Id":"UPCL-AN-1","Ptr_Cc_Mva":10,"Ptr_Status":"Live","Ptr_Ss_Nam":"33/11 kV ARYA NAGAR S/s"}},
{"type":"Feature","geometry":{"type":"Point","coordinates":[77.77557,29.81421]},"properties":{"Ptr_Id":"UPCL-JB-TF-1","Ptr_Cc_Mva":10,"Ptr_Status":"Connected","Ptr_Ss_Nam":"33/11kv Jhabrera S/s"}},
{"type":"Feature","geometry":{"type":"Point","coordinates":[77.77555,29.81426]},"properties":{"Ptr_Id":"UPCL-JB-TF-2","Ptr_Cc_Mva":10,"Ptr_Status":"Connected","Ptr_Ss_Nam":"33/11kv Jhabrera S/s"}},
{"type":"Feature","geometry":{"type":"Point","coordinates":[77.88657,29.87317]},"properties":{"Ptr_Id":"UPCL-CL-TF-3","Ptr_Cc_Mva":8,"Ptr_Status":"Operational","Ptr_Ss_Nam":"33/11KV NO.6 Canal S/s"}},
{"type":"Feature","geometry":{"type":"Point","coordinates":[77.88675,29.87312]},"properties":{"Ptr_Id":"UPCL-CL-TF-2","Ptr_Cc_Mva":10,"Ptr_Status":"Operational","Ptr_Ss_Nam":"33/11KV NO.6 Canal S/s"}},
{"type":"Feature","geometry":{"type":"Point","coordinates":[77.88672,29.87308]},"properties":{"Ptr_Id":"UPCL-CL-TF-1","Ptr_Cc_Mva":10,"Ptr_Status":"Operational","Ptr_Ss_Nam":"33/11KV NO.6 Canal S/s"}},
{"type":"Feature","geometry":{"type":"Point","coordinates":[77.86556,29.8755]},"properties":{"Ptr_Id":"UPCL-RG-TF-3","Ptr_Cc_Mva":8,"Ptr_Status":"Operational","Ptr_Ss_Nam":"33/11KV Ramnagar S/s"}},
{"type":"Feature","geometry":{"type":"Point","coordinates":[77.86551,29.87553]},"properties":{"Ptr_Id":"UPCL-RG-TF-1","Ptr_Cc_Mva":10,"Ptr_Status":"Operational","Ptr_Ss_Nam":"33/11KV Ramnagar S/s"}},
{"type":"Feature","geometry":{"type":"Point","coordinates":[77.86607,29.8753]},"properties":{"Ptr_Id":"UPCL-RR-TF-1","Ptr_Cc_Mva":8,"Ptr_Status":"Operational","Ptr_Ss_Nam":"33/11 kV Ramnagar New S/s"}},
{"type":"Feature","geometry":{"type":"Point","coordinates":[77.86599,29.87534]},"properties":{"Ptr_Id":"UPCL-RR-TF-2","Ptr_Cc_Mva":8,"Ptr_Status":"Operational","Ptr_Ss_Nam":"33/11 kV Ramnagar New S/s"}},
{"type":"Feature","geometry":{"type":"Point","coordinates":[77.86564,29.87546]},"properties":{"Ptr_Id":"UPCL-RG-TF-2","Ptr_Cc_Mva":8,"Ptr_Status":"Operational","Ptr_Ss_Nam":"33/11KV Ramnagar S/s"}},
{"type":"Feature","geometry":{"type":"Point","coordinates":[78.14348,29.91827]},"properties":{"Ptr_Id":"UPCL-KK-1","Ptr_Cc_Mva":10,"Ptr_Status":"Live","Ptr_Ss_Nam":"33/11 kV KANKHAL- 2 S/s"}},
{"type":"Feature","geometry":{"type":"Point","coordinates":[78.14358,29.91833]},"properties":{"Ptr_Id":"UPCL-KK-2","Ptr_Cc_Mva":10,"Ptr_Status":"Live","Ptr_Ss_Nam":"33/11 kV KANKHAL- 2 S/s"}},
{"type":"Feature","geometry":{"type":"Point","coordinates":[78.14407,29.92725]},"properties":{"Ptr_Id":"UPCL-KI-2","Ptr_Cc_Mva":10,"Ptr_Status":"Live","Ptr_Ss_Nam":"33/11 kV KANKHAL- 3 S/s"}},
{"type":"Feature","geometry":{"type":"Point","coordinates":[78.14396,29.9273]},"properties":{"Ptr_Id":"UPCL-KI-1","Ptr_Cc_Mva":10,"Ptr_Status":"Live","Ptr_Ss_Nam":"33/11 kV KANKHAL- 3 S/s"}},
{"type":"Feature","geometry":{"type":"Point","coordinates":[79.51463,29.19233]},"properties":{"Ptr_Id":"UPCL-TN-1","Ptr_Cc_Mva":8,"Ptr_Status":"Operational","Ptr_Ss_Nam":"33/11 kV Transport Nagar S/s"}},
{"type":"Feature","geometry":{"type":"Point","coordinates":[79.51461,29.19228]},"properties":{"Ptr_Id":"UPCL-TN-2","Ptr_Cc_Mva":8,"Ptr_Status":"Operational","Ptr_Ss_Nam":"33/11 kV Transport Nagar S/s"}},
{"type":"Feature","geometry":{"type":"Point","coordinates":[79.53348,29.23113]},"properties":{"Ptr_Id":"UPCL-SB-1","Ptr_Cc_Mva":10,"Ptr_Status":"Operational","Ptr_Ss_Nam":"33/11 kV Subhash Nagar S/s"}},
{"type":"Feature","geometry":{"type":"Point","coordinates":[79.53339,29.23114]},"properties":{"Ptr_Id":"UPCL-SB-2","Ptr_Cc_Mva":10,"Ptr_Status":"Operational","Ptr_Ss_Nam":"33/11 kV Subhash Nagar S/s"}},
{"type":"Feature","geometry":{"type":"Point","coordinates":[79.53464,29.2491]},"properties":{"Ptr_Id":"UPCL-KO-1","Ptr_Cc_Mva":10,"Ptr_Status":"Operational","Ptr_Ss_Nam":"33/11 kV Kathgodam S/s"}},
{"type":"Feature","geometry":{"type":"Point","coordinates":[79.54496,29.2925]},"properties":{"Ptr_Id":"UPCL-RB-1","Ptr_Cc_Mva":5,"Ptr_Status":"Operational","Ptr_Ss_Nam":"66/11 kV Rani Bag S/s"}},
{"type":"Feature","geometry":{"type":"Point","coordinates":[79.12497,29.39329]},"properties":{"Ptr_Id":"UPCL-GM-TF-1","Ptr_Cc_Mva":10,"Ptr_Status":"1","Ptr_Ss_Nam":"33/11 kV Ghasmandi S/s"}},
{"type":"Feature","geometry":{"type":"Point","coordinates":[79.12502,29.39333]},"properties":{"Ptr_Id":"UPCL-GM-TF-2","Ptr_Cc_Mva":10,"Ptr_Status":"1","Ptr_Ss_Nam":"33/11 kV Ghasmandi S/s"}},
{"type":"Feature","geometry":{"type":"Point","coordinates":[79.51533,29.07207]},"properties":{"Ptr_Id":"UPCL-LK-TF-1","Ptr_Cc_Mva":5,"Ptr_Status":"Connected","Ptr_Ss_Nam":"33/11 KV Lalkuwan S/s"}},
{"type":"Feature","geometry":{"type":"Point","coordinates":[79.51526,29.07208]},"properties":{"Ptr_Id":"UPCL-LK-TF-2","Ptr_Cc_Mva":10,"Ptr_Status":"Connected","Ptr_Ss_Nam":"33/11 KV Lalkuwan S/s"}},
{"type":"Feature","geometry":{"type":"Point","coordinates":[79.35298,29.26557]},"properties":{"Ptr_Id":"UPCL-KL-TF-2","Ptr_Cc_Mva":3.15,"Ptr_Status":"Connected","Ptr_Ss_Nam":"33/11 KV Kaladhungi S/s"}},
{"type":"Feature","geometry":{"type":"Point","coordinates":[79.35307,29.26549]},"properties":{"Ptr_Id":"UPCL-KL-TF-1","Ptr_Cc_Mva":8,"Ptr_Status":"Connected","Ptr_Ss_Nam":"33/11 KV Kaladhungi S/s"}},
{"type":"Feature","geometry":{"type":"Point","coordinates":[79.52938,29.38128]},"properties":{"Ptr_Id":"UPCL-GH-TF-1","Ptr_Cc_Mva":3,"Ptr_Status":"ACTIVE","Ptr_Ss_Nam":"33/11 KV Ghorakhal S/s"}},
{"type":"Feature","geometry":{"type":"Point","coordinates":[79.52928,29.38128]},"properties":{"Ptr_Id":"UPCL-GH-TF-2","Ptr_Cc_Mva":1.5,"Ptr_Status":"ACTIVE","Ptr_Ss_Nam":"33/11 KV Ghorakhal S/s"}},
{"type":"Feature","geometry":{"type":"Point","coordinates":[79.54876,29.3585]},"properties":{"Ptr_Id":"UPCL-BM-TF-1","Ptr_Cc_Mva":5,"Ptr_Status":"Connected","Ptr_Ss_Nam":"33/11 KV Bhimtal S/s"}},
{"type":"Feature","geometry":{"type":"Point","coordinates":[79.54883,29.35851]},"properties":{"Ptr_Id":"UPCL-BM-TF-2","Ptr_Cc_Mva":5,"Ptr_Status":"Connected","Ptr_Ss_Nam":"33/11 KV Bhimtal S/s"}},
{"type":"Feature","geometry":{"type":"Point","coordinates":[79.48325,29.38607]},"properties":{"Ptr_Id":"UPCL-PI-2","Ptr_Cc_Mva":5,"Ptr_Status":"1","Ptr_Ss_Nam":"33/11 kV PINES S/s"}},
{"type":"Feature","geometry":{"type":"Point","coordinates":[79.48317,29.38602]},"properties":{"Ptr_Id":"UPCL-PI-1","Ptr_Cc_Mva":8,"Ptr_Status":"1","Ptr_Ss_Nam":"33/11 kV PINES S/s"}},
{"type":"Feature","geometry":{"type":"Point","coordinates":[79.44711,29.39363]},"properties":{"Ptr_Id":"UPCL-SH-2","Ptr_Cc_Mva":8,"Ptr_Status":"1","Ptr_Ss_Nam":"33/11 kV SUKHATAL S/s"}},
{"type":"Feature","geometry":{"type":"Point","coordinates":[79.4471,29.39365]},"properties":{"Ptr_Id":"UPCL-SH-1","Ptr_Cc_Mva":8,"Ptr_Status":"1","Ptr_Ss_Nam":"33/11 kV SUKHATAL S/s"}},
{"type":"Feature","geometry":{"type":"Point","coordinates":[79.52985,29.20227]},"properties":{"Ptr_Id":"UPCL-TB-2","Ptr_Cc_Mva":8,"Ptr_Status":"Operational","Ptr_Ss_Nam":"33/11 kV Tehra Bigha S/s"}},
{"type":"Feature","geometry":{"type":"Point","coordinates":[79.52983,29.20217]},"properties":{"Ptr_Id":"UPCL-TB-1","Ptr_Cc_Mva":8,"Ptr_Status":"Operational","Ptr_Ss_Nam":"33/11 kV Tehra Bigha S/s"}},
{"type":"Feature","geometry":{"type":"Point","coordinates":[79.52775,29.21465]},"properties":{"Ptr_Id":"UPCL-KD-2","Ptr_Cc_Mva":12.5,"Ptr_Status":"Operational","Ptr_Ss_Nam":"33/11 kV K.D Chauraha S/s"}},
{"type":"Feature","geometry":{"type":"Point","coordinates":[79.52769,29.21457]},"properties":{"Ptr_Id":"UPCL-KD-1","Ptr_Cc_Mva":12.5,"Ptr_Status":"Operational","Ptr_Ss_Nam":"33/11 kV K.D Chauraha S/s"}},
{"type":"Feature","geometry":{"type":"Point","coordinates":[78.53612,29.75579]},"properties":{"Ptr_Id":"UPCL-GV-TF-1","Ptr_Cc_Mva":5,"Ptr_Status":"Operational","Ptr_Ss_Nam":"33/11 kV Gavaisot S/s"}},
{"type":"Feature","geometry":{"type":"Point","coordinates":[78.51693,29.74237]},"properties":{"Ptr_Id":"UPCL-KW-TF-2","Ptr_Cc_Mva":10,"Ptr_Status":"Operational","Ptr_Ss_Nam":"33/11 kV Kotdwara S/s"}},
{"type":"Feature","geometry":{"type":"Point","coordinates":[78.51691,29.7423]},"properties":{"Ptr_Id":"UPCL-KW-TF-1","Ptr_Cc_Mva":10,"Ptr_Status":"Operational","Ptr_Ss_Nam":"33/11 kV Kotdwara S/s"}},
{"type":"Feature","geometry":{"type":"Point","coordinates":[78.53609,29.75569]},"properties":{"Ptr_Id":"UPCL-GV-TF-2","Ptr_Cc_Mva":5,"Ptr_Status":"Operational","Ptr_Ss_Nam":"33/11 kV Gavaisot S/s"}},
{"type":"Feature","geometry":{"type":"Point","coordinates":[78.76422,30.15202]},"properties":{"Ptr_Id":"RS/1","Ptr_Cc_Mva":5,"Ptr_Status":"Operational","Ptr_Ss_Nam":"33/11 kV RANSI S/s"}},
{"type":"Feature","geometry":{"type":"Point","coordinates":[78.7643,30.15207]},"properties":{"Ptr_Id":"RS/2","Ptr_Cc_Mva":5,"Ptr_Status":"Operational","Ptr_Ss_Nam":"33/11 kV RANSI S/s"}},
{"type":"Feature","geometry":{"type":"Point","coordinates":[78.78588,30.22188]},"properties":{"Ptr_Id":"UPCL-SN/1","Ptr_Cc_Mva":5,"Ptr_Status":"Yes","Ptr_Ss_Nam":"33/11 kV SRINAGAR S/s"}},
{"type":"Feature","geometry":{"type":"Point","coordinates":[78.78588,30.22196]},"properties":{"Ptr_Id":"UPCL-SN/2","Ptr_Cc_Mva":5,"Ptr_Status":"Yes","Ptr_Ss_Nam":"33/11 kV SRINAGAR S/s"}},
{"type":"Feature","geometry":{"type":"Point","coordinates":[78.60742,29.80504]},"properties":{"Ptr_Id":"UPCL-DG-TF-1","Ptr_Cc_Mva":3,"Ptr_Status":"Connected","Ptr_Ss_Nam":"33/11 KV Dugadda S/s"}},
{"type":"Feature","geometry":{"type":"Point","coordinates":[78.67902,29.86715]},"properties":{"Ptr_Id":"UPCL-JK-TF-1","Ptr_Cc_Mva":5,"Ptr_Status":"Connected","Ptr_Ss_Nam":"33/11 KV Jaiharikhal S/s"}},
{"type":"Feature","geometry":{"type":"Point","coordinates":[78.67907,29.86723]},"properties":{"Ptr_Id":"UPCL-JK-TF-2","Ptr_Cc_Mva":5,"Ptr_Status":"Connected","Ptr_Ss_Nam":"33/11 KV Jaiharikhal S/s"}},
{"type":"Feature","geometry":{"type":"Point","coordinates":[80.21096,29.57618]},"properties":{"Ptr_Id":"UPCL-PG-1","Ptr_Cc_Mva":8,"Ptr_Status":"1","Ptr_Ss_Nam":"33/11kV Pithoragarh S/s"}},
{"type":"Feature","geometry":{"type":"Point","coordinates":[80.21089,29.57617]},"properties":{"Ptr_Id":"UPCL-PG-2","Ptr_Cc_Mva":8,"Ptr_Status":"1","Ptr_Ss_Nam":"33/11kV Pithoragarh S/s"}},
{"type":"Feature","geometry":{"type":"Point","coordinates":[80.21092,29.57617]},"properties":{"Ptr_Id":"UPCL-PG-3","Ptr_Cc_Mva":8,"Ptr_Status":"1","Ptr_Ss_Nam":"33/11kV Pithoragarh S/s"}},
{"type":"Feature","geometry":{"type":"Point","coordinates":[80.23712,29.57554]},"properties":{"Ptr_Id":"UPCL-BI-1","Ptr_Cc_Mva":5,"Ptr_Status":"4","Ptr_Ss_Nam":"33/11kV BIN S/s"}},
{"type":"Feature","geometry":{"type":"Point","coordinates":[80.23706,29.57556]},"properties":{"Ptr_Id":"UPCL-BI-2","Ptr_Cc_Mva":5,"Ptr_Status":"1","Ptr_Ss_Nam":"33/11kV BIN S/s"}},
{"type":"Feature","geometry":{"type":"Point","coordinates":[80.26464,29.79344]},"properties":{"Ptr_Id":"UPCL-DD-TF-1","Ptr_Cc_Mva":3,"Ptr_Status":"Connected","Ptr_Ss_Nam":"33/11 KV Didihat S/s"}},
{"type":"Feature","geometry":{"type":"Point","coordinates":[80.26464,29.79349]},"properties":{"Ptr_Id":"UPCL-DD-TF-2","Ptr_Cc_Mva":3,"Ptr_Status":"Connected","Ptr_Ss_Nam":"33/11 KV Didihat S/s"}},
{"type":"Feature","geometry":{"type":"Point","coordinates":[80.52339,29.83414]},"properties":{"Ptr_Id":"UPCL-DC-TF-2","Ptr_Cc_Mva":5,"Ptr_Status":"Connected","Ptr_Ss_Nam":"33/11 KV Dharchula S/s"}},
{"type":"Feature","geometry":{"type":"Point","coordinates":[80.52334,29.8342]},"properties":{"Ptr_Id":"UPCL-DC-TF-1","Ptr_Cc_Mva":3,"Ptr_Status":"Connected","Ptr_Ss_Nam":"33/11 KV Dharchula S/s"}},
{"type":"Feature","geometry":{"type":"Point","coordinates":[79.08189,30.52466]},"properties":{"Ptr_Id":"UPCL-GT-TF-1","Ptr_Cc_Mva":5,"Ptr_Status":"OK","Ptr_Ss_Nam":"33/11KV Guptakashi S/s"}},
{"type":"Feature","geometry":{"type":"Point","coordinates":[79.08192,30.52467]},"properties":{"Ptr_Id":"UPCL-GT-TF-2","Ptr_Cc_Mva":5,"Ptr_Status":"OK","Ptr_Ss_Nam":"33/11KV Guptakashi S/s"}},
{"type":"Feature","geometry":{"type":"Point","coordinates":[78.98586,30.29084]},"properties":{"Ptr_Id":"UPCL-RP-TF-1","Ptr_Cc_Mva":5,"Ptr_Status":"Connected","Ptr_Ss_Nam":"33/11 KV Rudraprayag S/s"}},
{"type":"Feature","geometry":{"type":"Point","coordinates":[78.98584,30.29077]},"properties":{"Ptr_Id":"UPCL-RP-TF-2","Ptr_Cc_Mva":5,"Ptr_Status":"Connected","Ptr_Ss_Nam":"33/11 KV Rudraprayag S/s"}},
{"type":"Feature","geometry":{"type":"Point","coordinates":[78.38551,30.34288]},"properties":{"Ptr_Id":"UPCL-CB-TF-1","Ptr_Cc_Mva":5,"Ptr_Status":"OK","Ptr_Ss_Nam":"33/11 KV Chamba S/s"}},
{"type":"Feature","geometry":{"type":"Point","coordinates":[78.38562,30.34295]},"properties":{"Ptr_Id":"UPCL-CB-TF-2","Ptr_Cc_Mva":5,"Ptr_Status":"OK","Ptr_Ss_Nam":"33/11 KV Chamba S/s"}},
{"type":"Feature","geometry":{"type":"Point","coordinates":[78.60089,30.15579]},"properties":{"Ptr_Id":"UPCL-DV-TF-1","Ptr_Cc_Mva":8,"Ptr_Status":"Connected","Ptr_Ss_Nam":"33/11 KV Devprayag S/s"}},
{"type":"Feature","geometry":{"type":"Point","coordinates":[78.60089,30.15582]},"properties":{"Ptr_Id":"UPCL-DV-TF-2","Ptr_Cc_Mva":3.15,"Ptr_Status":"Connected","Ptr_Ss_Nam":"33/11 KV Devprayag S/s"}},
{"type":"Feature","geometry":{"type":"Point","coordinates":[78.74962,30.21879]},"properties":{"Ptr_Id":"UPCL-KN-TF-1","Ptr_Cc_Mva":5,"Ptr_Status":"Connected","Ptr_Ss_Nam":"33/11 KV Kirtinagar S/s"}},
{"type":"Feature","geometry":{"type":"Point","coordinates":[78.74957,30.21869]},"properties":{"Ptr_Id":"UPCL-KN-TF-2","Ptr_Cc_Mva":3.15,"Ptr_Status":"Connected","Ptr_Ss_Nam":"33/11 KV Kirtinagar S/s"}},
{"type":"Feature","geometry":{"type":"Point","coordinates":[78.28669,30.14728]},"properties":{"Ptr_Id":"UPCL-NN-TF-1","Ptr_Cc_Mva":5,"Ptr_Status":"Connected","Ptr_Ss_Nam":"33/11 kV Narendranagar S/s"}},
{"type":"Feature","geometry":{"type":"Point","coordinates":[78.28672,30.14726]},"properties":{"Ptr_Id":"UPCL-NN-TF-2","Ptr_Cc_Mva":5,"Ptr_Status":"Connected","Ptr_Ss_Nam":"33/11 kV Narendranagar S/s"}},
{"type":"Feature","geometry":{"type":"Point","coordinates":[78.43383,30.3761]},"properties":{"Ptr_Id":"NT/1","Ptr_Cc_Mva":10,"Ptr_Status":"Yes","Ptr_Ss_Nam":"33/11 kV NEW TEHRI S/s"}},
{"type":"Feature","geometry":{"type":"Point","coordinates":[78.43396,30.37607]},"properties":{"Ptr_Id":"NT/2","Ptr_Cc_Mva":8,"Ptr_Status":"Yes","Ptr_Ss_Nam":"33/11 kV NEW TEHRI S/s"}},
{"type":"Feature","geometry":{"type":"Point","coordinates":[78.30073,30.1185]},"properties":{"Ptr_Id":"UPCL-MI-TF-2","Ptr_Cc_Mva":5,"Ptr_Status":"Operational","Ptr_Ss_Nam":"33/11 KV Muni ki Reti S/s"}},
{"type":"Feature","geometry":{"type":"Point","coordinates":[78.30077,30.1184]},"properties":{"Ptr_Id":"UPCL-MI-TF-1","Ptr_Cc_Mva":5,"Ptr_Status":"Operational","Ptr_Ss_Nam":"33/11 KV Muni ki Reti S/s"}},
{"type":"Feature","geometry":{"type":"Point","coordinates":[78.28628,30.12643]},"properties":{"Ptr_Id":"UPCL-DW-TF-1","Ptr_Cc_Mva":5,"Ptr_Status":"Operational","Ptr_Ss_Nam":"33/11 kv Dhalwala S/s"}},
{"type":"Feature","geometry":{"type":"Point","coordinates":[78.94848,29.1397]},"properties":{"Ptr_Id":"UPCL-MJ-TF-1","Ptr_Cc_Mva":8,"Ptr_Status":"Connected","Ptr_Ss_Nam":"33/11 KV Mahuakheraganj S/s"}},
{"type":"Feature","geometry":{"type":"Point","coordinates":[78.94867,29.13958]},"properties":{"Ptr_Id":"UPCL-MJ-TF-2","Ptr_Cc_Mva":10,"Ptr_Status":"Connected","Ptr_Ss_Nam":"33/11 KV Mahuakheraganj S/s"}},
{"type":"Feature","geometry":{"type":"Point","coordinates":[79.14863,29.15998]},"properties":{"Ptr_Id":"UPCL-MD-TF-1","Ptr_Cc_Mva":12.5,"Ptr_Status":"Operational","Ptr_Ss_Nam":"33/11kV Mandi S/s"}},
{"type":"Feature","geometry":{"type":"Point","coordinates":[79.14868,29.15994]},"properties":{"Ptr_Id":"UPCL-MD-TF-2","Ptr_Cc_Mva":12.5,"Ptr_Status":"Operational","Ptr_Ss_Nam":"33/11kV Mandi S/s"}},
{"type":"Feature","geometry":{"type":"Point","coordinates":[79.12006,29.13258]},"properties":{"Ptr_Id":"UPCL-DR-TF-1","Ptr_Cc_Mva":5,"Ptr_Status":"Operational","Ptr_Ss_Nam":"33 /11KV Doraha S/s"}},
{"type":"Feature","geometry":{"type":"Point","coordinates":[79.12,29.13254]},"properties":{"Ptr_Id":"UPCL-DR-TF-2","Ptr_Cc_Mva":5,"Ptr_Status":"Operational","Ptr_Ss_Nam":"33 /11KV Doraha S/s"}},
{"type":"Feature","geometry":{"type":"Point","coordinates":[79.11991,29.13246]},"properties":{"Ptr_Id":"UPCL-DR-TF-3","Ptr_Cc_Mva":8,"Ptr_Status":"Operational","Ptr_Ss_Nam":"33 /11KV Doraha S/s"}},
{"type":"Feature","geometry":{"type":"Point","coordinates":[78.84545,29.2907]},"properties":{"Ptr_Id":"UPCL-AP-TF-1","Ptr_Cc_Mva":5,"Ptr_Status":"1","Ptr_Ss_Nam":"33/11KV Amritpur Patti S/s"}},
{"type":"Feature","geometry":{"type":"Point","coordinates":[78.8454,29.29065]},"properties":{"Ptr_Id":"UPCL-AP-TF-2","Ptr_Cc_Mva":5,"Ptr_Status":"1","Ptr_Ss_Nam":"33/11KV Amritpur Patti S/s"}},
{"type":"Feature","geometry":{"type":"Point","coordinates":[78.82978,29.29124]},"properties":{"Ptr_Id":"UPCL-JR-TF-1","Ptr_Cc_Mva":5,"Ptr_Status":"1","Ptr_Ss_Nam":"33/11KV Jaspur S/s"}},
{"type":"Feature","geometry":{"type":"Point","coordinates":[78.82992,29.29118]},"properties":{"Ptr_Id":"UPCL-JR-TF-2","Ptr_Cc_Mva":8,"Ptr_Status":"1","Ptr_Ss_Nam":"33/11KV Jaspur S/s"}},
{"type":"Feature","geometry":{"type":"Point","coordinates":[78.82975,29.2912]},"properties":{"Ptr_Id":"UPCL-JR-TF-3","Ptr_Cc_Mva":12.5,"Ptr_Status":"1","Ptr_Ss_Nam":"33/11KV Jaspur S/s"}},
{"type":"Feature","geometry":{"type":"Point","coordinates":[78.95479,29.21892]},"properties":{"Ptr_Id":"UPCL-PK-PTR-2","Ptr_Cc_Mva":8,"Ptr_Status":"Operational","Ptr_Ss_Nam":"33/11KV Pakkakot S/s"}},
{"type":"Feature","geometry":{"type":"Point","coordinates":[78.95482,29.21888]},"properties":{"Ptr_Id":"UPCL-PK-PTR-1","Ptr_Cc_Mva":10,"Ptr_Status":"Operational","Ptr_Ss_Nam":"33/11KV Pakkakot S/s"}},
{"type":"Feature","geometry":{"type":"Point","coordinates":[78.96705,29.20669]},"properties":{"Ptr_Id":"UPCL-KP-PTR-1","Ptr_Cc_Mva":10,"Ptr_Status":"Operational","Ptr_Ss_Nam":"33/11KV Kashipur S/s"}},
{"type":"Feature","geometry":{"type":"Point","coordinates":[78.96709,29.20667]},"properties":{"Ptr_Id":"UPCL-KP-PTR-2","Ptr_Cc_Mva":10,"Ptr_Status":"Operational","Ptr_Ss_Nam":"33/11KV Kashipur S/s"}},
{"type":"Feature","geometry":{"type":"Point","coordinates":[78.9669,29.2066]},"properties":{"Ptr_Id":"UPCL-KP-PTR-3","Ptr_Cc_Mva":10,"Ptr_Status":"Operational","Ptr_Ss_Nam":"33/11KV Kashipur S/s"}},
{"type":"Feature","geometry":{"type":"Point","coordinates":[79.96487,28.92719]},"properties":{"Ptr_Id":"UPCL-KH-1","Ptr_Cc_Mva":10,"Ptr_Status":"1","Ptr_Ss_Nam":"33/11kV KHATIMA S/s"}},
{"type":"Feature","geometry":{"type":"Point","coordinates":[79.96478,28.92721]},"properties":{"Ptr_Id":"UPCL-KH-2","Ptr_Cc_Mva":5,"Ptr_Status":"1","Ptr_Ss_Nam":"33/11kV KHATIMA S/s"}},
{"type":"Feature","geometry":{"type":"Point","coordinates":[79.97025,28.91831]},"properties":{"Ptr_Id":"UPCL-ML-1","Ptr_Cc_Mva":10,"Ptr_Status":"1","Ptr_Ss_Nam":"33/11kV MELARAJ ROAD S/s"}},
{"type":"Feature","geometry":{"type":"Point","coordinates":[79.97032,28.91837]},"properties":{"Ptr_Id":"UPCL-ML-2","Ptr_Cc_Mva":10,"Ptr_Status":"1","Ptr_Ss_Nam":"33/11kV MELARAJ ROAD S/s"}},
{"type":"Feature","geometry":{"type":"Point","coordinates":[79.68825,29.02936]},"properties":{"Ptr_Id":"UPCL-JC-TF-1","Ptr_Cc_Mva":5,"Ptr_Status":"Connected","Ptr_Ss_Nam":"33/11 KV JailCamp S/s"}},
{"type":"Feature","geometry":{"type":"Point","coordinates":[79.68824,29.02941]},"properties":{"Ptr_Id":"UPCL-JC-TF-2","Ptr_Cc_Mva":8,"Ptr_Status":"Connected","Ptr_Ss_Nam":"33/11 KV JailCamp S/s"}},
{"type":"Feature","geometry":{"type":"Point","coordinates":[79.71123,28.92645]},"properties":{"Ptr_Id":"UPCL-SG-1","Ptr_Cc_Mva":12.5,"Ptr_Status":"Connected","Ptr_Ss_Nam":"33/11 kV SITARGANJ S/s"}},
{"type":"Feature","geometry":{"type":"Point","coordinates":[79.71128,28.92656]},"properties":{"Ptr_Id":"UPCL-SG-2","Ptr_Cc_Mva":10,"Ptr_Status":"Connected","Ptr_Ss_Nam":"33/11 kV SITARGANJ S/s"}},
{"type":"Feature","geometry":{"type":"Point","coordinates":[79.40768,28.96365]},"properties":{"Ptr_Id":"UPCL-BH-TF-1","Ptr_Cc_Mva":10,"Ptr_Status":"Operational","Ptr_Ss_Nam":"33/11 kV Badhaipura S/s"}},
{"type":"Feature","geometry":{"type":"Point","coordinates":[79.40775,28.96363]},"properties":{"Ptr_Id":"UPCL-BH-TF-2","Ptr_Cc_Mva":8,"Ptr_Status":"Operational","Ptr_Ss_Nam":"33/11 kV Badhaipura S/s"}},
{"type":"Feature","geometry":{"type":"Point","coordinates":[79.40781,28.96361]},"properties":{"Ptr_Id":"UPCL-BH-TF-3","Ptr_Cc_Mva":8,"Ptr_Status":"Operational","Ptr_Ss_Nam":"33/11 kV Badhaipura S/s"}},
{"type":"Feature","geometry":{"type":"Point","coordinates":[79.40772,28.96364]},"properties":{"Ptr_Id":"UPCL-BH-TF-4","Ptr_Cc_Mva":5,"Ptr_Status":"Operational","Ptr_Ss_Nam":"33/11 kV Badhaipura S/s"}},
{"type":"Feature","geometry":{"type":"Point","coordinates":[79.39943,28.9724]},"properties":{"Ptr_Id":"UPCL-CO-TF-1","Ptr_Cc_Mva":10,"Ptr_Status":"Operational","Ptr_Ss_Nam":"33/11 kV Circle Office  S/s"}},
{"type":"Feature","geometry":{"type":"Point","coordinates":[79.3994,28.97233]},"properties":{"Ptr_Id":"UPCL-CO-TF-2","Ptr_Cc_Mva":10,"Ptr_Status":"Operational","Ptr_Ss_Nam":"33/11 kV Circle Office  S/s"}},
{"type":"Feature","geometry":{"type":"Point","coordinates":[79.40066,28.98982]},"properties":{"Ptr_Id":"UPCL-MT-TF-1","Ptr_Cc_Mva":10,"Ptr_Status":"Operational","Ptr_Ss_Nam":"33/11 kV Matkota S/s"}},
{"type":"Feature","geometry":{"type":"Point","coordinates":[79.40085,28.98982]},"properties":{"Ptr_Id":"UPCL-MT-TF-2","Ptr_Cc_Mva":10,"Ptr_Status":"Operational","Ptr_Ss_Nam":"33/11 kV Matkota S/s"}},
{"type":"Feature","geometry":{"type":"Point","coordinates":[79.40066,28.9897]},"properties":{"Ptr_Id":"UPCL-MT-TF-3","Ptr_Cc_Mva":10,"Ptr_Status":"Operational","Ptr_Ss_Nam":"33/11 kV Matkota S/s"}},
{"type":"Feature","geometry":{"type":"Point","coordinates":[79.38861,28.97301]},"properties":{"Ptr_Id":"UPCL-NY-TF-1","Ptr_Cc_Mva":10,"Ptr_Status":"Operational","Ptr_Ss_Nam":"33/11 kV Navodaya S/s"}},
{"type":"Feature","geometry":{"type":"Point","coordinates":[79.38873,28.97297]},"properties":{"Ptr_Id":"UPCL-NY-TF-2","Ptr_Cc_Mva":12.5,"Ptr_Status":"Operational","Ptr_Ss_Nam":"33/11 kV Navodaya S/s"}},
{"type":"Feature","geometry":{"type":"Point","coordinates":[79.38867,28.97299]},"properties":{"Ptr_Id":"UPCL-NY-TF-3","Ptr_Cc_Mva":5,"Ptr_Status":"Operational","Ptr_Ss_Nam":"33/11 kV Navodaya S/s"}},
{"type":"Feature","geometry":{"type":"Point","coordinates":[79.32456,29.05489]},"properties":{"Ptr_Id":"UPCL-DN-TF-1","Ptr_Cc_Mva":10,"Ptr_Status":"Connected","Ptr_Ss_Nam":"33/11 KV Dineshpur S/s"}},
{"type":"Feature","geometry":{"type":"Point","coordinates":[79.32442,29.05489]},"properties":{"Ptr_Id":"UPCL-DN-TF-2","Ptr_Cc_Mva":8,"Ptr_Status":"Connected","Ptr_Ss_Nam":"33/11 KV Dineshpur S/s"}},
{"type":"Feature","geometry":{"type":"Point","coordinates":[79.16641,29.09907]},"properties":{"Ptr_Id":"UPCL-KE-TF-1","Ptr_Cc_Mva":5,"Ptr_Status":"Connected","Ptr_Ss_Nam":"33/11kv Kelakhera S/s"}},
{"type":"Feature","geometry":{"type":"Point","coordinates":[79.16633,29.09897]},"properties":{"Ptr_Id":"UPCL-KE-TF-2","Ptr_Cc_Mva":5,"Ptr_Status":"Connected","Ptr_Ss_Nam":"33/11kv Kelakhera S/s"}},
{"type":"Feature","geometry":{"type":"Point","coordinates":[78.79045,29.28002]},"properties":{"Ptr_Id":"UPCL-MU-TF-1","Ptr_Cc_Mva":5,"Ptr_Status":"1","Ptr_Ss_Nam":"33/11 KV Mahuadabra S/s"}},
{"type":"Feature","geometry":{"type":"Point","coordinates":[78.79042,29.28005]},"properties":{"Ptr_Id":"UPCL-MU-TF-2","Ptr_Cc_Mva":5,"Ptr_Status":"1","Ptr_Ss_Nam":"33/11 KV Mahuadabra S/s"}},
{"type":"Feature","geometry":{"type":"Point","coordinates":[79.07353,29.15454]},"properties":{"Ptr_Id":"UPCL-PP-TF-2","Ptr_Cc_Mva":10,"Ptr_Status":"Connected","Ptr_Ss_Nam":"33/11kv Pipaliya S/s"}},
{"type":"Feature","geometry":{"type":"Point","coordinates":[79.07336,29.15462]},"properties":{"Ptr_Id":"UPCL-PP-TF-1","Ptr_Cc_Mva":10,"Ptr_Status":"Connected","Ptr_Ss_Nam":"33/11kv Pipaliya S/s"}},
{"type":"Feature","geometry":{"type":"Point","coordinates":[78.96449,29.23327]},"properties":{"Ptr_Id":"UPCL-MN-PTR-2","Ptr_Cc_Mva":8,"Ptr_Status":"Operational","Ptr_Ss_Nam":"33/11KV Manpur S/s"}},
{"type":"Feature","geometry":{"type":"Point","coordinates":[78.96458,29.23321]},"properties":{"Ptr_Id":"UPCL-MN-PTR-1","Ptr_Cc_Mva":10,"Ptr_Status":"Operational","Ptr_Ss_Nam":"33/11KV Manpur S/s"}},
{"type":"Feature","geometry":{"type":"Point","coordinates":[79.50525,28.91396]},"properties":{"Ptr_Id":"11 kV I/C From PTR-2","Ptr_Cc_Mva":8,"Ptr_Status":"Operational","Ptr_Ss_Nam":"33/11 kV Kichha S/s"}},
{"type":"Feature","geometry":{"type":"Point","coordinates":[79.50503,28.91413]},"properties":{"Ptr_Id":"11 kV I/C From PTR-4","Ptr_Cc_Mva":40,"Ptr_Status":"Operational","Ptr_Ss_Nam":"33/11 kV Kichha S/s"}},
{"type":"Feature","geometry":{"type":"Point","coordinates":[79.50496,28.91406]},"properties":{"Ptr_Id":"11 kV I/C From PTR-3","Ptr_Cc_Mva":12.5,"Ptr_Status":"Operational","Ptr_Ss_Nam":"33/11 kV Kichha S/s"}},
{"type":"Feature","geometry":{"type":"Point","coordinates":[79.50508,28.91424]},"properties":{"Ptr_Id":"11 kV I/C From PTR-1","Ptr_Cc_Mva":12.5,"Ptr_Status":"Operational","Ptr_Ss_Nam":"33/11 kV Kichha S/s"}},
{"type":"Feature","geometry":{"type":"Point","coordinates":[79.22893,29.04236]},"properties":{"Ptr_Id":"33 kV I/C For PTR-2","Ptr_Cc_Mva":8,"Ptr_Status":"Yes","Ptr_Ss_Nam":"33/11 kV GADARPUR S/s"}},
{"type":"Feature","geometry":{"type":"Point","coordinates":[79.22894,29.0423]},"properties":{"Ptr_Id":"33 kV I/C For PTR-1","Ptr_Cc_Mva":10,"Ptr_Status":"Yes","Ptr_Ss_Nam":"33/11 kV GADARPUR S/s"}},
{"type":"Feature","geometry":{"type":"Point","coordinates":[79.22893,29.04233]},"properties":{"Ptr_Id":"33 kV I/C For PTR-3","Ptr_Cc_Mva":8,"Ptr_Status":"Yes","Ptr_Ss_Nam":"33/11 kV GADARPUR S/s"}},
{"type":"Feature","geometry":{"type":"Point","coordinates":[78.614,30.79613]},"properties":{"Ptr_Id":"UPCL-BA-TF-1","Ptr_Cc_Mva":3.15,"Ptr_Status":"Connected","Ptr_Ss_Nam":"33/11 Kv Bhatwari S/s"}},
{"type":"Feature","geometry":{"type":"Point","coordinates":[78.61391,30.79621]},"properties":{"Ptr_Id":"UPCL-BA-TF-2","Ptr_Cc_Mva":3.15,"Ptr_Status":"Connected","Ptr_Ss_Nam":"33/11 Kv Bhatwari S/s"}},
{"type":"Feature","geometry":{"type":"Point","coordinates":[78.43341,30.7268]},"properties":{"Ptr_Id":"UPCL-LI-1","Ptr_Cc_Mva":8,"Ptr_Status":"1","Ptr_Ss_Nam":"33/11 kV LADARI S/s"}},
{"type":"Feature","geometry":{"type":"Point","coordinates":[78.45435,30.76406]},"properties":{"Ptr_Id":"UPCL-GA-2","Ptr_Cc_Mva":3.15,"Ptr_Status":"1","Ptr_Ss_Nam":"33/11 kV GANGORI S/s"}},
{"type":"Feature","geometry":{"type":"Point","coordinates":[78.43351,30.72683]},"properties":{"Ptr_Id":"UPCL-LI-2","Ptr_Cc_Mva":8,"Ptr_Status":"1","Ptr_Ss_Nam":"33/11 kV LADARI S/s"}},
{"type":"Feature","geometry":{"type":"Point","coordinates":[78.45433,30.76399]},"properties":{"Ptr_Id":"UPCL-GA-1","Ptr_Cc_Mva":3.15,"Ptr_Status":"1","Ptr_Ss_Nam":"33/11 kV GANGORI S/s"}},
{"type":"Feature","geometry":{"type":"Point","coordinates":[78.19185,30.80276]},"properties":{"Ptr_Id":"UPCL-BT-TF-1","Ptr_Cc_Mva":5,"Ptr_Status":"1","Ptr_Ss_Nam":"33/11 KV Barkot S/s"}},
{"type":"Feature","geometry":{"type":"Point","coordinates":[78.19193,30.80272]},"properties":{"Ptr_Id":"UPCL-BT-TF-2","Ptr_Cc_Mva":5,"Ptr_Status":"1","Ptr_Ss_Nam":"33/11 KV Barkot S/s"}}
]}