{"type":"FeatureCollection", "features": [
{"type":"Feature","geometry":{"type":"Point","coordinates":[77.93966,31.06026]},"properties":{"Id":0,"NAMES":"HEP-P"}},
{"type":"Feature","geometry":{"type":"Point","coordinates":[77.99139,30.83746]},"properties":{"Id":0,"NAMES":"HEP-UC"}},
{"type":"Feature","geometry":{"type":"Point","coordinates":[79.67363,30.73637]},"properties":{"Id":0,"NAMES":"HEP-UC"}},
{"type":"Feature","geometry":{"type":"Point","coordinates":[79.69671,30.50917]},"properties":{"Id":0,"NAMES":"HEP-UC"}},
{"type":"Feature","geometry":{"type":"Point","coordinates":[79.20571,30.64863]},"properties":{"Id":0,"NAMES":"HEP-UC"}},
{"type":"Feature","geometry":{"type":"Point","coordinates":[77.72841,30.77715]},"properties":{"Id":0,"NAMES":"HEP-Existing"}},
{"type":"Feature","geometry":{"type":"Point","coordinates":[77.87327,30.78523]},"properties":{"Id":0,"NAMES":"HEP-Existing"}},
{"type":"Feature","geometry":{"type":"Point","coordinates":[77.79219,30.49186]},"properties":{"Id":0,"NAMES":"HEP-Existing"}},
{"type":"Feature","geometry":{"type":"Point","coordinates":[77.70505,30.45287]},"properties":{"Id":0,"NAMES":"HEP-Existing"}},
{"type":"Feature","geometry":{"type":"Point","coordinates":[77.75297,30.36527]},"properties":{"Id":0,"NAMES":"HEP-Existing"}},
{"type":"Feature","geometry":{"type":"Point","coordinates":[78.68647,30.76689]},"properties":{"Id":0,"NAMES":"HEP-Existing"}},
{"type":"Feature","geometry":{"type":"Point","coordinates":[78.77702,30.60904]},"properties":{"Id":0,"NAMES":"HEP-Existing"}},
{"type":"Feature","geometry":{"type":"Point","coordinates":[78.50794,30.57747]},"properties":{"Id":0,"NAMES":"HEP-Existing"}},
{"type":"Feature","geometry":{"type":"Point","coordinates":[79.03888,30.30914]},"properties":{"Id":0,"NAMES":"HEP-Existing"}},
{"type":"Feature","geometry":{"type":"Point","coordinates":[78.66701,30.28941]},"properties":{"Id":0,"NAMES":"HEP-Existing"}},
{"type":"Feature","geometry":{"type":"Point","coordinates":[78.43402,30.24691]},"properties":{"Id":0,"NAMES":"HEP-Existing"}},
{"type":"Feature","geometry":{"type":"Point","coordinates":[78.90076,30.0845]},"properties":{"Id":0,"NAMES":"HEP-Existing"}},
{"type":"Feature","geometry":{"type":"Point","coordinates":[79.52016,30.82761]},"properties":{"Id":0,"NAMES":"HEP-Existing"}},
{"type":"Feature","geometry":{"type":"Point","coordinates":[79.03812,29.48495]},"properties":{"Id":0,"NAMES":"HEP-Existing"}},
{"type":"Feature","geometry":{"type":"Point","coordinates":[80.12977,29.13739]},"properties":{"Id":0,"NAMES":"HEP-Existing"}},
{"type":"Feature","geometry":{"type":"Point","coordinates":[78.29131,29.8693]},"properties":{"Id":0,"NAMES":"HEP-Existing"}},
{"type":"Feature","geometry":{"type":"Point","coordinates":[80.01106,28.89071]},"properties":{"Id":0,"NAMES":"HEP-Existing"}},
{"type":"Feature","geometry":{"type":"Point","coordinates":[77.99948,31.11381]},"properties":{"Id":0,"NAMES":"HEP-P"}},
{"type":"Feature","geometry":{"type":"Point","coordinates":[78.07626,31.06003]},"properties":{"Id":0,"NAMES":"HEP-P"}},
{"type":"Feature","geometry":{"type":"Point","coordinates":[79.76793,30.92388]},"properties":{"Id":0,"NAMES":"HEP-P"}},
{"type":"Feature","geometry":{"type":"Point","coordinates":[79.86383,30.77967]},"properties":{"Id":0,"NAMES":"HEP-P"}},
{"type":"Feature","geometry":{"type":"Point","coordinates":[79.87176,30.664]},"properties":{"Id":0,"NAMES":"HEP-P"}},
{"type":"Feature","geometry":{"type":"Point","coordinates":[78.79508,30.50121]},"properties":{"Id":0,"NAMES":"HEP-P"}},
{"type":"Feature","geometry":{"type":"Point","coordinates":[77.93318,30.96646]},"properties":{"Id":0,"NAMES":"HEP-P"}},
{"type":"Feature","geometry":{"type":"Point","coordinates":[78.24353,30.75311]},"properties":{"Id":0,"NAMES":"220 KV S/s - P"}},
{"type":"Feature","geometry":{"type":"Point","coordinates":[78.71103,30.55959]},"properties":{"Id":0,"NAMES":"220 KV S/s - P"}},
{"type":"Feature","geometry":{"type":"Point","coordinates":[79.04647,30.46396]},"properties":{"Id":0,"NAMES":"220 KV S/s - P"}},
{"type":"Feature","geometry":{"type":"Point","coordinates":[80.21432,30.22103]},"properties":{"Id":0,"NAMES":"220 KV S/s - P"}},
{"type":"Feature","geometry":{"type":"Point","coordinates":[80.20589,29.97121]},"properties":{"Id":0,"NAMES":"220 KV S/s - P"}},
{"type":"Feature","geometry":{"type":"Point","coordinates":[79.96896,29.19878]},"properties":{"Id":0,"NAMES":"220 KV S/s - P"}},
{"type":"Feature","geometry":{"type":"Point","coordinates":[79.81815,28.89861]},"properties":{"Id":0,"NAMES":"220 KV S/s - P"}},
{"type":"Feature","geometry":{"type":"Point","coordinates":[77.78931,29.98508]},"properties":{"Id":0,"NAMES":"220 KV S/s - P"}},
{"type":"Feature","geometry":{"type":"Point","coordinates":[77.81604,29.7146]},"properties":{"Id":0,"NAMES":"220 KV S/s - P"}},
{"type":"Feature","geometry":{"type":"Point","coordinates":[78.52926,30.10233]},"properties":{"Id":0,"NAMES":"HEP-P"}},
{"type":"Feature","geometry":{"type":"Point","coordinates":[77.95443,30.36463]},"properties":{"Id":0,"NAMES":"220 KV S/s"}},
{"type":"Feature","geometry":{"type":"Point","coordinates":[78.21474,30.25289]},"properties":{"Id":0,"NAMES":"220 KV S/s"}},
{"type":"Feature","geometry":{"type":"Point","coordinates":[77.94864,30.07306]},"properties":{"Id":0,"NAMES":"220 KV S/s"}},
{"type":"Feature","geometry":{"type":"Point","coordinates":[78.05559,29.97967]},"properties":{"Id":0,"NAMES":"220 KV S/s"}},
{"type":"Feature","geometry":{"type":"Point","coordinates":[77.88161,29.91058]},"properties":{"Id":0,"NAMES":"220 KV S/s"}},
{"type":"Feature","geometry":{"type":"Point","coordinates":[78.42221,30.41985]},"properties":{"Id":0,"NAMES":"220 KV S/s"}},
{"type":"Feature","geometry":{"type":"Point","coordinates":[80.70814,30.10006]},"properties":{"Id":0,"NAMES":"220 KV S/s"}},
{"type":"Feature","geometry":{"type":"Point","coordinates":[79.44876,29.3882]},"properties":{"Id":0,"NAMES":"220 KV S/s"}},
{"type":"Feature","geometry":{"type":"Point","coordinates":[79.37551,29.20706]},"properties":{"Id":0,"NAMES":"220 KV S/s"}},
{"type":"Feature","geometry":{"type":"Point","coordinates":[79.14778,29.12775]},"properties":{"Id":0,"NAMES":"220 KV S/s"}},
{"type":"Feature","geometry":{"type":"Point","coordinates":[79.87934,28.97875]},"properties":{"Id":0,"NAMES":"220 KV S/s"}},
{"type":"Feature","geometry":{"type":"Point","coordinates":[79.36683,29.10176]},"properties":{"Id":0,"NAMES":"220 KV S/s"}},
{"type":"Feature","geometry":{"type":"Point","coordinates":[79.37922,29.00461]},"properties":{"Id":0,"NAMES":"400 KV S/s-P"}},
{"type":"Feature","geometry":{"type":"Point","coordinates":[79.68493,30.61753]},"properties":{"Id":0,"NAMES":"400 KV S/s-P"}},
{"type":"Feature","geometry":{"type":"Point","coordinates":[79.26239,30.23894]},"properties":{"Id":0,"NAMES":"132 KV S/s"}},
{"type":"Feature","geometry":{"type":"Point","coordinates":[78.87533,30.20251]},"properties":{"Id":0,"NAMES":"132 KV S/s"}},
{"type":"Feature","geometry":{"type":"Point","coordinates":[78.17325,30.23751]},"properties":{"Id":0,"NAMES":"132 KV S/s"}},
{"type":"Feature","geometry":{"type":"Point","coordinates":[78.06025,30.1991]},"properties":{"Id":0,"NAMES":"132 KV S/s"}},
{"type":"Feature","geometry":{"type":"Point","coordinates":[78.04431,30.35164]},"properties":{"Id":0,"NAMES":"132 KV S/s"}},
{"type":"Feature","geometry":{"type":"Point","coordinates":[78.15118,30.08326]},"properties":{"Id":0,"NAMES":"132 KV S/s"}},
{"type":"Feature","geometry":{"type":"Point","coordinates":[77.87249,30.09669]},"properties":{"Id":0,"NAMES":"132 KV S/s"}},
{"type":"Feature","geometry":{"type":"Point","coordinates":[77.88601,29.97313]},"properties":{"Id":0,"NAMES":"132 KV S/s"}},
{"type":"Feature","geometry":{"type":"Point","coordinates":[77.87762,29.75724]},"properties":{"Id":0,"NAMES":"132 KV S/s"}},
{"type":"Feature","geometry":{"type":"Point","coordinates":[78.10215,29.69737]},"properties":{"Id":0,"NAMES":"132 KV S/s"}},
{"type":"Feature","geometry":{"type":"Point","coordinates":[78.26743,29.80526]},"properties":{"Id":0,"NAMES":"132 KV S/s"}},
{"type":"Feature","geometry":{"type":"Point","coordinates":[78.24239,29.91336]},"properties":{"Id":0,"NAMES":"132 KV S/s"}},
{"type":"Feature","geometry":{"type":"Point","coordinates":[78.21279,29.87807]},"properties":{"Id":0,"NAMES":"132 KV S/s"}},
{"type":"Feature","geometry":{"type":"Point","coordinates":[78.42567,29.87693]},"properties":{"Id":0,"NAMES":"132 KV S/s"}},
{"type":"Feature","geometry":{"type":"Point","coordinates":[78.74897,29.88832]},"properties":{"Id":0,"NAMES":"132 KV S/s"}},
{"type":"Feature","geometry":{"type":"Point","coordinates":[78.76729,29.66025]},"properties":{"Id":0,"NAMES":"132 KV S/s"}},
{"type":"Feature","geometry":{"type":"Point","coordinates":[79.2774,29.3926]},"properties":{"Id":0,"NAMES":"132 KV S/s"}},
{"type":"Feature","geometry":{"type":"Point","coordinates":[79.58683,29.45004]},"properties":{"Id":0,"NAMES":"132 KV S/s"}},
{"type":"Feature","geometry":{"type":"Point","coordinates":[79.58796,29.39312]},"properties":{"Id":0,"NAMES":"132 KV S/s"}},
{"type":"Feature","geometry":{"type":"Point","coordinates":[79.27694,29.24386]},"properties":{"Id":0,"NAMES":"132 KV S/s"}},
{"type":"Feature","geometry":{"type":"Point","coordinates":[79.22809,29.09485]},"properties":{"Id":0,"NAMES":"132 KV S/s"}},
{"type":"Feature","geometry":{"type":"Point","coordinates":[79.61406,28.9142]},"properties":{"Id":0,"NAMES":"132 KV S/s"}},
{"type":"Feature","geometry":{"type":"Point","coordinates":[79.75301,28.97528]},"properties":{"Id":0,"NAMES":"132 KV S/s"}},
{"type":"Feature","geometry":{"type":"Point","coordinates":[79.78099,28.91318]},"properties":{"Id":0,"NAMES":"132 KV S/s"}},
{"type":"Feature","geometry":{"type":"Point","coordinates":[80.22596,29.28142]},"properties":{"Id":0,"NAMES":"132 KV S/s"}},
{"type":"Feature","geometry":{"type":"Point","coordinates":[80.21303,29.66287]},"properties":{"Id":0,"NAMES":"132 KV S/s"}},
{"type":"Feature","geometry":{"type":"Point","coordinates":[79.83417,29.63519]},"properties":{"Id":0,"NAMES":"132 KV S/s"}},
{"type":"Feature","geometry":{"type":"Point","coordinates":[79.80576,29.83044]},"properties":{"Id":0,"NAMES":"132 KV S/s"}},
{"type":"Feature","geometry":{"type":"Point","coordinates":[79.63892,29.71751]},"properties":{"Id":0,"NAMES":"132 KV S/s"}},
{"type":"Feature","geometry":{"type":"Point","coordinates":[79.39514,29.05933]},"properties":{"Id":0,"NAMES":"132 KV S/s"}},
{"type":"Feature","geometry":{"type":"Point","coordinates":[77.81489,30.73642]},"properties":{"Id":0,"NAMES":"220 KV S/s - P"}},
{"type":"Feature","geometry":{"type":"Point","coordinates":[78.80134,30.15584]},"properties":{"Id":0,"NAMES":"400 KV S/s"}},
{"type":"Feature","geometry":{"type":"Point","coordinates":[78.17008,29.92932]},"properties":{"Id":0,"NAMES":"400 KV S/s"}},
{"type":"Feature","geometry":{"type":"Point","coordinates":[78.23345,30.0794]},"properties":{"Id":0,"NAMES":"400 KV S/s"}},
{"type":"Feature","geometry":{"type":"Point","coordinates":[79.18657,29.20916]},"properties":{"Id":0,"NAMES":"400 KV S/s"}},
{"type":"Feature","geometry":{"type":"Point","coordinates":[79.67334,29.34303]},"properties":{"Id":0,"NAMES":"132 KV S/s-P"}},
{"type":"Feature","geometry":{"type":"Point","coordinates":[79.9114,28.92993]},"properties":{"Id":0,"NAMES":"132 KV S/s-P"}},
{"type":"Feature","geometry":{"type":"Point","coordinates":[78.13006,30.16966]},"properties":{"Id":0,"NAMES":"132 KV S/s-P"}},
{"type":"Feature","geometry":{"type":"Point","coordinates":[77.81368,29.92429]},"properties":{"Id":0,"NAMES":"Generator"}},
{"type":"Feature","geometry":{"type":"Point","coordinates":[78.1347,29.75217]},"properties":{"Id":0,"NAMES":"Generator"}},
{"type":"Feature","geometry":{"type":"Point","coordinates":[79.10324,29.17705]},"properties":{"Id":0,"NAMES":"Generator"}},
{"type":"Feature","geometry":{"type":"Point","coordinates":[79.18998,29.14973]},"properties":{"Id":0,"NAMES":"Generator"}}
]}