{"type":"FeatureCollection", "features": [
{"type":"Feature","geometry":{"type":"Polygon","coordinates":[[[79.80694,29.0708],[79.81012,29.07068],[79.81104,29.07085],[79.80694,29.0708]]]},"properties":{"AREA":0.00547289752833}},
{"type":"Feature","geometry":{"type":"Polygon","coordinates":[[[79.98291,29.0494],[79.9253,29.06704],[79.83869,29.07114],[79.8144,29.07088],[79.82312,29.06708],[79.84509,29.06531],[79.87207,29.05487],[79.92371,29.05371],[79.95868,29.04773],[79.98291,29.0494]]]},"properties":{"AREA":17.5540514327}},
{"type":"Feature","geometry":{"type":"Polygon","coordinates":[[[79.8144,29.07088],[79.81348,29.07129],[79.81104,29.07085],[79.8144,29.07088]]]},"properties":{"AREA":0.00757487166725}},
{"type":"Feature","geometry":{"type":"Polygon","coordinates":[[[79.79419,29.09816],[79.79248,29.10248],[79.78967,29.10309],[79.78928,29.10152],[79.79243,29.09815],[79.79419,29.09816]]]},"properties":{"AREA":0.14242127689}},
{"type":"Feature","geometry":{"type":"Polygon","coordinates":[[[79.78928,29.10152],[79.78219,29.10911],[79.78369,29.10327],[79.78928,29.10152]]]},"properties":{"AREA":0.203571551738}},
{"type":"Feature","geometry":{"type":"Polygon","coordinates":[[[79.78219,29.10911],[79.78271,29.1123],[79.77832,29.11627],[79.77504,29.11676],[79.78219,29.10911]]]},"properties":{"AREA":0.203937981745}},
{"type":"Feature","geometry":{"type":"Polygon","coordinates":[[[80.02738,29.10968],[80.02808,29.1153],[80.02385,29.11758],[80.02738,29.10968]]]},"properties":{"AREA":0.11777993467}},
{"type":"Feature","geometry":{"type":"Polygon","coordinates":[[[79.77504,29.11676],[79.77214,29.11985],[79.77252,29.11713],[79.77504,29.11676]]]},"properties":{"AREA":0.0362186104221}},
{"type":"Feature","geometry":{"type":"Polygon","coordinates":[[[79.77214,29.11985],[79.7735,29.12433],[79.77692,29.12628],[79.77771,29.13049],[79.77032,29.12848],[79.76727,29.12506],[79.77214,29.11985]]]},"properties":{"AREA":0.586300344805}},
{"type":"Feature","geometry":{"type":"Polygon","coordinates":[[[80.02385,29.11758],[80.01643,29.13415],[80.01296,29.13856],[80.00589,29.14203],[79.9935,29.14278],[80.00067,29.13892],[80.01093,29.13831],[80.01233,29.13251],[80.00812,29.12872],[80.00653,29.12512],[80.00769,29.1225],[80.01672,29.12708],[80.01892,29.12488],[80.01971,29.1189],[80.02385,29.11758]]]},"properties":{"AREA":1.81822196092}},
{"type":"Feature","geometry":{"type":"Polygon","coordinates":[[[79.9935,29.14278],[79.99091,29.14313],[79.99089,29.14287],[79.9935,29.14278]]]},"properties":{"AREA":0.00357160344024}},
{"type":"Feature","geometry":{"type":"Polygon","coordinates":[[[79.99089,29.14287],[79.96357,29.14387],[79.96631,29.14288],[79.9679,29.13953],[79.96808,29.12848],[79.96948,29.12488],[79.97949,29.1181],[79.98328,29.12128],[79.9845,29.12872],[79.98712,29.13031],[79.99011,29.12988],[79.99089,29.14287]]]},"properties":{"AREA":4.71686933688}},
{"type":"Feature","geometry":{"type":"Polygon","coordinates":[[[79.84569,29.14818],[79.84029,29.14838],[79.81866,29.15551],[79.81409,29.14288],[79.83472,29.14587],[79.84271,29.1441],[79.84569,29.14818]]]},"properties":{"AREA":2.05267793161}},
{"type":"Feature","geometry":{"type":"Polygon","coordinates":[[[79.76727,29.12506],[79.76012,29.13271],[79.75188,29.14913],[79.74606,29.15408],[79.71718,29.16548],[79.6911,29.16241],[79.6911,29.1593],[79.6933,29.15668],[79.70648,29.14929],[79.71448,29.15692],[79.71667,29.15088],[79.71912,29.15228],[79.72089,29.14948],[79.72772,29.14648],[79.74109,29.14569],[79.74628,29.14069],[79.74689,29.13489],[79.7605,29.12848],[79.76068,29.12408],[79.76611,29.11951],[79.76727,29.12506]]]},"properties":{"AREA":9.67815298075}},
{"type":"Feature","geometry":{"type":"Polygon","coordinates":[[[79.81866,29.15551],[79.81952,29.1601],[79.81329,29.15948],[79.81171,29.16272],[79.80469,29.16589],[79.79272,29.1673],[79.78967,29.17029],[79.78715,29.16896],[79.7999,29.16171],[79.81866,29.15551]]]},"properties":{"AREA":1.35455049673}},
{"type":"Feature","geometry":{"type":"Polygon","coordinates":[[[79.96357,29.14387],[79.95068,29.14691],[79.9389,29.1449],[79.92792,29.14893],[79.92493,29.15149],[79.91669,29.1507],[79.91449,29.1543],[79.91571,29.15808],[79.91351,29.16528],[79.89893,29.16571],[79.90051,29.1709],[79.89948,29.17511],[79.89709,29.17731],[79.89471,29.17468],[79.88867,29.17432],[79.88629,29.1701],[79.87152,29.17108],[79.87347,29.16669],[79.87128,29.16571],[79.86731,29.16852],[79.86371,29.16711],[79.85968,29.16351],[79.8595,29.15833],[79.85071,29.15912],[79.85132,29.15033],[79.84569,29.14818],[79.96357,29.14387]]]},"properties":{"AREA":15.9795137028}},
{"type":"Feature","geometry":{"type":"Polygon","coordinates":[[[79.79419,29.09816],[79.8398,29.09862],[79.9302,29.09432],[79.9896,29.07629],[80.01003,29.07329],[79.99121,29.11535],[79.83233,29.12165],[79.78518,29.13735],[79.69268,29.19066],[79.68811,29.18768],[79.68268,29.18768],[79.6759,29.18469],[79.67548,29.18109],[79.67651,29.17853],[79.68909,29.1673],[79.69232,29.16608],[79.6911,29.16241],[79.71718,29.16548],[79.74606,29.15408],[79.75188,29.14913],[79.76012,29.13271],[79.76727,29.12506],[79.77032,29.12848],[79.77771,29.13049],[79.77692,29.12628],[79.7735,29.12433],[79.77214,29.11985],[79.77504,29.11676],[79.77832,29.11627],[79.78271,29.1123],[79.78219,29.10911],[79.78928,29.10152],[79.78967,29.10309],[79.79248,29.10248],[79.79419,29.09816]]]},"properties":{"AREA":81.5842341159}},
{"type":"Feature","geometry":{"type":"Polygon","coordinates":[[[79.78715,29.16896],[79.78351,29.16772],[79.77148,29.16772],[79.7691,29.16968],[79.76569,29.16772],[79.75952,29.16791],[79.74988,29.1709],[79.7475,29.17371],[79.7403,29.17389],[79.74292,29.1767],[79.73071,29.18213],[79.69733,29.18927],[79.69409,29.19208],[79.69268,29.19066],[79.78518,29.13735],[79.83233,29.12165],[79.99121,29.11535],[80.01003,29.07329],[79.9896,29.07629],[79.9302,29.09432],[79.8398,29.09862],[79.79419,29.09816],[79.79791,29.08728],[79.8017,29.08569],[79.79749,29.07709],[79.80694,29.0708],[79.81104,29.07085],[79.81348,29.07129],[79.8144,29.07088],[79.83869,29.07114],[79.9253,29.06704],[79.98291,29.0494],[79.99432,29.05133],[80.01392,29.07233],[80.01727,29.08612],[80.01752,29.09912],[80.02612,29.09589],[80.02832,29.10632],[80.02738,29.10968],[80.02385,29.11758],[80.01971,29.1189],[80.01892,29.12488],[80.01672,29.12708],[80.00769,29.1225],[80.00653,29.12512],[80.00812,29.12872],[80.01233,29.13251],[80.01093,29.13831],[80.00067,29.13892],[79.9935,29.14278],[79.99089,29.14287],[79.99011,29.12988],[79.98712,29.13031],[79.9845,29.12872],[79.98328,29.12128],[79.97949,29.1181],[79.96948,29.12488],[79.96808,29.12848],[79.9679,29.13953],[79.96631,29.14288],[79.96357,29.14387],[79.84569,29.14818],[79.84271,29.1441],[79.83472,29.14587],[79.81409,29.14288],[79.81866,29.15551],[79.7999,29.16171],[79.78715,29.16896]]]},"properties":{"AREA":146.332743416}},
{"type":"Feature","geometry":{"type":"Polygon","coordinates":[[[79.69268,29.19066],[79.6873,29.1959],[79.67703,29.21899],[79.6276,29.24159],[79.59076,29.27237],[79.57119,29.27859],[79.57413,29.27309],[79.57415,29.26485],[79.58026,29.25977],[79.58306,29.255],[79.58247,29.24463],[79.58514,29.2399],[79.59302,29.23597],[79.59682,29.23177],[79.60058,29.21558],[79.63261,29.19066],[79.65418,29.16943],[79.67412,29.1629],[79.6911,29.16241],[79.69232,29.16608],[79.68909,29.1673],[79.67651,29.17853],[79.67548,29.18109],[79.6759,29.18469],[79.68268,29.18768],[79.68811,29.18768],[79.69268,29.19066]]]},"properties":{"AREA":55.6398750614}},
{"type":"Feature","geometry":{"type":"Polygon","coordinates":[[[79.26143,29.34266],[79.24053,29.36317],[79.23771,29.34565],[79.22975,29.33767],[79.2403,29.34207],[79.24603,29.3469],[79.24883,29.34691],[79.25777,29.33936],[79.26143,29.34266]]]},"properties":{"AREA":2.52428421809}},
{"type":"Feature","geometry":{"type":"Polygon","coordinates":[[[79.78715,29.16896],[79.71409,29.21112],[79.70389,29.23424],[79.69885,29.23982],[79.64532,29.26442],[79.60857,29.29534],[79.57925,29.30527],[79.5641,29.31884],[79.55104,29.32052],[79.54122,29.31845],[79.53253,29.31466],[79.52292,29.30774],[79.51085,29.3064],[79.49909,29.30102],[79.48748,29.30433],[79.46108,29.30571],[79.45465,29.30303],[79.44298,29.29376],[79.37922,29.31527],[79.31794,29.33092],[79.30581,29.34429],[79.27841,29.3669],[79.27284,29.36031],[79.27403,29.35552],[79.27207,29.35294],[79.27204,29.34958],[79.26143,29.34266],[79.28289,29.32544],[79.29725,29.30961],[79.30217,29.30643],[79.36937,29.28918],[79.44443,29.26363],[79.45153,29.26314],[79.45728,29.26495],[79.4699,29.27808],[79.48229,29.27714],[79.49669,29.27294],[79.51215,29.27569],[79.52315,29.27415],[79.52728,29.27224],[79.53431,29.26612],[79.5415,29.26356],[79.54304,29.25513],[79.55087,29.24625],[79.55159,29.23685],[79.56039,29.22195],[79.56846,29.21651],[79.5713,29.2039],[79.5741,29.19913],[79.5886,29.1892],[79.60156,29.17704],[79.61105,29.17063],[79.63494,29.14726],[79.66824,29.13571],[79.69521,29.13488],[79.71231,29.13763],[79.72644,29.13183],[79.73375,29.11766],[79.77497,29.07384],[79.78331,29.07066],[79.80694,29.0708],[79.79749,29.07709],[79.8017,29.08569],[79.79791,29.08728],[79.79419,29.09816],[79.79243,29.09815],[79.78928,29.10152],[79.78369,29.10327],[79.78219,29.10911],[79.77504,29.11676],[79.77252,29.11713],[79.77214,29.11985],[79.76727,29.12506],[79.76611,29.11951],[79.76068,29.12408],[79.7605,29.12848],[79.74689,29.13489],[79.74628,29.14069],[79.74109,29.14569],[79.72772,29.14648],[79.72089,29.14948],[79.71912,29.15228],[79.71667,29.15088],[79.71448,29.15692],[79.70648,29.14929],[79.6933,29.15668],[79.6911,29.1593],[79.6911,29.16241],[79.67412,29.1629],[79.65418,29.16943],[79.63261,29.19066],[79.60058,29.21558],[79.59682,29.23177],[79.59302,29.23597],[79.58514,29.2399],[79.58247,29.24463],[79.58306,29.255],[79.58026,29.25977],[79.57415,29.26485],[79.57413,29.27309],[79.57119,29.27859],[79.59076,29.27237],[79.6276,29.24159],[79.67703,29.21899],[79.6873,29.1959],[79.69268,29.19066],[79.69409,29.19208],[79.69733,29.18927],[79.73071,29.18213],[79.74292,29.1767],[79.7403,29.17389],[79.7475,29.17371],[79.74988,29.1709],[79.75952,29.16791],[79.76569,29.16772],[79.7691,29.16968],[79.77148,29.16772],[79.78351,29.16772],[79.78715,29.16896]]]},"properties":{"AREA":273.881096217}},
{"type":"Feature","geometry":{"type":"Polygon","coordinates":[[[79.27841,29.3669],[79.28266,29.373],[79.27803,29.3718],[79.27093,29.3738],[79.27841,29.3669]]]},"properties":{"AREA":0.356632925828}},
{"type":"Feature","geometry":{"type":"Polygon","coordinates":[[[79.26557,29.38277],[79.26337,29.38129],[79.26527,29.38044],[79.2657,29.37342],[79.26776,29.37228],[79.27093,29.3738],[79.26557,29.38277]]]},"properties":{"AREA":0.273965399654}},
{"type":"Feature","geometry":{"type":"Polygon","coordinates":[[[79.26557,29.38277],[79.26771,29.38215],[79.26474,29.3847],[79.26557,29.38277]]]},"properties":{"AREA":0.0247814611865}},
{"type":"Feature","geometry":{"type":"Polygon","coordinates":[[[79.26474,29.3847],[79.26347,29.38762],[79.26355,29.38571],[79.26474,29.3847]]]},"properties":{"AREA":0.0134615275683}},
{"type":"Feature","geometry":{"type":"Polygon","coordinates":[[[79.26347,29.38762],[79.26307,29.38856],[79.25492,29.38104],[79.25521,29.37861],[79.25131,29.37238],[79.24471,29.36983],[79.23938,29.36578],[79.24057,29.36578],[79.24053,29.36317],[79.26143,29.34266],[79.27204,29.34958],[79.27207,29.35294],[79.27403,29.35552],[79.27284,29.36031],[79.27841,29.3669],[79.27093,29.3738],[79.26776,29.37228],[79.2657,29.37342],[79.26527,29.38044],[79.26337,29.38129],[79.26557,29.38277],[79.26474,29.3847],[79.26355,29.38571],[79.26347,29.38762]]]},"properties":{"AREA":9.35964016592}},
{"type":"Feature","geometry":{"type":"Polygon","coordinates":[[[79.26347,29.38762],[79.26366,29.38846],[79.26094,29.39202],[79.25699,29.38494],[79.23765,29.40223],[79.23649,29.40489],[79.22861,29.40825],[79.2182,29.40606],[79.19693,29.41324],[79.18764,29.41021],[79.18707,29.40759],[79.1854,29.4069],[79.1783,29.40602],[79.17526,29.40282],[79.17695,29.39661],[79.17537,29.39286],[79.16769,29.39387],[79.16189,29.38895],[79.15516,29.37827],[79.13674,29.38979],[79.14058,29.37638],[79.14638,29.36747],[79.14745,29.3619],[79.14609,29.35877],[79.15361,29.34707],[79.15706,29.34906],[79.15972,29.35386],[79.1676,29.35897],[79.1676,29.36242],[79.16926,29.36072],[79.18302,29.36229],[79.18355,29.36852],[79.18983,29.36847],[79.19361,29.37098],[79.19616,29.36267],[79.1954,29.35841],[79.1997,29.36037],[79.2055,29.36079],[79.21369,29.35987],[79.21448,29.35804],[79.2254,29.35716],[79.23426,29.36026],[79.23938,29.36578],[79.24471,29.36983],[79.25131,29.37238],[79.25521,29.37861],[79.25492,29.38104],[79.26307,29.38856],[79.26347,29.38762]]]},"properties":{"AREA":47.0173841613}},
{"type":"Feature","geometry":{"type":"Polygon","coordinates":[[[79.2786,29.55093],[79.26818,29.54436],[79.25734,29.54418],[79.25189,29.53957],[79.25008,29.54185],[79.24624,29.54207],[79.23966,29.53282],[79.24272,29.53183],[79.24018,29.52896],[79.25042,29.52044],[79.25209,29.52423],[79.25162,29.53045],[79.25552,29.53332],[79.2558,29.52899],[79.26285,29.53126],[79.26417,29.52932],[79.27361,29.5248],[79.27146,29.52159],[79.27203,29.51981],[79.27544,29.51931],[79.27608,29.51801],[79.27799,29.51972],[79.27829,29.51618],[79.28641,29.51193],[79.28966,29.50777],[79.28941,29.50549],[79.29177,29.50521],[79.29001,29.49902],[79.2913,29.48853],[79.29879,29.481],[79.31098,29.48067],[79.31041,29.47813],[79.3148,29.48005],[79.33142,29.47555],[79.3325,29.47695],[79.33577,29.47404],[79.34294,29.47534],[79.34918,29.46995],[79.34857,29.47684],[79.35111,29.47906],[79.35154,29.48546],[79.35456,29.48405],[79.35736,29.47954],[79.35657,29.47834],[79.3541,29.47928],[79.35491,29.47732],[79.35195,29.47803],[79.35016,29.47514],[79.35089,29.47063],[79.35385,29.46767],[79.36086,29.46616],[79.35683,29.47263],[79.35838,29.4744],[79.36276,29.46869],[79.38024,29.46508],[79.38445,29.4627],[79.39712,29.45941],[79.39745,29.44991],[79.40011,29.44981],[79.4007,29.45508],[79.40485,29.45781],[79.41105,29.45687],[79.41823,29.45275],[79.41243,29.4509],[79.41717,29.44736],[79.41909,29.44224],[79.41838,29.43735],[79.41478,29.43602],[79.41292,29.43837],[79.40693,29.43657],[79.4022,29.43784],[79.39993,29.43587],[79.39356,29.43497],[79.39184,29.437],[79.38692,29.43839],[79.38785,29.42857],[79.38936,29.42804],[79.39399,29.43036],[79.3916,29.43131],[79.39402,29.43351],[79.39539,29.43311],[79.39479,29.43096],[79.39736,29.43258],[79.40666,29.43178],[79.40962,29.43364],[79.41193,29.42561],[79.40701,29.41603],[79.40279,29.41128],[79.41178,29.39989],[79.41579,29.39872],[79.41535,29.39343],[79.42572,29.38503],[79.42861,29.38052],[79.42757,29.3909],[79.43902,29.39591],[79.4396,29.40021],[79.44167,29.40241],[79.44504,29.40378],[79.45341,29.40046],[79.4554,29.402],[79.46447,29.40343],[79.46865,29.40654],[79.46868,29.40899],[79.47192,29.4124],[79.46842,29.41445],[79.46617,29.41875],[79.46714,29.42151],[79.46375,29.42047],[79.46241,29.42242],[79.46089,29.42627],[79.46102,29.43141],[79.46268,29.43266],[79.46168,29.43388],[79.45744,29.43527],[79.44378,29.43571],[79.44716,29.43941],[79.452,29.43715],[79.45051,29.44033],[79.45193,29.44449],[79.4673,29.44769],[79.46941,29.45025],[79.46244,29.45025],[79.46078,29.45173],[79.45912,29.45404],[79.46357,29.45757],[79.45998,29.46075],[79.45654,29.4617],[79.45636,29.46359],[79.45119,29.45798],[79.44665,29.45861],[79.45286,29.46581],[79.45202,29.46804],[79.45486,29.46917],[79.45871,29.46853],[79.45802,29.47219],[79.45232,29.4726],[79.45227,29.47083],[79.44964,29.46993],[79.44738,29.46619],[79.4406,29.46083],[79.43725,29.45873],[79.4342,29.45919],[79.43919,29.46751],[79.44211,29.467],[79.44475,29.46927],[79.44426,29.47299],[79.42774,29.47283],[79.4284,29.47493],[79.42403,29.47717],[79.42251,29.47394],[79.41742,29.4722],[79.41116,29.47248],[79.40997,29.47432],[79.41151,29.47666],[79.40828,29.47912],[79.41201,29.48393],[79.4084,29.48819],[79.40862,29.49109],[79.40636,29.49249],[79.40755,29.49397],[79.40202,29.49584],[79.39779,29.50083],[79.39706,29.49866],[79.39102,29.49855],[79.39021,29.50417],[79.38679,29.50492],[79.38438,29.50352],[79.38396,29.5054],[79.37541,29.50799],[79.37535,29.51507],[79.37401,29.51149],[79.37123,29.51297],[79.37107,29.51178],[79.36751,29.51191],[79.36919,29.51067],[79.36819,29.5095],[79.36395,29.5093],[79.35982,29.51594],[79.35775,29.51664],[79.3581,29.51475],[79.35612,29.51384],[79.35361,29.51768],[79.35638,29.51868],[79.35078,29.52137],[79.34915,29.52621],[79.34483,29.52395],[79.34228,29.51912],[79.33944,29.51981],[79.34085,29.5218],[79.33843,29.52282],[79.33931,29.52688],[79.33523,29.52996],[79.33161,29.52559],[79.32825,29.52461],[79.32021,29.51718],[79.31133,29.51737],[79.31289,29.52064],[79.3082,29.52713],[79.30404,29.54192],[79.29309,29.54382],[79.2916,29.54096],[79.28711,29.54796],[79.2786,29.55093]]]},"properties":{"AREA":111.272130274}},
{"type":"Feature","geometry":{"type":"Polygon","coordinates":[[[79.76576,29.67949],[79.76512,29.67064],[79.764,29.6706],[79.76319,29.67163],[79.76352,29.67328],[79.76026,29.66894],[79.7618,29.66798],[79.76276,29.66965],[79.77466,29.67448],[79.77629,29.67567],[79.77383,29.67856],[79.76984,29.67731],[79.76576,29.67949]]]},"properties":{"AREA":0.67891274675}},
{"type":"Feature","geometry":{"type":"Polygon","coordinates":[[[78.89335,29.64994],[78.88756,29.6494],[78.8801,29.65271],[78.87621,29.65199],[78.87177,29.65692],[78.84308,29.66557],[78.82648,29.66741],[78.82077,29.66614],[78.81407,29.66845],[78.80199,29.67286],[78.80317,29.67615],[78.79965,29.67788],[78.78924,29.67868],[78.78768,29.68183],[78.7766,29.68473],[78.75701,29.69833],[78.75125,29.69396],[78.7517,29.69199],[78.74872,29.69094],[78.75745,29.67466],[78.75815,29.67019],[78.75598,29.66833],[78.75507,29.66416],[78.75064,29.668],[78.75004,29.67036],[78.74262,29.67511],[78.73524,29.68337],[78.73187,29.68401],[78.7123,29.7007],[78.7035,29.70338],[78.69867,29.70983],[78.69331,29.71343],[78.68687,29.71031],[78.67806,29.71012],[78.67464,29.70702],[78.67023,29.70656],[78.66746,29.70387],[78.66479,29.70455],[78.66497,29.69921],[78.67077,29.69534],[78.67422,29.69019],[78.669,29.68575],[78.66598,29.68551],[78.66294,29.68867],[78.65528,29.68933],[78.65432,29.69234],[78.6488,29.69347],[78.63748,29.69283],[78.63177,29.68944],[78.62125,29.69071],[78.62035,29.68614],[78.60813,29.68265],[78.60915,29.67239],[78.59837,29.66991],[78.5975,29.66561],[78.59958,29.66345],[78.59992,29.66022],[78.59902,29.65212],[78.601,29.64879],[78.596,29.64077],[78.59663,29.63946],[78.60519,29.63753],[78.60911,29.63402],[78.61018,29.62951],[78.61285,29.62649],[78.61185,29.62155],[78.6065,29.61877],[78.61203,29.61904],[78.60736,29.61409],[78.61833,29.61438],[78.62403,29.62097],[78.63068,29.62249],[78.63665,29.61731],[78.6385,29.61769],[78.63911,29.61529],[78.64373,29.6144],[78.647,29.6109],[78.6476,29.60781],[78.6509,29.60647],[78.65173,29.59969],[78.66024,29.5967],[78.65891,29.59414],[78.66393,29.58996],[78.66592,29.58587],[78.66486,29.58213],[78.67033,29.57912],[78.67087,29.57432],[78.67803,29.57119],[78.67711,29.56543],[78.67953,29.55806],[78.68243,29.55616],[78.68865,29.56012],[78.69128,29.56032],[78.69627,29.55115],[78.70209,29.55018],[78.70179,29.54183],[78.71192,29.53827],[78.71024,29.53478],[78.71494,29.53147],[78.7197,29.53251],[78.7233,29.53131],[78.72719,29.52374],[78.73397,29.5206],[78.73646,29.51759],[78.74248,29.51596],[78.74411,29.51357],[78.74345,29.51104],[78.75024,29.50891],[78.75252,29.50695],[78.75339,29.50165],[78.7612,29.49703],[78.76116,29.50485],[78.7561,29.5128],[78.75962,29.51554],[78.76067,29.52174],[78.75866,29.5228],[78.75769,29.52735],[78.75915,29.53008],[78.75958,29.5426],[78.76686,29.54318],[78.76737,29.55425],[78.76932,29.55923],[78.76409,29.56286],[78.76142,29.56976],[78.76163,29.5764],[78.77654,29.58774],[78.79921,29.59446],[78.81214,29.59629],[78.82653,29.60191],[78.83077,29.60495],[78.83351,29.60289],[78.83775,29.60493],[78.83952,29.60726],[78.83845,29.60744],[78.83877,29.61632],[78.84745,29.62073],[78.8468,29.62537],[78.84996,29.62543],[78.85317,29.62324],[78.85388,29.62504],[78.8618,29.62566],[78.86314,29.6275],[78.86799,29.62844],[78.87126,29.63205],[78.87903,29.63394],[78.88248,29.63907],[78.89018,29.64392],[78.89335,29.64994]]]},"properties":{"AREA":300.058234516}},
{"type":"Feature","geometry":{"type":"Polygon","coordinates":[[[79.735,29.72116],[79.73296,29.72127],[79.73079,29.71663],[79.73145,29.70814],[79.72815,29.69928],[79.72239,29.69756],[79.71859,29.69919],[79.71566,29.69685],[79.70806,29.69479],[79.71107,29.68683],[79.71233,29.6878],[79.71784,29.68262],[79.71886,29.68367],[79.72464,29.68039],[79.72885,29.68325],[79.73525,29.68432],[79.74779,29.69697],[79.74355,29.68996],[79.74311,29.68475],[79.74448,29.68254],[79.74745,29.68355],[79.75037,29.68088],[79.75349,29.68616],[79.75452,29.68427],[79.76326,29.68446],[79.76434,29.69565],[79.76087,29.70089],[79.75436,29.70831],[79.75076,29.70881],[79.74893,29.71259],[79.73863,29.71706],[79.735,29.72116]]]},"properties":{"AREA":12.7456357809}},
{"type":"Feature","geometry":{"type":"Polygon","coordinates":[[[78.24087,29.78825],[78.24709,29.79607],[78.24646,29.80125],[78.24311,29.80821],[78.23975,29.79289],[78.23731,29.78838],[78.24087,29.78825]]]},"properties":{"AREA":0.871952666233}},
{"type":"Feature","geometry":{"type":"Polygon","coordinates":[[[78.24311,29.80821],[78.243,29.80955],[78.24223,29.81009],[78.24311,29.80821]]]},"properties":{"AREA":0.00459734534705}},
{"type":"Feature","geometry":{"type":"Polygon","coordinates":[[[78.24223,29.81009],[78.2425,29.81107],[78.23628,29.81423],[78.23749,29.82518],[78.2361,29.81378],[78.24223,29.81009]]]},"properties":{"AREA":0.103059771825}},
{"type":"Feature","geometry":{"type":"Polygon","coordinates":[[[78.23749,29.82518],[78.238,29.82625],[78.23756,29.82649],[78.23749,29.82518]]]},"properties":{"AREA":0.00421798570959}},
{"type":"Feature","geometry":{"type":"Polygon","coordinates":[[[78.23756,29.82649],[78.23757,29.82662],[78.23743,29.82649],[78.23756,29.82649]]]},"properties":{"AREA":0.0000945960681455}},
{"type":"Feature","geometry":{"type":"Polygon","coordinates":[[[78.23757,29.82662],[78.23784,29.82852],[78.22684,29.82997],[78.21436,29.83377],[78.19642,29.83538],[78.19042,29.83978],[78.18587,29.83809],[78.18274,29.83913],[78.17844,29.83486],[78.17777,29.82959],[78.18297,29.8201],[78.18823,29.81494],[78.18787,29.80855],[78.19512,29.80506],[78.19706,29.80117],[78.19515,29.79798],[78.18839,29.80295],[78.1818,29.80245],[78.1794,29.79953],[78.1776,29.78991],[78.18602,29.77613],[78.18884,29.77571],[78.19456,29.7788],[78.19622,29.77831],[78.20609,29.76234],[78.20174,29.75823],[78.20374,29.75099],[78.19925,29.74247],[78.20268,29.74252],[78.20753,29.74562],[78.20964,29.74933],[78.21315,29.74939],[78.21633,29.75723],[78.21401,29.76337],[78.21846,29.76553],[78.22074,29.76908],[78.22404,29.76802],[78.23397,29.77146],[78.23502,29.77471],[78.23915,29.77828],[78.23804,29.78174],[78.24087,29.78825],[78.23731,29.78838],[78.23975,29.79289],[78.24311,29.80821],[78.24223,29.81009],[78.2361,29.81378],[78.23749,29.82518],[78.23756,29.82649],[78.23743,29.82649],[78.23757,29.82662]]]},"properties":{"AREA":40.0091727275}},
{"type":"Feature","geometry":{"type":"Polygon","coordinates":[[[78.35248,29.85883],[78.35111,29.85904],[78.35081,29.859],[78.35248,29.85883]]]},"properties":{"AREA":0.00242942492159}},
{"type":"Feature","geometry":{"type":"Polygon","coordinates":[[[78.34476,29.85963],[78.34304,29.86035],[78.34165,29.86055],[78.34476,29.85963]]]},"properties":{"AREA":0.00489973167155}},
{"type":"Feature","geometry":{"type":"Polygon","coordinates":[[[78.30059,29.87352],[78.29247,29.88119],[78.28291,29.88673],[78.27684,29.89706],[78.27184,29.89792],[78.27028,29.87469],[78.25043,29.83764],[78.23757,29.82662],[78.23756,29.82649],[78.238,29.82625],[78.23749,29.82518],[78.23628,29.81423],[78.2425,29.81107],[78.24223,29.81009],[78.243,29.80955],[78.24311,29.80821],[78.24646,29.80125],[78.24709,29.79607],[78.24087,29.78825],[78.24612,29.7894],[78.25113,29.79249],[78.25441,29.79702],[78.25558,29.80323],[78.27018,29.81456],[78.27786,29.82319],[78.28254,29.83956],[78.30059,29.87352]]]},"properties":{"AREA":29.0402595703}},
{"type":"Feature","geometry":{"type":"Polygon","coordinates":[[[78.05373,30.46446],[78.05231,30.46074],[78.05359,30.46016],[78.05593,30.46106],[78.0559,30.46348],[78.05373,30.46446]]]},"properties":{"AREA":0.114646951845}},
{"type":"Feature","geometry":{"type":"Polygon","coordinates":[[[78.11744,30.47151],[78.10864,30.471],[78.11061,30.45848],[78.10921,30.45693],[78.1129,30.45794],[78.11168,30.4622],[78.11974,30.45933],[78.12509,30.46249],[78.12255,30.45597],[78.1264,30.45632],[78.13537,30.45212],[78.14397,30.45176],[78.15127,30.45584],[78.15429,30.45286],[78.16089,30.45101],[78.15981,30.44821],[78.16218,30.44446],[78.16485,30.44602],[78.16194,30.44909],[78.16156,30.45215],[78.15632,30.45547],[78.15069,30.45786],[78.14181,30.45622],[78.1374,30.45925],[78.13352,30.45969],[78.12595,30.46791],[78.11744,30.47151]]]},"properties":{"AREA":3.98152215093}},
{"type":"Feature","geometry":{"type":"Polygon","coordinates":[[[78.08571,30.47368],[78.0817,30.47331],[78.08219,30.46842],[78.08848,30.46535],[78.09186,30.45897],[78.08827,30.46676],[78.09229,30.46713],[78.08519,30.47244],[78.08571,30.47368]]]},"properties":{"AREA":0.551272166246}},
{"type":"Feature","geometry":{"type":"Polygon","coordinates":[[[78.06845,30.47391],[78.06476,30.47236],[78.06549,30.46875],[78.06858,30.46861],[78.06845,30.47391]]]},"properties":{"AREA":0.202974669766}},
{"type":"Feature","geometry":{"type":"Polygon","coordinates":[[[78.04281,30.4819],[78.04015,30.48162],[78.04108,30.4734],[78.03874,30.4708],[78.04033,30.47065],[78.04065,30.46776],[78.04392,30.46615],[78.04231,30.47479],[78.04723,30.47639],[78.04281,30.4819]]]},"properties":{"AREA":0.586683042336}},
{"type":"Feature","geometry":{"type":"Polygon","coordinates":[[[78.01609,30.4832],[78.00941,30.48326],[78.00644,30.48031],[78.00099,30.47956],[78.00099,30.47564],[78.00771,30.47406],[78.00699,30.47251],[78.00249,30.47357],[78.0081,30.47149],[78.01156,30.4761],[78.01592,30.47703],[78.0192,30.47379],[78.02629,30.47201],[78.02579,30.46993],[78.01943,30.47123],[78.01804,30.47352],[78.01739,30.47223],[78.01533,30.47236],[78.0168,30.47457],[78.01479,30.47354],[78.01599,30.47584],[78.01205,30.47484],[78.01093,30.4725],[78.02104,30.46842],[78.03151,30.46792],[78.03443,30.46394],[78.03234,30.47302],[78.02286,30.47534],[78.02436,30.47876],[78.01609,30.4832]]]},"properties":{"AREA":2.76356023749}},
{"type":"Feature","geometry":{"type":"Polygon","coordinates":[[[77.95895,30.48878],[77.95131,30.48282],[77.95314,30.47963],[77.95767,30.47821],[77.96285,30.47065],[77.97379,30.46948],[77.97688,30.47613],[77.97479,30.48459],[77.95895,30.48878]]]},"properties":{"AREA":3.34051091515}},
{"type":"Feature","geometry":{"type":"Polygon","coordinates":[[[79.98918,30.53662],[79.97402,30.53485],[79.96807,30.52924],[79.96657,30.52554],[79.96271,30.52303],[79.96366,30.51789],[79.94206,30.50364],[79.93595,30.50237],[79.92333,30.50191],[79.91659,30.50539],[79.91261,30.50972],[79.90267,30.51363],[79.8941,30.52271],[79.87192,30.51843],[79.86275,30.5137],[79.85485,30.51167],[79.8497,30.50067],[79.85135,30.49385],[79.84286,30.48515],[79.84144,30.47876],[79.83683,30.47701],[79.83488,30.47348],[79.83582,30.46899],[79.82894,30.43389],[79.7721,30.39763],[79.75004,30.38586],[79.74398,30.38416],[79.71914,30.36941],[79.71983,30.36716],[79.7168,30.36242],[79.71912,30.34877],[79.73448,30.34771],[79.75227,30.34314],[79.75449,30.33073],[79.7525,30.32579],[79.75422,30.31758],[79.75334,30.31232],[79.75803,30.30733],[79.76712,30.30369],[79.77154,30.30401],[79.77189,30.30102],[79.77609,30.29491],[79.78473,30.29931],[79.79407,30.29091],[79.79737,30.29],[79.80117,30.28455],[79.81515,30.28555],[79.82329,30.28939],[79.82766,30.28996],[79.83834,30.28745],[79.84544,30.28806],[79.85364,30.28606],[79.85531,30.28324],[79.8641,30.27955],[79.87391,30.27082],[79.88444,30.27406],[79.89976,30.27622],[79.9027,30.28124],[79.91469,30.28678],[79.92122,30.2879],[79.93253,30.29816],[79.94303,30.29892],[79.95658,30.29005],[79.97886,30.29908],[79.97906,30.30192],[79.98271,30.30522],[79.98419,30.31107],[79.98833,30.31537],[79.99083,30.32374],[79.99754,30.33509],[79.99782,30.35207],[80.00063,30.35739],[79.99862,30.3657],[80.00829,30.37014],[80.01878,30.38253],[80.03385,30.3933],[80.03252,30.39672],[80.03822,30.40476],[80.03887,30.40935],[80.03247,30.41252],[80.03176,30.41443],[80.03352,30.41918],[80.03241,30.42175],[80.03488,30.42443],[80.03583,30.42873],[80.03423,30.43332],[80.03806,30.43839],[80.03922,30.44353],[80.02123,30.44922],[80.02416,30.45509],[80.02112,30.46136],[80.01085,30.46932],[80.01061,30.47334],[80.01195,30.47531],[80.02015,30.47921],[80.02198,30.48186],[80.01748,30.48616],[80.01652,30.49286],[80.01095,30.49471],[80.01495,30.50022],[80.01116,30.50265],[80.00748,30.5191],[80.00018,30.52769],[80.00003,30.53149],[79.9983,30.53316],[79.98918,30.53662]]]},"properties":{"AREA":545.472798053}},
{"type":"Feature","geometry":{"type":"Polygon","coordinates":[[[79.54319,30.73706],[79.53857,30.73546],[79.53739,30.73255],[79.53465,30.73127],[79.53301,30.72642],[79.53349,30.72426],[79.53627,30.7235],[79.54141,30.71208],[79.55158,30.72593],[79.55343,30.73062],[79.54986,30.73429],[79.54679,30.73411],[79.54628,30.73619],[79.54319,30.73706]]]},"properties":{"AREA":2.97987074545}},
{"type":"Feature","geometry":{"type":"Polygon","coordinates":[[[79.65056,30.78633],[79.64302,30.78148],[79.64098,30.77024],[79.63288,30.76607],[79.62941,30.76681],[79.62556,30.76276],[79.62446,30.75782],[79.61717,30.7522],[79.60489,30.75194],[79.59969,30.75274],[79.59732,30.75488],[79.59167,30.75329],[79.58942,30.75608],[79.58743,30.75618],[79.58505,30.75542],[79.58299,30.75145],[79.58232,30.75425],[79.57955,30.75606],[79.57458,30.75312],[79.57444,30.74929],[79.57891,30.74785],[79.57439,30.74551],[79.5733,30.74289],[79.56629,30.74263],[79.56062,30.73914],[79.55737,30.73891],[79.62467,30.71135],[79.62698,30.70596],[79.63371,30.70287],[79.63731,30.69915],[79.64144,30.69943],[79.64514,30.70589],[79.65047,30.69717],[79.65153,30.70014],[79.65661,30.70467],[79.65801,30.70925],[79.66639,30.70808],[79.66978,30.70942],[79.66684,30.6997],[79.66732,30.69767],[79.67047,30.69655],[79.6691,30.69408],[79.67052,30.69394],[79.67261,30.69677],[79.67983,30.69552],[79.68218,30.69788],[79.69658,30.70342],[79.69712,30.70955],[79.703,30.71548],[79.70372,30.72375],[79.69331,30.73023],[79.68938,30.7401],[79.68687,30.74204],[79.69441,30.74676],[79.70136,30.74686],[79.70586,30.75299],[79.70239,30.75388],[79.68541,30.76526],[79.6801,30.76524],[79.67547,30.76785],[79.66935,30.76804],[79.66727,30.77043],[79.66909,30.77225],[79.67383,30.77338],[79.67333,30.77488],[79.66828,30.7783],[79.65312,30.78398],[79.65056,30.78633]]]},"properties":{"AREA":72.468130915}},
{"type":"Feature","geometry":{"type":"Polygon","coordinates":[[[79.27631,30.72417],[79.26875,30.7245],[79.26361,30.72185],[79.25727,30.72264],[79.25387,30.72848],[79.24569,30.73385],[79.24339,30.73266],[79.24039,30.73406],[79.20946,30.73751],[79.20105,30.73339],[79.199,30.74071],[79.19356,30.74253],[79.18416,30.75036],[79.17577,30.75184],[79.17062,30.75596],[79.16311,30.75614],[79.1598,30.75376],[79.152,30.75233],[79.14417,30.74862],[79.13353,30.75605],[79.13122,30.76694],[79.1282,30.76964],[79.11861,30.77293],[79.1143,30.7723],[79.09204,30.77596],[79.08459,30.78317],[79.07738,30.78745],[79.0687,30.79806],[79.05699,30.8004],[79.04432,30.80662],[79.03897,30.80731],[79.0365,30.80597],[79.03509,30.80266],[79.02728,30.79791],[79.03016,30.79534],[79.03098,30.79167],[79.02459,30.77948],[79.02937,30.76758],[79.02218,30.76323],[79.02222,30.75712],[79.0193,30.74989],[79.00192,30.74889],[79.00417,30.74389],[78.99938,30.74259],[78.99693,30.73944],[78.99682,30.73483],[78.99356,30.73273],[78.98414,30.73411],[78.97383,30.73091],[78.9616,30.73515],[78.95334,30.73305],[78.9471,30.72217],[78.94237,30.72038],[78.9321,30.72004],[78.92768,30.71748],[78.91797,30.70149],[78.91779,30.69547],[78.9122,30.69022],[78.9139,30.67623],[78.91069,30.66982],[78.9118,30.66382],[78.9074,30.65588],[78.90921,30.63325],[78.91087,30.62982],[78.91536,30.62961],[78.91993,30.62473],[78.92552,30.62251],[78.92738,30.61689],[78.93298,30.61108],[78.93238,30.60505],[78.9494,30.60786],[78.96072,30.6124],[78.96495,30.61015],[78.96952,30.60992],[78.97367,30.61275],[78.97335,30.61521],[78.97901,30.6173],[78.98196,30.61757],[78.98508,30.61579],[78.98679,30.61682],[78.99288,30.61284],[78.99936,30.61195],[79.01281,30.61455],[79.0141,30.61202],[79.02042,30.61595],[79.03065,30.6009],[79.03128,30.59592],[79.03396,30.59467],[79.03382,30.59217],[79.03859,30.59463],[79.04179,30.59277],[79.03947,30.58849],[79.04568,30.5818],[79.05061,30.58213],[79.05497,30.58022],[79.05992,30.58219],[79.06421,30.57915],[79.06467,30.57695],[79.06746,30.57589],[79.06677,30.57261],[79.07134,30.56936],[79.0686,30.56526],[79.07038,30.56245],[79.06942,30.55889],[79.07378,30.55692],[79.08304,30.5585],[79.08365,30.56122],[79.07976,30.56654],[79.08194,30.57017],[79.08682,30.56875],[79.09107,30.56955],[79.08933,30.57541],[79.09595,30.57553],[79.09777,30.57383],[79.10146,30.56335],[79.09743,30.56276],[79.09912,30.55746],[79.10237,30.55976],[79.10673,30.55933],[79.10885,30.56439],[79.11177,30.56175],[79.11268,30.56349],[79.11521,30.56329],[79.11711,30.5654],[79.11925,30.57816],[79.11243,30.57926],[79.11311,30.58196],[79.1196,30.58272],[79.1259,30.58571],[79.13184,30.58485],[79.13406,30.58009],[79.13719,30.58139],[79.13817,30.57852],[79.14057,30.57853],[79.14193,30.57693],[79.13699,30.57339],[79.13607,30.57113],[79.13927,30.56251],[79.13874,30.55512],[79.14171,30.55236],[79.14533,30.55351],[79.15242,30.55302],[79.15424,30.54933],[79.15281,30.5478],[79.15543,30.54593],[79.1556,30.54017],[79.15273,30.53725],[79.14952,30.53955],[79.14608,30.54236],[79.14837,30.54803],[79.14428,30.54864],[79.14072,30.54698],[79.13923,30.53993],[79.1319,30.53957],[79.1308,30.53526],[79.12605,30.5316],[79.12306,30.53353],[79.11332,30.52455],[79.10856,30.52338],[79.10509,30.52996],[79.10295,30.52851],[79.10468,30.52299],[79.10933,30.51763],[79.11141,30.51099],[79.11874,30.515],[79.12274,30.52099],[79.12789,30.52141],[79.1438,30.52731],[79.16133,30.51789],[79.16669,30.51994],[79.17407,30.51908],[79.16714,30.50681],[79.16368,30.50603],[79.16432,30.50445],[79.16734,30.50461],[79.16896,30.50326],[79.16667,30.49916],[79.17251,30.49782],[79.17287,30.49546],[79.17135,30.49579],[79.17134,30.49413],[79.17415,30.49342],[79.17783,30.48865],[79.17639,30.48598],[79.17856,30.48629],[79.18229,30.48263],[79.18781,30.4836],[79.19087,30.48184],[79.1969,30.48298],[79.19885,30.4814],[79.20291,30.48243],[79.20348,30.48107],[79.20812,30.48316],[79.21284,30.47716],[79.22031,30.47578],[79.21915,30.47461],[79.22071,30.47139],[79.22001,30.46872],[79.24175,30.46969],[79.24517,30.46853],[79.26162,30.47004],[79.26713,30.46943],[79.27131,30.46621],[79.27408,30.46583],[79.27688,30.46768],[79.27783,30.47103],[79.27577,30.47463],[79.27625,30.48036],[79.27459,30.48384],[79.28526,30.48584],[79.29171,30.47977],[79.29195,30.4724],[79.28972,30.46598],[79.28508,30.45938],[79.28005,30.45922],[79.28746,30.45356],[79.29117,30.44881],[79.29264,30.44163],[79.29703,30.43898],[79.30036,30.44013],[79.31117,30.44942],[79.31355,30.45067],[79.31701,30.44989],[79.31938,30.45927],[79.32392,30.45963],[79.32711,30.45351],[79.32214,30.44818],[79.33706,30.44421],[79.3466,30.44383],[79.35255,30.45457],[79.35797,30.45395],[79.36322,30.4552],[79.37712,30.45181],[79.39061,30.43721],[79.39738,30.44242],[79.40292,30.43783],[79.40501,30.44148],[79.40733,30.46903],[79.41328,30.47705],[79.41161,30.49268],[79.40964,30.49729],[79.41104,30.5067],[79.40217,30.50868],[79.39622,30.5076],[79.38663,30.50072],[79.38084,30.50174],[79.37377,30.5067],[79.36813,30.50636],[79.37051,30.50978],[79.38096,30.51517],[79.38525,30.51556],[79.39191,30.51859],[79.3969,30.51812],[79.41361,30.52326],[79.42147,30.51677],[79.42534,30.50708],[79.43232,30.50389],[79.43305,30.50197],[79.43463,30.50237],[79.43534,30.49974],[79.43765,30.49835],[79.43843,30.49424],[79.43934,30.50003],[79.44302,30.5038],[79.42781,30.51965],[79.42626,30.52371],[79.42659,30.53117],[79.42223,30.53932],[79.41814,30.53879],[79.41247,30.54105],[79.40721,30.54097],[79.39015,30.54695],[79.39243,30.55667],[79.39122,30.57374],[79.39546,30.58407],[79.39989,30.58775],[79.40321,30.59318],[79.40073,30.60092],[79.39366,30.61027],[79.38474,30.61767],[79.3766,30.62961],[79.37387,30.64019],[79.37733,30.64538],[79.37346,30.65037],[79.37017,30.65272],[79.36505,30.64883],[79.35525,30.6453],[79.35436,30.64794],[79.35113,30.64929],[79.34632,30.65483],[79.33279,30.65838],[79.33052,30.66451],[79.3252,30.67016],[79.3209,30.66961],[79.30855,30.67434],[79.30478,30.67881],[79.30686,30.68157],[79.30589,30.68949],[79.30067,30.69486],[79.302,30.70615],[79.29851,30.71892],[79.27631,30.72417]]]},"properties":{"AREA":1053.59773863}},
{"type":"Feature","geometry":null,"properties":{"AREA":0.00000433504773106}},
{"type":"Feature","geometry":{"type":"Polygon","coordinates":[[[78.17596,31.02227],[78.17906,31.02618],[78.17687,31.02398],[78.17596,31.02227]]]},"properties":{"AREA":0.0000285842414446}},
{"type":"Feature","geometry":null,"properties":{"AREA":0.000041064110903}},
{"type":"Feature","geometry":null,"properties":{"AREA":0.0000203593024833}},
{"type":"Feature","geometry":null,"properties":{"AREA":0.00000985774896473}},
{"type":"Feature","geometry":null,"properties":{"AREA":0.000135312719168}},
{"type":"Feature","geometry":{"type":"Polygon","coordinates":[[[78.1826,31.06088],[78.18271,31.06144],[78.18273,31.06155],[78.1826,31.06088]]]},"properties":{"AREA":2.03866323148e-7}},
{"type":"Feature","geometry":null,"properties":{"AREA":0.00000422798804032}},
{"type":"Feature","geometry":null,"properties":{"AREA":1.30635996982e-8}},
{"type":"Feature","geometry":{"type":"Polygon","coordinates":[[[78.18273,31.06155],[78.18369,31.06734],[78.17929,31.06817],[78.17537,31.07154],[78.17439,31.07701],[78.17305,31.07744],[78.17439,31.07701],[78.17537,31.07154],[78.17928,31.06817],[78.18368,31.06733],[78.18273,31.06155]]]},"properties":{"AREA":0.000354279630281}},
{"type":"Feature","geometry":null,"properties":{"AREA":0.0000246289350476}},
{"type":"Feature","geometry":null,"properties":{"AREA":0.00000321310108378}},
{"type":"Feature","geometry":{"type":"Polygon","coordinates":[[[78.16998,31.0829],[78.17683,31.08374],[78.17761,31.08442],[78.16998,31.0829]]]},"properties":{"AREA":0.0000922128905771}},
{"type":"Feature","geometry":null,"properties":{"AREA":5.909762596e-7}},
{"type":"Feature","geometry":{"type":"Polygon","coordinates":[[[78.17761,31.08442],[78.18045,31.08615],[78.17878,31.08543],[78.17761,31.08442]]]},"properties":{"AREA":0.00000651722773814}},
{"type":"Feature","geometry":{"type":"Polygon","coordinates":[[[78.20519,31.08502],[78.19932,31.08502],[78.19101,31.0888],[78.18563,31.08838],[78.18045,31.08615],[78.18563,31.08838],[78.19101,31.0888],[78.19932,31.08502],[78.20519,31.08502]]]},"properties":{"AREA":0.000575573368946}},
{"type":"Feature","geometry":{"type":"Polygon","coordinates":[[[78.10105,31.06895],[78.0976,31.0841],[78.09955,31.08999],[78.10443,31.09547],[78.09955,31.08999],[78.0976,31.0841],[78.10105,31.06895]]]},"properties":{"AREA":0.00038152514254}},
{"type":"Feature","geometry":null,"properties":{"AREA":0.00000854814863507}},
{"type":"Feature","geometry":{"type":"MultiPolygon","coordinates":[]},"properties":{"AREA":0.000872551645329}},
{"type":"Feature","geometry":null,"properties":{"AREA":0.0000767769527099}},
{"type":"Feature","geometry":{"type":"Polygon","coordinates":[[[78.25508,31.09976],[78.25601,31.10462],[78.25507,31.09976],[78.25508,31.09976]]]},"properties":{"AREA":0.0000512560588393}},
{"type":"Feature","geometry":{"type":"Polygon","coordinates":[[[78.11365,31.1025],[78.11909,31.10937],[78.11371,31.10263],[78.11365,31.1025]]]},"properties":{"AREA":0.000059602269786}},
{"type":"Feature","geometry":{"type":"Polygon","coordinates":[[[78.25601,31.10462],[78.25654,31.10733],[78.26213,31.11088],[78.25654,31.10734],[78.25601,31.10462]]]},"properties":{"AREA":0.000101387910237}},
{"type":"Feature","geometry":{"type":"Polygon","coordinates":[[[78.26213,31.11088],[78.2728,31.11772],[78.26535,31.11365],[78.26213,31.11088]]]},"properties":{"AREA":0.0000727935638559}},
{"type":"Feature","geometry":null,"properties":{"AREA":0.0000193080192498}},
{"type":"Feature","geometry":null,"properties":{"AREA":0.0000245234933389}},
{"type":"Feature","geometry":null,"properties":{"AREA":0.0000244744672612}},
{"type":"Feature","geometry":{"type":"Polygon","coordinates":[[[78.27942,31.12113],[78.28737,31.12585],[78.27954,31.12206],[78.27942,31.12113]]]},"properties":{"AREA":0.000098690263721}},
{"type":"Feature","geometry":{"type":"Polygon","coordinates":[[[78.14597,31.12371],[78.13863,31.12749],[78.13375,31.1237],[78.11809,31.11905],[78.13374,31.12369],[78.13863,31.12749],[78.14597,31.12371]]]},"properties":{"AREA":0.000356511828593}},
{"type":"Feature","geometry":{"type":"Polygon","coordinates":[[[78.14597,31.12371],[78.14598,31.1237],[78.14879,31.12775],[78.14597,31.12371]]]},"properties":{"AREA":0.0000341800993898}},
{"type":"Feature","geometry":{"type":"Polygon","coordinates":[[[78.28737,31.12585],[78.28884,31.12921],[78.28883,31.12921],[78.28737,31.12585]]]},"properties":{"AREA":0.0000339468272947}},
{"type":"Feature","geometry":{"type":"Polygon","coordinates":[[[78.14879,31.12775],[78.15236,31.13149],[78.15037,31.13002],[78.14879,31.12775]]]},"properties":{"AREA":0.0000195935216788}},
{"type":"Feature","geometry":null,"properties":{"AREA":0.0000381455976061}},
{"type":"Feature","geometry":null,"properties":{"AREA":0.00010045786543}},
{"type":"Feature","geometry":{"type":"Polygon","coordinates":[[[78.29773,31.13407],[78.30312,31.14199],[78.30156,31.14015],[78.29773,31.13407]]]},"properties":{"AREA":0.0000335034406226}},
{"type":"Feature","geometry":{"type":"Polygon","coordinates":[[[78.17678,31.14603],[78.16993,31.14687],[78.16014,31.14266],[78.15891,31.13946],[78.16014,31.14265],[78.16993,31.14687],[78.17678,31.14603]]]},"properties":{"AREA":0.000256446188301}},
{"type":"Feature","geometry":{"type":"Polygon","coordinates":[[[78.17972,31.14814],[78.18085,31.14833],[78.17971,31.14814],[78.17678,31.14603],[78.17972,31.14814]]]},"properties":{"AREA":0.0000388457471036}},
{"type":"Feature","geometry":null,"properties":{"AREA":0.00000549814604277}},
{"type":"Feature","geometry":{"type":"Polygon","coordinates":[[[78.32946,31.14855],[78.31772,31.15067],[78.30548,31.14478],[78.30312,31.14199],[78.30548,31.14478],[78.31772,31.15066],[78.32946,31.14855]]]},"properties":{"AREA":0.000458689406139}},
{"type":"Feature","geometry":{"type":"Polygon","coordinates":[[[78.33063,31.14898],[78.33289,31.14981],[78.33533,31.15192],[78.33063,31.14898]]]},"properties":{"AREA":0.0000335864120161}},
{"type":"Feature","geometry":null,"properties":{"AREA":0.0000129095725162}},
{"type":"Feature","geometry":null,"properties":{"AREA":0.000169036174697}},
{"type":"Feature","geometry":{"type":"Polygon","coordinates":[[[78.35932,31.15779],[78.35149,31.15822],[78.34513,31.15402],[78.33778,31.15402],[78.34512,31.15401],[78.35149,31.15822],[78.35932,31.15779]]]},"properties":{"AREA":0.000404066492436}},
{"type":"Feature","geometry":null,"properties":{"AREA":0.0000206844616721}},
{"type":"Feature","geometry":null,"properties":{"AREA":0.000115250919266}},
{"type":"Feature","geometry":{"type":"Polygon","coordinates":[[[78.37036,31.16825],[78.37059,31.1683],[78.37473,31.16959],[78.37036,31.16825]]]},"properties":{"AREA":0.00000317449904885}},
{"type":"Feature","geometry":null,"properties":{"AREA":2.79630339969e-7}},
{"type":"Feature","geometry":null,"properties":{"AREA":0.00000971942558774}},
{"type":"Feature","geometry":{"type":"Polygon","coordinates":[[[78.38531,31.17713],[78.38725,31.17712],[78.38725,31.17713],[78.38531,31.17713]]]},"properties":{"AREA":0.0000209227768374}},
{"type":"Feature","geometry":null,"properties":{"AREA":1.05512823529e-8}},
{"type":"Feature","geometry":null,"properties":{"AREA":0.0000719268965256}},
{"type":"Feature","geometry":null,"properties":{"AREA":0.0000480777668969}},
{"type":"Feature","geometry":null,"properties":{"AREA":0.0000191578451818}},
{"type":"Feature","geometry":{"type":"Polygon","coordinates":[[[78.39349,31.18319],[78.39922,31.18489],[78.39705,31.18427],[78.39349,31.18319]]]},"properties":{"AREA":0.0000172159117976}},
{"type":"Feature","geometry":{"type":"Polygon","coordinates":[[[78.39922,31.18489],[78.40292,31.18594],[78.41038,31.19035],[78.39922,31.18489]]]},"properties":{"AREA":0.0000531595611818}},
{"type":"Feature","geometry":{"type":"Polygon","coordinates":[[[78.19096,31.15488],[78.19438,31.16835],[78.18851,31.17718],[78.18654,31.18392],[78.18751,31.19949],[78.18605,31.18812],[78.18654,31.18392],[78.1885,31.17718],[78.19438,31.16835],[78.19096,31.15488]]]},"properties":{"AREA":0.000493972579249}},
{"type":"Feature","geometry":{"type":"Polygon","coordinates":[[[78.18751,31.19949],[78.19045,31.19991],[78.19311,31.20144],[78.18751,31.19949]]]},"properties":{"AREA":0.0000408407676191}},
{"type":"Feature","geometry":{"type":"Polygon","coordinates":[[[78.41038,31.19035],[78.41371,31.19098],[78.41665,31.19519],[78.41715,31.2036],[78.41665,31.19519],[78.4137,31.19098],[78.41038,31.19035]]]},"properties":{"AREA":0.000229837855607}},
{"type":"Feature","geometry":{"type":"Polygon","coordinates":[[[78.19311,31.20144],[78.19485,31.20244],[78.19641,31.20377],[78.19311,31.20144]]]},"properties":{"AREA":0.0000170007789709}},
{"type":"Feature","geometry":null,"properties":{"AREA":0.00000781769224353}},
{"type":"Feature","geometry":null,"properties":{"AREA":0.00000699861902004}},
{"type":"Feature","geometry":{"type":"Polygon","coordinates":[[[78.19779,31.20496],[78.2017,31.21422],[78.202,31.21661],[78.19779,31.20496]]]},"properties":{"AREA":0.000198830706411}},
{"type":"Feature","geometry":{"type":"Polygon","coordinates":[[[78.42009,31.20486],[78.42599,31.21243],[78.42928,31.21683],[78.42009,31.20486]]]},"properties":{"AREA":0.000110011616494}},
{"type":"Feature","geometry":{"type":"Polygon","coordinates":[[[78.42928,31.21683],[78.43175,31.21924],[78.4304,31.21832],[78.42928,31.21683]]]},"properties":{"AREA":0.0000108028106537}},
{"type":"Feature","geometry":{"type":"Polygon","coordinates":[[[78.43175,31.21924],[78.43286,31.22],[78.43555,31.22487],[78.43175,31.21924]]]},"properties":{"AREA":0.0000553601623752}},
{"type":"Feature","geometry":{"type":"Polygon","coordinates":[[[78.43555,31.22487],[78.44002,31.23066],[78.43728,31.22799],[78.43555,31.22487]]]},"properties":{"AREA":0.0000534865435647}},
{"type":"Feature","geometry":null,"properties":{"AREA":0.00000215142856075}},
{"type":"Feature","geometry":null,"properties":{"AREA":0.0000657813653373}},
{"type":"Feature","geometry":{"type":"Polygon","coordinates":[[[79.27631,30.72417],[79.28145,30.73142],[79.28094,30.73654],[79.28277,30.74097],[79.29052,30.74827],[79.29048,30.75002],[79.28033,30.7572],[79.27399,30.75752],[79.26295,30.76917],[79.26454,30.773],[79.26123,30.77965],[79.25233,30.78151],[79.2468,30.78472],[79.24519,30.79227],[79.2419,30.79368],[79.24004,30.79737],[79.2414,30.80311],[79.23768,30.80583],[79.22949,30.80749],[79.22624,30.81073],[79.22783,30.819],[79.24215,30.82408],[79.24098,30.83278],[79.23811,30.83835],[79.24406,30.84247],[79.2526,30.84266],[79.25259,30.84699],[79.25635,30.85934],[79.26012,30.86351],[79.2606,30.86894],[79.27304,30.86978],[79.27522,30.87304],[79.28188,30.87557],[79.27146,30.89465],[79.27115,30.9062],[79.27515,30.9099],[79.28487,30.91277],[79.28212,30.92167],[79.28566,30.93468],[79.2741,30.94538],[79.2684,30.9455],[79.26433,30.95427],[79.26993,30.95865],[79.28318,30.96177],[79.28557,30.96544],[79.29248,30.9682],[79.30245,30.96796],[79.30348,30.96541],[79.31315,30.95933],[79.31882,30.95873],[79.32429,30.96153],[79.3308,30.96956],[79.33047,30.97461],[79.3244,30.98346],[79.33258,30.995],[79.3301,30.99878],[79.3152,31.00217],[79.30964,31.00566],[79.30987,31.01417],[79.3153,31.01678],[79.32369,31.0264],[79.3414,31.02897],[79.34404,31.03166],[79.35463,31.03142],[79.36655,31.03772],[79.37162,31.0479],[79.37721,31.0536],[79.38604,31.05651],[79.38629,31.06254],[79.39056,31.06835],[79.39658,31.06966],[79.40365,31.0688],[79.41336,31.07219],[79.41493,31.07394],[79.41213,31.07619],[79.41404,31.08414],[79.41358,31.09572],[79.41017,31.10725],[79.40333,31.1137],[79.38725,31.11695],[79.379,31.11355],[79.37603,31.11474],[79.37164,31.11337],[79.36325,31.11865],[79.36222,31.12275],[79.34913,31.12092],[79.34419,31.12444],[79.33695,31.12653],[79.33517,31.1324],[79.326,31.13116],[79.31836,31.13582],[79.30655,31.15251],[79.30573,31.1627],[79.3009,31.16662],[79.30503,31.17115],[79.30534,31.17434],[79.30048,31.18765],[79.30146,31.19427],[79.29995,31.20708],[79.29629,31.21746],[79.28611,31.22491],[79.28146,31.23509],[79.27892,31.23708],[79.25822,31.23693],[79.25113,31.24107],[79.24713,31.24732],[79.23961,31.24984],[79.23495,31.2536],[79.22188,31.25984],[79.22244,31.26285],[79.22925,31.26741],[79.23556,31.26887],[79.24314,31.275],[79.24354,31.27988],[79.24582,31.28259],[79.2466,31.29156],[79.24273,31.29498],[79.22595,31.30127],[79.22238,31.30925],[79.21718,31.31227],[79.2213,31.32465],[79.23331,31.33376],[79.22949,31.33527],[79.22502,31.34005],[79.21998,31.34108],[79.21157,31.34978],[79.20118,31.35054],[79.19371,31.35299],[79.18854,31.35258],[79.17739,31.35834],[79.17069,31.35871],[79.16689,31.36088],[79.16659,31.37364],[79.17366,31.38361],[79.168,31.39091],[79.16801,31.39644],[79.16311,31.3978],[79.1536,31.40368],[79.15184,31.40826],[79.14452,31.41378],[79.13876,31.42585],[79.13899,31.43354],[79.11574,31.43714],[79.11173,31.44009],[79.10489,31.44217],[79.10294,31.44641],[79.09861,31.4484],[79.0961,31.4516],[79.08338,31.44592],[79.07731,31.45011],[79.07573,31.45402],[79.07418,31.45326],[79.07163,31.45603],[79.06607,31.44697],[79.06727,31.43757],[79.05956,31.42966],[79.05894,31.42641],[79.0499,31.426],[79.04993,31.42299],[79.04398,31.41571],[79.03152,31.40607],[79.02251,31.3956],[79.01022,31.37423],[79.00879,31.36941],[79.01306,31.3603],[79.01825,31.35733],[79.01544,31.35428],[79.01589,31.34767],[78.99866,31.3398],[78.98481,31.34811],[78.9768,31.34699],[78.95251,31.33744],[78.94576,31.33284],[78.9409,31.32671],[78.93861,31.32034],[78.94067,31.30931],[78.94027,31.30162],[78.93902,31.29639],[78.93142,31.2821],[78.93205,31.26155],[78.92847,31.25563],[78.9182,31.25257],[78.91662,31.24999],[78.9207,31.24228],[78.92358,31.22564],[78.92715,31.2238],[78.92728,31.22049],[78.93216,31.21647],[78.94921,31.21682],[78.94995,31.21315],[78.94559,31.20631],[78.9485,31.20326],[78.9493,31.19886],[78.9598,31.19062],[78.95888,31.18705],[78.97371,31.18026],[78.98054,31.17937],[78.98203,31.17644],[78.98499,31.17642],[78.98703,31.17441],[78.99204,31.16182],[78.98978,31.15488],[78.99216,31.14859],[78.98904,31.14372],[78.99226,31.13828],[79.00112,31.13488],[79.01024,31.11022],[79.00216,31.11242],[78.99919,31.11156],[78.99855,31.10995],[78.99004,31.10852],[78.97354,31.10812],[78.96326,31.10057],[78.95362,31.09805],[78.93905,31.10145],[78.93223,31.10068],[78.92593,31.10944],[78.92163,31.11068],[78.91476,31.10832],[78.91379,31.10199],[78.9086,31.09886],[78.90044,31.09979],[78.89064,31.0969],[78.88377,31.09947],[78.87998,31.10311],[78.87147,31.08844],[78.87424,31.08687],[78.87763,31.08162],[78.87429,31.06075],[78.87038,31.05778],[78.87086,31.05278],[78.8754,31.04422],[78.87525,31.0384],[78.86767,31.02922],[78.86593,31.02921],[78.8669,31.02788],[78.85949,31.0227],[78.8539,31.0213],[78.849,31.0152],[78.85036,31.00811],[78.84459,31.00059],[78.84401,30.99519],[78.8504,30.98025],[78.85043,30.97192],[78.84579,30.9555],[78.84569,30.94907],[78.83207,30.93072],[78.83891,30.926],[78.84169,30.91832],[78.84794,30.91803],[78.85431,30.91318],[78.86074,30.9014],[78.86639,30.89643],[78.8699,30.88164],[78.87353,30.87538],[78.88382,30.87795],[78.89248,30.87474],[78.89739,30.87109],[78.90482,30.87354],[78.90906,30.87228],[78.91638,30.87751],[78.92631,30.87841],[78.9277,30.87385],[78.93484,30.87351],[78.94027,30.86921],[78.9472,30.85392],[78.95354,30.85547],[78.97192,30.85281],[78.97751,30.85348],[78.98275,30.8567],[78.98784,30.85751],[78.99623,30.86145],[79.00027,30.859],[79.00424,30.85859],[79.00869,30.85199],[79.01854,30.84411],[79.02151,30.83057],[79.02,30.82162],[79.02737,30.81252],[79.0365,30.80597],[79.03897,30.80731],[79.04432,30.80662],[79.05699,30.8004],[79.0687,30.79806],[79.07738,30.78745],[79.08459,30.78317],[79.09204,30.77596],[79.1143,30.7723],[79.11861,30.77293],[79.1282,30.76964],[79.13122,30.76694],[79.13353,30.75605],[79.14417,30.74862],[79.152,30.75233],[79.1598,30.75376],[79.16311,30.75614],[79.17062,30.75596],[79.17577,30.75184],[79.18416,30.75036],[79.19356,30.74253],[79.199,30.74071],[79.20105,30.73339],[79.20946,30.73751],[79.24039,30.73406],[79.24339,30.73266],[79.24569,30.73385],[79.25387,30.72848],[79.25727,30.72264],[79.26361,30.72185],[79.26875,30.7245],[79.27631,30.72417]]]},"properties":{"AREA":2385.22819602}},
{"type":"Feature","geometry":{"type":"Polygon","coordinates":[[[78.2102,31.22008],[78.19948,31.21721],[78.19566,31.21971],[78.19218,31.22476],[78.18703,31.22705],[78.18177,31.22569],[78.17419,31.22679],[78.1688,31.22487],[78.16191,31.22508],[78.15914,31.21827],[78.15613,31.21858],[78.15006,31.21359],[78.14913,31.21048],[78.13438,31.20763],[78.13041,31.20098],[78.12463,31.19979],[78.105,31.18536],[78.09714,31.18421],[78.08797,31.18717],[78.06717,31.18672],[78.05237,31.17943],[78.04872,31.17975],[78.04396,31.17809],[78.04244,31.17293],[78.03517,31.16979],[78.03077,31.16387],[78.03341,31.15489],[78.03118,31.15045],[78.02062,31.15155],[78.01445,31.15778],[78.00863,31.16082],[78.00082,31.16195],[77.99039,31.15979],[77.98609,31.15694],[77.985,31.14665],[77.98873,31.13818],[77.98276,31.12461],[77.99014,31.12063],[77.99821,31.11881],[78.00652,31.11823],[78.01428,31.11967],[78.02559,31.11383],[78.02774,31.10301],[78.02531,31.09564],[78.02567,31.084],[78.03094,31.07492],[78.03401,31.07398],[78.05317,31.07486],[78.06619,31.07773],[78.08536,31.06797],[78.10074,31.06874],[78.10103,31.06894],[78.10105,31.06895],[78.0976,31.0841],[78.09955,31.08999],[78.10443,31.09547],[78.10699,31.09694],[78.11225,31.09968],[78.11365,31.1025],[78.11371,31.10263],[78.11909,31.10937],[78.11809,31.11905],[78.13374,31.12369],[78.13863,31.12749],[78.14597,31.12371],[78.14879,31.12775],[78.15037,31.13002],[78.15236,31.13149],[78.15722,31.13508],[78.15891,31.13946],[78.16014,31.14266],[78.16993,31.14687],[78.17678,31.14603],[78.17971,31.14814],[78.18085,31.14833],[78.18461,31.14898],[78.19096,31.15488],[78.19438,31.16835],[78.1885,31.17718],[78.18654,31.18392],[78.18605,31.18812],[78.18751,31.19949],[78.19311,31.20144],[78.19485,31.20244],[78.19641,31.20377],[78.19779,31.20496],[78.2017,31.21422],[78.202,31.21661],[78.2102,31.22008]]]},"properties":{"AREA":179.376000784}},
{"type":"Feature","geometry":{"type":"Polygon","coordinates":[[[78.4176,31.24073],[78.42071,31.2394],[78.43083,31.23944],[78.43511,31.24146],[78.44171,31.24813],[78.43729,31.25167],[78.43658,31.25412],[78.43317,31.25442],[78.42591,31.24425],[78.42151,31.24412],[78.4176,31.24073]]]},"properties":{"AREA":1.9064457451}},
{"type":"Feature","geometry":{"type":"Polygon","coordinates":[[[78.4176,31.24073],[78.41268,31.23961],[78.40566,31.24334],[78.4029,31.24849],[78.4073,31.25578],[78.39772,31.26622],[78.39632,31.27511],[78.39064,31.27462],[78.3863,31.27143],[78.38413,31.28163],[78.38202,31.28342],[78.37032,31.28633],[78.35197,31.2806],[78.34656,31.28044],[78.34054,31.28231],[78.33187,31.27761],[78.31803,31.27892],[78.31678,31.28153],[78.31267,31.28237],[78.30954,31.27587],[78.31196,31.27162],[78.3073,31.25961],[78.30077,31.25926],[78.29725,31.26102],[78.29188,31.25995],[78.28385,31.26562],[78.28117,31.26226],[78.27746,31.26137],[78.27499,31.25595],[78.27041,31.25228],[78.27084,31.24936],[78.26405,31.24578],[78.26207,31.24012],[78.25742,31.23847],[78.25133,31.2398],[78.25228,31.23409],[78.24954,31.23102],[78.24317,31.2293],[78.23321,31.23388],[78.22639,31.23501],[78.22173,31.23412],[78.21768,31.22989],[78.21632,31.22162],[78.21381,31.21983],[78.2102,31.22008],[78.202,31.21661],[78.2017,31.21422],[78.19779,31.20496],[78.19641,31.20377],[78.19485,31.20244],[78.19311,31.20144],[78.18751,31.19949],[78.18654,31.18392],[78.18851,31.17718],[78.19438,31.16835],[78.19096,31.15488],[78.18461,31.14898],[78.18085,31.14833],[78.17972,31.14814],[78.17678,31.14603],[78.16993,31.14687],[78.16014,31.14266],[78.15891,31.13946],[78.15722,31.13508],[78.15236,31.13149],[78.14879,31.12775],[78.14597,31.12371],[78.13863,31.12749],[78.13374,31.12369],[78.11809,31.11905],[78.11909,31.10937],[78.11371,31.10263],[78.11365,31.1025],[78.11225,31.09968],[78.10699,31.09694],[78.10443,31.09547],[78.09955,31.08999],[78.0976,31.0841],[78.10105,31.06895],[78.10103,31.06894],[78.10074,31.06874],[78.09733,31.0607],[78.09366,31.05777],[78.09465,31.05629],[78.10791,31.05121],[78.10712,31.05358],[78.11246,31.05397],[78.11788,31.05233],[78.12268,31.05314],[78.13068,31.05023],[78.14277,31.04841],[78.14989,31.05007],[78.15556,31.04448],[78.15771,31.04062],[78.16383,31.03364],[78.16863,31.0299],[78.17143,31.02512],[78.17339,31.02289],[78.1743,31.02221],[78.17545,31.02132],[78.17545,31.02133],[78.17596,31.02227],[78.17687,31.02398],[78.17906,31.02618],[78.18273,31.02988],[78.18273,31.03551],[78.18273,31.03914],[78.18273,31.03976],[78.1837,31.04713],[78.18125,31.05429],[78.1826,31.06088],[78.18271,31.06144],[78.18273,31.06155],[78.18368,31.06733],[78.17928,31.06817],[78.17537,31.07154],[78.17439,31.07701],[78.17305,31.07744],[78.17047,31.07827],[78.17016,31.0812],[78.16998,31.0829],[78.17761,31.08442],[78.18045,31.08615],[78.18563,31.08838],[78.19101,31.0888],[78.19932,31.08502],[78.20519,31.08502],[78.20591,31.08564],[78.2091,31.08839],[78.22084,31.0905],[78.22769,31.09008],[78.24676,31.09471],[78.25507,31.09976],[78.25601,31.10462],[78.25654,31.10733],[78.26213,31.11088],[78.26535,31.11365],[78.2728,31.11772],[78.27415,31.11912],[78.27905,31.11827],[78.27942,31.12113],[78.27954,31.12206],[78.28737,31.12585],[78.28883,31.12921],[78.28884,31.12921],[78.29519,31.13005],[78.29773,31.13407],[78.30156,31.14015],[78.30312,31.14199],[78.30548,31.14478],[78.31772,31.15067],[78.3253,31.1493],[78.32297,31.14972],[78.32946,31.14855],[78.33063,31.14898],[78.33533,31.15192],[78.33778,31.15402],[78.34513,31.15402],[78.35149,31.15822],[78.35932,31.15779],[78.36143,31.162],[78.36374,31.16663],[78.37036,31.16825],[78.37473,31.16959],[78.37598,31.16998],[78.37776,31.17323],[78.3799,31.17713],[78.38523,31.17713],[78.38529,31.17713],[78.38531,31.17713],[78.38725,31.17712],[78.38725,31.17713],[78.38872,31.18175],[78.39349,31.18319],[78.39922,31.18489],[78.41038,31.19035],[78.4137,31.19098],[78.41665,31.19519],[78.41715,31.2036],[78.42009,31.20486],[78.42928,31.21683],[78.4304,31.21832],[78.43175,31.21924],[78.43555,31.22487],[78.43728,31.22799],[78.44002,31.23066],[78.44071,31.23135],[78.44463,31.23176],[78.44415,31.23513],[78.45086,31.24093],[78.44359,31.24435],[78.44171,31.24813],[78.43511,31.24146],[78.43083,31.23944],[78.42071,31.2394],[78.4176,31.24073]]]},"properties":{"AREA":372.531921298}},
{"type":"Feature","geometry":{"type":"Polygon","coordinates":[[[78.2728,31.11772],[78.26213,31.11088],[78.25654,31.10733],[78.25601,31.10462],[78.25508,31.09976],[78.25507,31.09976],[78.24676,31.09471],[78.22768,31.09008],[78.22084,31.0905],[78.2091,31.08839],[78.20591,31.08564],[78.20519,31.08502],[78.19932,31.08502],[78.19101,31.0888],[78.18563,31.08838],[78.18045,31.08615],[78.17761,31.08442],[78.17683,31.08374],[78.16998,31.0829],[78.17016,31.0812],[78.17047,31.07827],[78.17305,31.07744],[78.17439,31.07701],[78.17537,31.07154],[78.17928,31.06817],[78.18368,31.06733],[78.18273,31.06155],[78.18271,31.06144],[78.1826,31.06088],[78.18125,31.05429],[78.1837,31.04713],[78.18273,31.03976],[78.18273,31.03914],[78.18273,31.03551],[78.18273,31.02988],[78.17906,31.02618],[78.17596,31.02227],[78.17545,31.02133],[78.1798,31.01964],[78.19091,31.02335],[78.19432,31.02329],[78.20843,31.01871],[78.21249,31.02012],[78.21837,31.02578],[78.22309,31.02806],[78.23812,31.02152],[78.25144,31.02114],[78.26314,31.01906],[78.26914,31.01605],[78.27419,31.01856],[78.2847,31.01873],[78.29492,31.0231],[78.30228,31.02123],[78.31404,31.023],[78.31734,31.01999],[78.3169,31.01844],[78.32414,31.01617],[78.32672,31.00661],[78.34003,31.00841],[78.34294,31.00513],[78.34584,31.00446],[78.35839,31.01084],[78.36097,31.0145],[78.35676,31.02359],[78.36591,31.02757],[78.36874,31.03137],[78.37825,31.03045],[78.38767,31.04132],[78.39472,31.04437],[78.40753,31.04058],[78.41738,31.04095],[78.43171,31.03433],[78.43703,31.03435],[78.44178,31.03239],[78.45559,31.03592],[78.46074,31.03508],[78.46382,31.02953],[78.47466,31.03106],[78.47854,31.0291],[78.48296,31.02976],[78.4889,31.0223],[78.49644,31.01848],[78.49695,31.01459],[78.49441,31.00735],[78.50278,31.00398],[78.50851,31.00443],[78.51223,31.00302],[78.51862,31.00602],[78.5268,31.00628],[78.53855,31.00269],[78.55462,31.00355],[78.56001,31.01428],[78.56396,31.01457],[78.57158,31.01849],[78.5743,31.02908],[78.57902,31.03152],[78.58135,31.03462],[78.58216,31.04395],[78.58402,31.04709],[78.56442,31.07324],[78.56632,31.08956],[78.55982,31.09395],[78.55008,31.09537],[78.54666,31.09912],[78.55145,31.10751],[78.55113,31.11051],[78.55526,31.11502],[78.55597,31.1191],[78.56442,31.1236],[78.56529,31.12805],[78.57154,31.12889],[78.57443,31.13114],[78.5705,31.14693],[78.57186,31.15301],[78.58169,31.16512],[78.58105,31.17111],[78.58839,31.17512],[78.59009,31.17979],[78.59336,31.18138],[78.59451,31.18471],[78.60473,31.19148],[78.61611,31.20159],[78.62217,31.20924],[78.62201,31.21285],[78.62546,31.2182],[78.62457,31.22113],[78.62257,31.22407],[78.61071,31.22915],[78.60229,31.22852],[78.59676,31.22512],[78.59281,31.22659],[78.57972,31.2259],[78.57486,31.22122],[78.56807,31.21915],[78.56549,31.21348],[78.55162,31.19991],[78.52652,31.19646],[78.50756,31.19587],[78.49699,31.19818],[78.48375,31.19894],[78.48427,31.20121],[78.48145,31.20451],[78.4798,31.21378],[78.47286,31.21845],[78.46174,31.23603],[78.45771,31.23778],[78.45571,31.24102],[78.45086,31.24093],[78.44415,31.23513],[78.44463,31.23176],[78.44071,31.23135],[78.44002,31.23066],[78.43728,31.22799],[78.43555,31.22487],[78.43175,31.21924],[78.42928,31.21683],[78.42599,31.21243],[78.42009,31.20486],[78.41715,31.2036],[78.41665,31.19519],[78.41371,31.19098],[78.41038,31.19035],[78.40292,31.18594],[78.39922,31.18489],[78.39349,31.18319],[78.38872,31.18175],[78.38725,31.17713],[78.38725,31.17712],[78.38531,31.17713],[78.38529,31.17713],[78.38523,31.17713],[78.3799,31.17713],[78.37776,31.17323],[78.37598,31.16998],[78.37473,31.16959],[78.37059,31.1683],[78.37036,31.16825],[78.36374,31.16663],[78.36143,31.162],[78.35932,31.15779],[78.35149,31.15822],[78.34512,31.15401],[78.33778,31.15402],[78.33533,31.15192],[78.33289,31.14981],[78.33063,31.14898],[78.32946,31.14855],[78.32297,31.14972],[78.31772,31.15066],[78.30548,31.14478],[78.30312,31.14199],[78.29773,31.13407],[78.29519,31.13005],[78.28884,31.12921],[78.28737,31.12585],[78.27942,31.12113],[78.27905,31.11827],[78.27415,31.11912],[78.2728,31.11772]]]},"properties":{"AREA":606.353803832}},
{"type":"Feature","geometry":{"type":"Polygon","coordinates":[[[77.65434,30.43426],[77.6404,30.4316],[77.64076,30.42877],[77.64614,30.42283],[77.6688,30.41941],[77.68886,30.41327],[77.70005,30.41302],[77.71193,30.41726],[77.71549,30.41672],[77.71589,30.41883],[77.71181,30.41914],[77.70203,30.41536],[77.68527,30.41619],[77.67106,30.42254],[77.66964,30.42401],[77.67133,30.42689],[77.66684,30.42695],[77.66463,30.42836],[77.66361,30.4319],[77.66636,30.43449],[77.66599,30.43608],[77.65434,30.43426]]]},"properties":{"AREA":4.73784594614}},
{"type":"Feature","geometry":{"type":"Polygon","coordinates":[[[78.36611,29.85182],[78.37256,29.85635],[78.37847,29.85833],[78.38222,29.86291],[78.38508,29.86254],[78.38438,29.86439],[78.39077,29.86982],[78.39382,29.87552],[78.38644,29.88029],[78.38021,29.8786],[78.38206,29.88816],[78.37562,29.89604],[78.36993,29.89709],[78.37046,29.90397],[78.36826,29.90436],[78.3705,29.90779],[78.36715,29.91013],[78.3722,29.91335],[78.37063,29.91885],[78.3668,29.92105],[78.35896,29.93018],[78.35358,29.92994],[78.3509,29.93441],[78.34679,29.93538],[78.34386,29.93874],[78.34488,29.94409],[78.34231,29.94969],[78.338,29.95162],[78.33681,29.95641],[78.33257,29.96075],[78.32249,29.96787],[78.32949,29.96827],[78.33187,29.97319],[78.32687,29.97763],[78.31247,29.98558],[78.31703,29.98489],[78.31859,29.98668],[78.32198,29.98496],[78.32351,29.98594],[78.32434,29.99632],[78.32286,29.99764],[78.32121,29.99598],[78.31806,29.99695],[78.33768,30.01967],[78.33566,30.02339],[78.34015,30.02653],[78.34139,30.03446],[78.3395,30.03606],[78.34094,30.03645],[78.34197,30.04223],[78.34349,30.0428],[78.34302,30.04992],[78.34619,30.05372],[78.34605,30.05616],[78.33592,30.06104],[78.33789,30.06395],[78.33363,30.07284],[78.33193,30.08743],[78.3336,30.08897],[78.33284,30.09123],[78.33795,30.09055],[78.33809,30.09488],[78.34321,30.102],[78.35055,30.10096],[78.35333,30.10212],[78.35791,30.11228],[78.36539,30.11377],[78.37136,30.10964],[78.3731,30.11017],[78.37163,30.10569],[78.37531,30.10621],[78.37769,30.10392],[78.37381,30.10045],[78.37376,30.09825],[78.37136,30.1004],[78.36762,30.09964],[78.36616,30.1022],[78.36041,30.09994],[78.36251,30.09844],[78.36355,30.0917],[78.36682,30.09056],[78.37199,30.08229],[78.3696,30.08044],[78.3754,30.07706],[78.38115,30.08154],[78.38456,30.07791],[78.39004,30.07631],[78.39193,30.07939],[78.39162,30.08316],[78.39478,30.0849],[78.39322,30.08775],[78.39732,30.08706],[78.39823,30.08406],[78.40089,30.08393],[78.40362,30.08418],[78.40492,30.08748],[78.40234,30.09053],[78.40051,30.09893],[78.39516,30.10302],[78.40246,30.10835],[78.41283,30.10521],[78.41345,30.09712],[78.41779,30.09556],[78.42144,30.09717],[78.42513,30.09281],[78.4249,30.07931],[78.42678,30.07726],[78.4324,30.07717],[78.43027,30.07228],[78.43224,30.07048],[78.44272,30.07381],[78.44403,30.07601],[78.43516,30.08214],[78.4349,30.09822],[78.44038,30.11002],[78.4394,30.11263],[78.42446,30.11437],[78.42326,30.12264],[78.42004,30.12947],[78.40824,30.13713],[78.40226,30.13753],[78.39324,30.13548],[78.39216,30.13373],[78.39405,30.12669],[78.39196,30.12206],[78.38257,30.12176],[78.37383,30.1168],[78.34921,30.12956],[78.3429,30.13465],[78.33458,30.13376],[78.33204,30.13169],[78.32984,30.12408],[78.32105,30.12569],[78.31514,30.12315],[78.31113,30.11949],[78.30991,30.11644],[78.31182,30.10962],[78.30958,30.10479],[78.30443,30.10171],[78.29819,30.10216],[78.29232,30.09921],[78.29151,30.09482],[78.29503,30.08723],[78.29189,30.07755],[78.28192,30.06106],[78.26373,30.04791],[78.25152,30.04518],[78.24791,30.04061],[78.24837,30.03586],[78.2209,30.05498],[78.22292,30.05683],[78.21937,30.05574],[78.21514,30.05843],[78.21001,30.06526],[78.20964,30.06799],[78.20374,30.07237],[78.19576,30.06682],[78.18667,30.06867],[78.18027,30.07098],[78.16764,30.08267],[78.1613,30.08445],[78.15463,30.08875],[78.14443,30.08718],[78.14246,30.09204],[78.13416,30.09686],[78.12882,30.10245],[78.1268,30.10766],[78.12236,30.10801],[78.12102,30.11443],[78.11529,30.1144],[78.11281,30.11644],[78.11293,30.1216],[78.10825,30.12654],[78.11047,30.12898],[78.10608,30.12738],[78.07614,30.15732],[78.06633,30.16965],[78.07684,30.17463],[78.09046,30.17285],[78.0885,30.17527],[78.08074,30.17883],[78.07549,30.18497],[78.06829,30.19032],[78.06418,30.1945],[78.05908,30.20456],[78.04786,30.21546],[78.04352,30.21907],[78.04074,30.21645],[78.03778,30.22137],[78.03123,30.2225],[78.02505,30.2318],[78.02622,30.23375],[78.02209,30.23841],[78.02323,30.24993],[78.01489,30.24928],[78.00822,30.25356],[78.0067,30.25114],[77.99827,30.24724],[77.98758,30.24727],[77.97954,30.24402],[77.97648,30.24673],[77.96839,30.23901],[77.96377,30.23734],[77.96062,30.23679],[77.95581,30.24005],[77.95508,30.23779],[77.94828,30.23337],[77.94704,30.22917],[77.94304,30.22746],[77.94052,30.22123],[77.93647,30.21793],[77.93564,30.2149],[77.93078,30.21206],[77.92467,30.21277],[77.92006,30.21098],[77.91942,30.20605],[77.92124,30.20431],[77.91566,30.199],[77.91418,30.19399],[77.91571,30.19113],[77.91178,30.18618],[77.91202,30.18253],[77.89965,30.17183],[77.90079,30.16984],[77.88369,30.15135],[77.87853,30.14105],[77.93136,30.10017],[77.92197,30.09188],[77.91953,30.08733],[77.92065,30.08069],[77.93293,30.07333],[77.96145,30.04461],[77.97625,30.0332],[77.97191,30.02652],[77.98395,30.01421],[77.99425,30.01121],[78.00326,30.00254],[78.01192,29.99724],[78.01541,29.99849],[78.01446,29.99971],[78.02193,30.0073],[78.03602,30.00386],[78.03642,30.0026],[78.03311,30.00053],[78.03386,29.99792],[78.04004,29.9952],[78.045,29.99653],[78.05101,29.98811],[78.08372,29.96503],[78.11141,29.94957],[78.138,29.93824],[78.14214,29.93994],[78.14704,29.94741],[78.14969,29.94909],[78.16481,29.95283],[78.17027,29.9568],[78.17284,29.96361],[78.17059,29.96775],[78.17115,29.97116],[78.17254,29.97356],[78.17613,29.9739],[78.18019,29.97815],[78.18392,29.9904],[78.18977,29.99641],[78.19003,30.00393],[78.18739,30.01049],[78.18843,30.01283],[78.19012,30.00937],[78.19769,30.00514],[78.20955,30.00056],[78.2104,30.00152],[78.21236,30.00049],[78.21192,29.99786],[78.20608,29.99144],[78.20128,29.98863],[78.2095,29.97692],[78.19845,29.96997],[78.19732,29.9644],[78.19274,29.96085],[78.19057,29.95544],[78.17802,29.94638],[78.18558,29.94553],[78.18906,29.94354],[78.19813,29.94375],[78.20989,29.94816],[78.21542,29.94215],[78.21999,29.94035],[78.23623,29.92846],[78.24367,29.92783],[78.24735,29.93183],[78.25435,29.92765],[78.27265,29.92547],[78.27494,29.92322],[78.27525,29.91987],[78.27227,29.91721],[78.26687,29.90431],[78.27184,29.89792],[78.27684,29.89706],[78.28291,29.88673],[78.29247,29.88119],[78.30059,29.87352],[78.3093,29.86631],[78.31501,29.86349],[78.31785,29.85798],[78.32166,29.85705],[78.32857,29.85041],[78.33154,29.85084],[78.33389,29.85581],[78.34165,29.86055],[78.34476,29.85963],[78.34753,29.85817],[78.34836,29.85826],[78.35058,29.85896],[78.35081,29.859],[78.35248,29.85883],[78.35788,29.85041],[78.36463,29.84843],[78.36611,29.85182]]]},"properties":{"AREA":868.134684512}},
{"type":"Feature","geometry":{"type":"Polygon","coordinates":[[[78.32857,29.85041],[78.3507,29.78791],[78.39276,29.76739],[78.4043,29.7642],[78.38625,29.7743],[78.36611,29.85182],[78.36463,29.84843],[78.35788,29.85041],[78.35248,29.85883],[78.35111,29.85904],[78.35081,29.859],[78.35058,29.85896],[78.34836,29.85826],[78.34753,29.85817],[78.34476,29.85963],[78.34304,29.86035],[78.34165,29.86055],[78.33389,29.85581],[78.33154,29.85084],[78.32857,29.85041]]]},"properties":{"AREA":28.8409653257}},
{"type":"Feature","geometry":{"type":"Polygon","coordinates":[[[77.99725,29.63641],[77.98805,29.63439],[77.98591,29.63554],[77.97915,29.63515],[77.97599,29.61853],[77.97769,29.61345],[77.96694,29.61142],[77.96021,29.61165],[77.94842,29.61691],[77.94277,29.60865],[77.9333,29.60051],[77.94034,29.59271],[77.95759,29.58568],[77.96159,29.58205],[77.9671,29.58014],[77.96889,29.58141],[77.97311,29.58031],[77.97493,29.58502],[77.97997,29.58515],[77.98272,29.58356],[77.98645,29.58438],[77.99353,29.59122],[77.99516,29.5958],[77.99617,29.59146],[78.0008,29.58621],[78.0216,29.58085],[78.01524,29.58725],[78.01828,29.5982],[78.03109,29.60832],[78.03307,29.61161],[78.03432,29.61038],[78.04649,29.61608],[78.04885,29.61461],[78.05711,29.62669],[78.05747,29.63069],[78.06137,29.63082],[78.0463,29.64019],[78.03554,29.64234],[78.01108,29.64075],[77.99725,29.63641]]]},"properties":{"AREA":45.9449380352}},
{"type":"Feature","geometry":{"type":"Polygon","coordinates":[[[78.7612,29.49703],[78.75804,29.49464],[78.76702,29.48555],[78.78055,29.47612],[78.80129,29.46472],[78.81149,29.46634],[78.82828,29.45877],[78.83763,29.45764],[78.84017,29.46023],[78.83497,29.46131],[78.83603,29.46359],[78.84277,29.4666],[78.84404,29.46523],[78.84695,29.46622],[78.84899,29.46334],[78.84495,29.46147],[78.84311,29.4578],[78.85082,29.45964],[78.85282,29.45762],[78.85223,29.4543],[78.88263,29.44358],[78.88491,29.44864],[78.88433,29.45097],[78.89253,29.45289],[78.89686,29.45179],[78.895,29.44699],[78.89903,29.44545],[78.897,29.44184],[78.90139,29.4415],[78.91154,29.43725],[78.91375,29.44064],[78.92218,29.44038],[78.92088,29.43694],[78.91862,29.43546],[78.91959,29.43443],[78.92534,29.43383],[78.93634,29.43822],[78.94342,29.43875],[78.94108,29.43565],[78.94883,29.43937],[78.95344,29.43884],[78.95787,29.44199],[78.97204,29.43735],[78.97369,29.4352],[78.97882,29.43344],[78.98266,29.4276],[78.98784,29.42668],[78.98974,29.42478],[78.99589,29.42536],[78.99921,29.42093],[79.00061,29.42194],[79.00368,29.42086],[79.00851,29.41618],[79.01827,29.41306],[79.0223,29.41336],[79.02658,29.41792],[79.03626,29.41656],[79.04269,29.41406],[79.04852,29.41939],[79.04819,29.4208],[79.04273,29.42227],[79.04123,29.42627],[79.03632,29.42676],[79.03727,29.43004],[79.03489,29.43175],[79.03448,29.44027],[79.03704,29.43909],[79.03861,29.4408],[79.03455,29.44635],[79.03712,29.44864],[79.03909,29.44643],[79.0393,29.44881],[79.04241,29.44879],[79.04238,29.45129],[79.04088,29.45177],[79.04225,29.45446],[79.04391,29.45244],[79.05633,29.44795],[79.06255,29.44297],[79.06582,29.44316],[79.06539,29.43835],[79.06762,29.43535],[79.06725,29.43295],[79.07336,29.42842],[79.07479,29.42501],[79.08165,29.42968],[79.08623,29.43029],[79.08543,29.43211],[79.0868,29.4332],[79.09158,29.43092],[79.09533,29.43443],[79.10192,29.43331],[79.10594,29.4347],[79.10497,29.44078],[79.10021,29.44096],[79.09506,29.44334],[79.09158,29.4479],[79.09075,29.45315],[79.09226,29.46265],[79.07958,29.46306],[79.08363,29.46823],[79.08133,29.47389],[79.08175,29.48312],[79.07854,29.48352],[79.08095,29.49392],[79.07677,29.49625],[79.0767,29.4992],[79.07083,29.50484],[79.07136,29.50718],[79.07859,29.5085],[79.09187,29.49907],[79.10011,29.50329],[79.10633,29.50956],[79.11027,29.51099],[79.10742,29.51333],[79.10468,29.52068],[79.10102,29.52382],[79.10153,29.52753],[79.09769,29.52577],[79.08903,29.52529],[79.08325,29.5305],[79.0807,29.52829],[79.07099,29.53224],[79.06834,29.5318],[79.06543,29.53621],[79.06115,29.5381],[79.05384,29.53999],[79.04917,29.5384],[79.04454,29.54292],[79.04354,29.54678],[79.03705,29.54693],[79.02199,29.55354],[79.01247,29.55471],[79.01293,29.55826],[79.01081,29.55839],[79.0071,29.5555],[78.99984,29.56151],[79.00018,29.56346],[79.00851,29.57011],[79.00363,29.57371],[79.00162,29.5804],[78.99569,29.58015],[78.98592,29.58636],[78.97977,29.58653],[78.97691,29.59076],[78.97094,29.59207],[78.96591,29.59596],[78.9608,29.59652],[78.9596,29.60958],[78.95452,29.61261],[78.95096,29.62009],[78.94422,29.62244],[78.94376,29.61921],[78.9376,29.61972],[78.93748,29.62263],[78.94072,29.62068],[78.94215,29.622],[78.93792,29.62861],[78.9317,29.63137],[78.92051,29.62987],[78.91881,29.63269],[78.91166,29.63619],[78.90631,29.64134],[78.90363,29.64129],[78.90099,29.64538],[78.89335,29.64994],[78.89018,29.64392],[78.88248,29.63907],[78.87903,29.63394],[78.87126,29.63205],[78.86799,29.62844],[78.86314,29.6275],[78.8618,29.62566],[78.85388,29.62504],[78.85317,29.62324],[78.84996,29.62543],[78.8468,29.62537],[78.84745,29.62073],[78.83877,29.61632],[78.83845,29.60744],[78.83952,29.60726],[78.83775,29.60493],[78.83351,29.60289],[78.83077,29.60495],[78.82653,29.60191],[78.81214,29.59629],[78.79921,29.59446],[78.77654,29.58774],[78.76163,29.5764],[78.76142,29.56976],[78.76409,29.56286],[78.76932,29.55923],[78.76737,29.55425],[78.76686,29.54318],[78.75958,29.5426],[78.75915,29.53008],[78.75769,29.52735],[78.75866,29.5228],[78.76067,29.52174],[78.75962,29.51554],[78.7561,29.5128],[78.76116,29.50485],[78.7612,29.49703]]]},"properties":{"AREA":522.408945073}},
{"type":"Feature","geometry":{"type":"Polygon","coordinates":[[[80.47352,29.94943],[80.46141,29.96808],[80.4597,29.97794],[80.45532,29.97346],[80.4485,29.97302],[80.43785,29.96077],[80.43135,29.95728],[80.41876,29.96021],[80.41357,29.95773],[80.40848,29.9527],[80.39977,29.94869],[80.39628,29.94476],[80.38195,29.9387],[80.37865,29.93907],[80.37491,29.94066],[80.37185,29.94505],[80.36039,29.94901],[80.35834,29.95267],[80.34882,29.95799],[80.34746,29.96888],[80.33307,29.98037],[80.3285,29.98706],[80.33135,29.98956],[80.31923,29.99412],[80.31693,29.98849],[80.31735,29.98503],[80.31355,29.98088],[80.31449,29.97668],[80.31309,29.96652],[80.30901,29.96539],[80.30717,29.95993],[80.30324,29.95815],[80.30267,29.94813],[80.29687,29.9472],[80.29008,29.94351],[80.28457,29.94298],[80.27327,29.93028],[80.26515,29.92623],[80.25949,29.92662],[80.25548,29.92478],[80.24146,29.92326],[80.23165,29.9264],[80.22541,29.9202],[80.21699,29.91946],[80.21509,29.91482],[80.21486,29.91337],[80.21832,29.91264],[80.22046,29.9102],[80.23259,29.90792],[80.2391,29.90933],[80.24777,29.89788],[80.25017,29.8966],[80.26288,29.89602],[80.26469,29.89272],[80.26863,29.89151],[80.27098,29.88556],[80.2706,29.87733],[80.26532,29.86813],[80.26592,29.86424],[80.26431,29.86148],[80.26543,29.85629],[80.2596,29.85064],[80.25555,29.84926],[80.25603,29.84472],[80.25391,29.84052],[80.24902,29.8378],[80.24891,29.82833],[80.24622,29.82553],[80.24669,29.81887],[80.24516,29.81626],[80.25395,29.81127],[80.2564,29.80804],[80.25382,29.80227],[80.26587,29.79394],[80.27725,29.79223],[80.27488,29.78471],[80.27935,29.77849],[80.28471,29.7757],[80.28524,29.77362],[80.29288,29.77341],[80.30041,29.76903],[80.30605,29.76984],[80.30887,29.7689],[80.31224,29.77041],[80.31621,29.76714],[80.3277,29.76888],[80.34011,29.76378],[80.34549,29.7664],[80.34827,29.76505],[80.35219,29.76556],[80.35635,29.76273],[80.36298,29.7611],[80.36502,29.75334],[80.37253,29.75352],[80.37809,29.74996],[80.38595,29.75135],[80.38591,29.75651],[80.38912,29.75997],[80.39797,29.75909],[80.39758,29.76507],[80.4015,29.77457],[80.4047,29.77774],[80.40452,29.78175],[80.40722,29.78357],[80.40755,29.79437],[80.41028,29.79461],[80.41399,29.79193],[80.41724,29.79539],[80.42808,29.79765],[80.43435,29.80426],[80.43791,29.8056],[80.44225,29.80053],[80.44597,29.79885],[80.44927,29.79878],[80.45606,29.802],[80.46654,29.80148],[80.48098,29.79508],[80.48435,29.79599],[80.4938,29.795],[80.49478,29.79694],[80.49255,29.80069],[80.49507,29.80176],[80.49569,29.80444],[80.49876,29.80711],[80.49796,29.81125],[80.50149,29.81686],[80.50975,29.82387],[80.52291,29.82739],[80.52388,29.83124],[80.52873,29.83364],[80.53112,29.83727],[80.53649,29.83822],[80.53765,29.84427],[80.54012,29.84672],[80.47352,29.94943]]]},"properties":{"AREA":475.817483735}},
{"type":"Feature","geometry":{"type":"Polygon","coordinates":[[[79.98291,29.0494],[80.01798,29.04424],[80.02326,28.94931],[80.01338,28.94726],[79.99529,28.93714],[79.99046,28.93143],[79.9829,28.91114],[79.98223,28.88346],[79.97778,28.86485],[79.97877,28.84384],[79.98822,28.8167],[79.99753,28.80535],[80.00721,28.78532],[80.02025,28.77222],[80.03168,28.75072],[80.05227,28.77828],[80.05545,28.78125],[80.06174,28.7832],[80.05867,28.78839],[80.06488,28.79443],[80.0662,28.8003],[80.06802,28.80111],[80.06705,28.80488],[80.05922,28.8168],[80.05179,28.82037],[80.05979,28.82539],[80.06292,28.83467],[80.06508,28.83667],[80.05891,28.91569],[80.07783,28.94599],[80.05466,28.94758],[80.04933,29.05677],[80.04785,29.06368],[80.06852,29.06693],[80.09667,29.07655],[80.11747,29.09302],[80.1315,29.10004],[80.14472,29.10264],[80.15765,29.11014],[80.16318,29.11601],[80.16527,29.12483],[80.16759,29.12638],[80.15979,29.12983],[80.14269,29.13014],[80.12153,29.12622],[80.0993,29.11552],[80.08025,29.10026],[80.06007,29.09347],[80.03627,29.08981],[80.02738,29.10968],[80.02832,29.10632],[80.02612,29.09589],[80.01752,29.09912],[80.01727,29.08612],[80.01392,29.07233],[79.99432,29.05133],[79.98291,29.0494]]]},"properties":{"AREA":234.031516994}}
]}