{"type":"FeatureCollection", "features": [
{"type":"Feature","geometry":{"type":"Point","coordinates":[79.63695,29.59389]},"properties":{"Ss_Name":"33/11 kV Khatyari S/s","Ss_Id":"UPCL-KT","Ss_Cc_Mva":16,"Ss_Status":"Operatonal"}},
{"type":"Feature","geometry":{"type":"Point","coordinates":[79.66938,29.59724]},"properties":{"Ss_Name":"33/11 kV Buck S/s","Ss_Id":"UPCL-BK","Ss_Cc_Mva":10,"Ss_Status":"Operatonal"}},
{"type":"Feature","geometry":{"type":"Point","coordinates":[79.66295,29.61013]},"properties":{"Ss_Name":"33/11 kV Laxmeshwar S/s","Ss_Id":"UPCL-LX","Ss_Cc_Mva":8,"Ss_Status":"Operatonal"}},
{"type":"Feature","geometry":{"type":"Point","coordinates":[79.442,29.64303]},"properties":{"Ss_Name":"33/11kV Ranikhet S/s","Ss_Id":"UPCL-RN","Ss_Cc_Mva":8.15,"Ss_Status":"Operatonal"}},
{"type":"Feature","geometry":{"type":"Point","coordinates":[79.42427,29.75328]},"properties":{"Ss_Name":"33/11kv Dwarahat S/s","Ss_Id":"UPCL-DH","Ss_Cc_Mva":6.3,"Ss_Status":"Operatonal"}},
{"type":"Feature","geometry":{"type":"Point","coordinates":[79.77005,29.82961]},"properties":{"Ss_Name":"33/11 KV Bageshwar S/s","Ss_Id":"UPCL-BG","Ss_Cc_Mva":10,"Ss_Status":"Operatonal"}},
{"type":"Feature","geometry":{"type":"Point","coordinates":[79.3137,30.39373]},"properties":{"Ss_Name":"66/33/11 kV KOTHIYAL SAIN S/s","Ss_Id":"UPCL-GK","Ss_Cc_Mva":15.5,"Ss_Status":"Operatonal"}},
{"type":"Feature","geometry":{"type":"Point","coordinates":[79.55119,30.56235]},"properties":{"Ss_Name":"66/33/11 kV Marwari S/s","Ss_Id":"UPCL-MR","Ss_Cc_Mva":17.5,"Ss_Status":"Operatonal"}},
{"type":"Feature","geometry":{"type":"Point","coordinates":[79.16692,30.2752]},"properties":{"Ss_Name":"33/11 kv Gauchar S/s","Ss_Id":"UPCL-GC","Ss_Cc_Mva":5,"Ss_Status":"Operatonal"}},
{"type":"Feature","geometry":{"type":"Point","coordinates":[79.21991,30.26147]},"properties":{"Ss_Name":"66/33/11kv Karanprayag s/s","Ss_Id":"UPCL-KG","Ss_Cc_Mva":5,"Ss_Status":"Operatonal"}},
{"type":"Feature","geometry":{"type":"Point","coordinates":[79.54598,30.63389]},"properties":{"Ss_Name":"33/11 KV Pandukeshwar S/s","Ss_Id":"UPCL-PN","Ss_Cc_Mva":5,"Ss_Status":"Operatonal"}},
{"type":"Feature","geometry":{"type":"Point","coordinates":[79.32031,30.33277]},"properties":{"Ss_Name":"33/11 kV Nandprayag S/s","Ss_Id":"UPCL-NG","Ss_Cc_Mva":3,"Ss_Status":"Operatonal"}},
{"type":"Feature","geometry":{"type":"Point","coordinates":[80.10957,29.07408]},"properties":{"Ss_Name":"33/11 kV Tanakpur S/S","Ss_Id":"UPCL-TP","Ss_Cc_Mva":10,"Ss_Status":"Operatonal"}},
{"type":"Feature","geometry":{"type":"Point","coordinates":[80.08446,29.40861]},"properties":{"Ss_Name":"33/11kv Lohaghat S/s","Ss_Id":"UPCL-LG","Ss_Cc_Mva":6.3,"Ss_Status":"Operatonal"}},
{"type":"Feature","geometry":{"type":"Point","coordinates":[80.10151,29.33024]},"properties":{"Ss_Name":"33/11kv Champawat S/s","Ss_Id":"UPCL-CW","Ss_Cc_Mva":6.15,"Ss_Status":"Operatonal"}},
{"type":"Feature","geometry":{"type":"Point","coordinates":[77.87486,30.68656]},"properties":{"Ss_Name":"33/11 KV Chakrata S/s","Ss_Id":"UPCL-CK","Ss_Cc_Mva":6.5,"Ss_Status":"Operatonal"}},
{"type":"Feature","geometry":{"type":"Point","coordinates":[78.02595,30.32593]},"properties":{"Ss_Name":"33/11 kV GOVINDGARH S/s","Ss_Id":"UPCL-GG","Ss_Cc_Mva":10,"Ss_Status":"Operatonal"}},
{"type":"Feature","geometry":{"type":"Point","coordinates":[78.05128,30.307]},"properties":{"Ss_Name":"33/11 kV ARAGHAR S/s","Ss_Id":"UPCL-AR","Ss_Cc_Mva":26,"Ss_Status":"Operatonal"}},
{"type":"Feature","geometry":{"type":"Point","coordinates":[78.03794,30.33577]},"properties":{"Ss_Name":"33/11 kV BINDAL S/s","Ss_Id":"UPCL-BD","Ss_Cc_Mva":13,"Ss_Status":"Operatonal"}},
{"type":"Feature","geometry":{"type":"Point","coordinates":[78.04794,30.32638]},"properties":{"Ss_Name":"33/11 kV PARADE GROUND S/s","Ss_Id":"UPCL-PD","Ss_Cc_Mva":20,"Ss_Status":"Operatonal"}},
{"type":"Feature","geometry":{"type":"Point","coordinates":[78.04282,30.32088]},"properties":{"Ss_Name":"33/11 kV PATEL ROAD S/s","Ss_Id":"UPCL-PR","Ss_Cc_Mva":16,"Ss_Status":"Operatonal"}},
{"type":"Feature","geometry":{"type":"Point","coordinates":[78.02874,30.33727]},"properties":{"Ss_Name":"132/33 kV ONGC S/s","Ss_Id":"UPCL-OG","Ss_Cc_Mva":1.5,"Ss_Status":"Operatonal"}},
{"type":"Feature","geometry":{"type":"Point","coordinates":[78.05393,30.30059]},"properties":{"Ss_Name":"33/11 kV NEHRU COLONY S/s","Ss_Id":"UPCL-NC","Ss_Cc_Mva":10,"Ss_Status":"Operatonal"}},
{"type":"Feature","geometry":{"type":"Point","coordinates":[78.0518,30.32654]},"properties":{"Ss_Name":"33/11 kV E C ROAD S/s","Ss_Id":"UPCL-EC","Ss_Cc_Mva":13,"Ss_Status":"Operatonal"}},
{"type":"Feature","geometry":{"type":"Point","coordinates":[78.04934,30.28046]},"properties":{"Ss_Name":"33/11 kV AJABPUR S/s","Ss_Id":"UPCL-AB","Ss_Cc_Mva":10,"Ss_Status":"Operatonal"}},
{"type":"Feature","geometry":{"type":"Point","coordinates":[78.02576,30.31523]},"properties":{"Ss_Name":"33/11 kV SAHARANPUR ROAD S/s","Ss_Id":"UPCL-SR","Ss_Cc_Mva":16,"Ss_Status":"Operatonal"}},
{"type":"Feature","geometry":{"type":"Point","coordinates":[78.01526,30.30216]},"properties":{"Ss_Name":"33/11 kV NIRANJANPUR S/s","Ss_Id":"UPCL-NR","Ss_Cc_Mva":20,"Ss_Status":"Operatonal"}},
{"type":"Feature","geometry":{"type":"Point","coordinates":[77.99602,30.28934]},"properties":{"Ss_Name":"33/11 kV Turner Road S/s","Ss_Id":"UPCL-TR","Ss_Cc_Mva":23,"Ss_Status":"Operatonal"}},
{"type":"Feature","geometry":{"type":"Point","coordinates":[78.03245,30.28284]},"properties":{"Ss_Name":"33/11 kV KARGI S/s","Ss_Id":"UPCL-KA","Ss_Cc_Mva":10,"Ss_Status":"Operatonal"}},
{"type":"Feature","geometry":{"type":"Point","coordinates":[78.00933,30.34524]},"properties":{"Ss_Name":"33/11 kV Kaulagarh S/s","Ss_Id":"UPCL-KR","Ss_Cc_Mva":20,"Ss_Status":"Operatonal"}},
{"type":"Feature","geometry":{"type":"Point","coordinates":[77.99912,30.32748]},"properties":{"Ss_Name":"33/11 kV Vasant Vihar S/s","Ss_Id":"UPCL-VV","Ss_Cc_Mva":13,"Ss_Status":"Operatonal"}},
{"type":"Feature","geometry":{"type":"Point","coordinates":[78.05691,30.37047]},"properties":{"Ss_Name":"132/33 kV GE MES-3 S/s","Ss_Id":"UPCL-MS","Ss_Cc_Mva":1.5,"Ss_Status":"Operatonal"}},
{"type":"Feature","geometry":{"type":"Point","coordinates":[77.98209,30.3337]},"properties":{"Ss_Name":"132/33 kV I M A S/s","Ss_Id":"UPCL-IM","Ss_Cc_Mva":3,"Ss_Status":"Operatonal"}},
{"type":"Feature","geometry":{"type":"Point","coordinates":[78.01708,30.34413]},"properties":{"Ss_Name":"132/33 kV KDMIPE S/s","Ss_Id":"UPCL-DK","Ss_Cc_Mva":3,"Ss_Status":"Operatonal"}},
{"type":"Feature","geometry":{"type":"Point","coordinates":[78.01497,30.35442]},"properties":{"Ss_Name":"33/11 kV IHM Nimbuwala S/s","Ss_Id":"UPCL-NW","Ss_Cc_Mva":20,"Ss_Status":"Operatonal"}},
{"type":"Feature","geometry":{"type":"Point","coordinates":[78.00285,30.26411]},"properties":{"Ss_Name":"132/33 kV GE MES-1 S/s","Ss_Id":"UPCL-GE","Ss_Cc_Mva":3,"Ss_Status":"Operatonal"}},
{"type":"Feature","geometry":{"type":"Point","coordinates":[78.03053,30.35159]},"properties":{"Ss_Name":"132/33 kV GE MES-2 S/s","Ss_Id":"UPCL-ME","Ss_Cc_Mva":5,"Ss_Status":"Operatonal"}},
{"type":"Feature","geometry":{"type":"Point","coordinates":[77.99039,30.28081]},"properties":{"Ss_Name":"33/11 kV Transport Nagar S/s","Ss_Id":"UPCL-TG","Ss_Cc_Mva":16,"Ss_Status":"Operatonal"}},
{"type":"Feature","geometry":{"type":"Point","coordinates":[78.00407,30.35365]},"properties":{"Ss_Name":"33/11 kV AUDIT COLONY S/s","Ss_Id":"UPCL-AC","Ss_Cc_Mva":2250,"Ss_Status":"Operatonal"}},
{"type":"Feature","geometry":{"type":"Point","coordinates":[78.01126,30.32339]},"properties":{"Ss_Name":"33/11 kV Urja Bhawan S/s","Ss_Id":"UPCL-UB","Ss_Cc_Mva":20,"Ss_Status":"Operatonal"}},
{"type":"Feature","geometry":{"type":"Point","coordinates":[78.09279,30.392]},"properties":{"Ss_Name":"33/11 kV DHAKPATTI S/s","Ss_Id":"UPCL-DP","Ss_Cc_Mva":10,"Ss_Status":"Operatonal"}},
{"type":"Feature","geometry":{"type":"Point","coordinates":[78.06194,30.34883]},"properties":{"Ss_Name":"33/11 kV HATHIBARKALA S/s","Ss_Id":"UPCL-HB","Ss_Cc_Mva":13,"Ss_Status":"Operatonal"}},
{"type":"Feature","geometry":{"type":"Point","coordinates":[78.05847,30.37043]},"properties":{"Ss_Name":"33/11/6.6 kV ANARWALA S/s","Ss_Id":"UPCL-AW","Ss_Cc_Mva":11,"Ss_Status":"Operatonal"}},
{"type":"Feature","geometry":{"type":"Point","coordinates":[78.06508,30.33169]},"properties":{"Ss_Name":"33/11 kV SAHASTRADHARA S/s","Ss_Id":"UPCL-SD","Ss_Cc_Mva":16,"Ss_Status":"Operatonal"}},
{"type":"Feature","geometry":{"type":"Point","coordinates":[78.1908,30.00314]},"properties":{"Ss_Name":"Import point from Shantikunj","Ss_Id":"UPCL-SK","Ss_Cc_Mva":10,"Ss_Status":"Operatonal"}},
{"type":"Feature","geometry":{"type":"Point","coordinates":[78.0708,30.44777]},"properties":{"Ss_Name":"33/11 kV KYARKULI S/s","Ss_Id":"UPCL-KY","Ss_Cc_Mva":8,"Ss_Status":"Operatonal"}},
{"type":"Feature","geometry":{"type":"Point","coordinates":[78.06902,30.45796]},"properties":{"Ss_Name":"33/11 kV KUNJ BHAWAN S/s","Ss_Id":"UPCL-KB","Ss_Cc_Mva":5,"Ss_Status":"Operatonal"}},
{"type":"Feature","geometry":{"type":"Point","coordinates":[78.08929,30.45588]},"properties":{"Ss_Name":"33/11 kV LANDORE S/s","Ss_Id":"UPCL-LN","Ss_Cc_Mva":6.15,"Ss_Status":"Operatonal"}},
{"type":"Feature","geometry":{"type":"Point","coordinates":[78.29529,30.10369]},"properties":{"Ss_Name":"33/11 kV NAGAR PALIKA S/s","Ss_Id":"UPCL-NP","Ss_Cc_Mva":8,"Ss_Status":"Operatonal"}},
{"type":"Feature","geometry":{"type":"Point","coordinates":[78.27998,30.11421]},"properties":{"Ss_Name":"33/11 kV SHAIL VIHAR S/s","Ss_Id":"UPCL-SV","Ss_Cc_Mva":13,"Ss_Status":"Operatonal"}},
{"type":"Feature","geometry":{"type":"Point","coordinates":[78.28149,30.1063]},"properties":{"Ss_Name":"33/11 kV MANERI BHALLI S/s","Ss_Id":"UPCL-MB","Ss_Cc_Mva":1.5,"Ss_Status":"Operatonal"}},
{"type":"Feature","geometry":{"type":"Point","coordinates":[78.12358,30.19393]},"properties":{"Ss_Name":"33/11 kV Lacchiwala S/s","Ss_Id":"UPCL-LC","Ss_Cc_Mva":10,"Ss_Status":"Operatonal"}},
{"type":"Feature","geometry":{"type":"Point","coordinates":[77.74782,30.43393]},"properties":{"Ss_Name":"33/11 KV Herbertpur S/s","Ss_Id":"UPCL-HT","Ss_Cc_Mva":10,"Ss_Status":"Operatonal"}},
{"type":"Feature","geometry":{"type":"Point","coordinates":[78.28532,30.07381]},"properties":{"Ss_Name":"33/11 kV Bairaj S/s","Ss_Id":"UPCL-BR","Ss_Cc_Mva":13,"Ss_Status":"Operatonal"}},
{"type":"Feature","geometry":{"type":"Point","coordinates":[78.25504,30.06871]},"properties":{"Ss_Name":"33/11 kV Veerbhadra S/s","Ss_Id":"UPCL-VD","Ss_Cc_Mva":16,"Ss_Status":"Operatonal"}},
{"type":"Feature","geometry":{"type":"Point","coordinates":[78.05419,30.29355]},"properties":{"Ss_Name":"33/11 kV Doordarshan S/s","Ss_Id":"UPCL-DO","Ss_Cc_Mva":20,"Ss_Status":"Operatonal"}},
{"type":"Feature","geometry":{"type":"Point","coordinates":[78.03852,30.26025]},"properties":{"Ss_Name":"33/11 kV Mothrowala S/s","Ss_Id":"UPCL-MW","Ss_Cc_Mva":20,"Ss_Status":"Operatonal"}},
{"type":"Feature","geometry":{"type":"Point","coordinates":[78.01116,30.32341]},"properties":{"Ss_Name":"132/33 kV VICTORIA BHAWAN S/s","Ss_Id":"UPCL-VC","Ss_Cc_Mva":1.5,"Ss_Status":"Operatonal"}},
{"type":"Feature","geometry":{"type":"Point","coordinates":[78.0424,30.32406]},"properties":{"Ss_Name":"33/11 kV CLOCK TOWER S/s","Ss_Id":"UPCL-CT","Ss_Cc_Mva":10,"Ss_Status":"Operatonal"}},
{"type":"Feature","geometry":{"type":"Point","coordinates":[78.05413,30.4689]},"properties":{"Ss_Name":"33/11 kV HAPPY VALLEY S/s","Ss_Id":"UPCL-HV","Ss_Cc_Mva":6.15,"Ss_Status":"Operatonal"}},
{"type":"Feature","geometry":{"type":"Point","coordinates":[77.77365,30.47201]},"properties":{"Ss_Name":"33/11 kV Vikas Nagar S/s","Ss_Id":"UPCL-VN","Ss_Cc_Mva":13,"Ss_Status":"Operatonal"}},
{"type":"Feature","geometry":{"type":"Point","coordinates":[78.03311,30.29581]},"properties":{"Ss_Name":"33/11 kV Patri Bag S/s","Ss_Id":"UPCL-PB","Ss_Cc_Mva":20,"Ss_Status":"Operatonal"}},
{"type":"Feature","geometry":{"type":"Point","coordinates":[78.18249,29.97141]},"properties":{"Ss_Name":"33/11 kV BHOOPATWALA S/s","Ss_Id":"UPCL-BW","Ss_Cc_Mva":13,"Ss_Status":"Operatonal"}},
{"type":"Feature","geometry":{"type":"Point","coordinates":[78.0988,29.92035]},"properties":{"Ss_Name":"33/11 kV JWALAPUR-I S/s","Ss_Id":"UPCL-JW","Ss_Cc_Mva":13,"Ss_Status":"Operatonal"}},
{"type":"Feature","geometry":{"type":"Point","coordinates":[78.14646,29.94815]},"properties":{"Ss_Name":"33/11 kV INDUSTRIAL AREA S/s","Ss_Id":"UPCL-IA","Ss_Cc_Mva":13,"Ss_Status":"Operatonal"}},
{"type":"Feature","geometry":{"type":"Point","coordinates":[78.10242,29.93504]},"properties":{"Ss_Name":"33/11 kV JWALAPUR-II S/s","Ss_Id":"UPCL-JL","Ss_Cc_Mva":8,"Ss_Status":"Operatonal"}},
{"type":"Feature","geometry":{"type":"Point","coordinates":[78.11609,29.92002]},"properties":{"Ss_Name":"33/11 kV GURUKUL S/s","Ss_Id":"UPCL-GU","Ss_Cc_Mva":13,"Ss_Status":"Operatonal"}},
{"type":"Feature","geometry":{"type":"Point","coordinates":[78.17089,29.95325]},"properties":{"Ss_Name":"33/11 kV LALJIWALA S/s","Ss_Id":"UPCL-LW","Ss_Cc_Mva":16,"Ss_Status":"Operatonal"}},
{"type":"Feature","geometry":{"type":"Point","coordinates":[78.14356,29.9183]},"properties":{"Ss_Name":"33/11 kV KANKHAL- 2 S/s","Ss_Id":"UPCL-KK","Ss_Cc_Mva":13,"Ss_Status":"Operatonal"}},
{"type":"Feature","geometry":{"type":"Point","coordinates":[78.15758,29.93892]},"properties":{"Ss_Name":"33/11 kV BAIRAGI CAMP S/s","Ss_Id":"UPCL-BC","Ss_Cc_Mva":10,"Ss_Status":"Operatonal"}},
{"type":"Feature","geometry":{"type":"Point","coordinates":[78.14765,29.94031]},"properties":{"Ss_Name":"33/11 kV MAYAPUR S/s","Ss_Id":"UPCL-MP","Ss_Cc_Mva":13,"Ss_Status":"Operatonal"}},
{"type":"Feature","geometry":{"type":"Point","coordinates":[78.11469,29.93117]},"properties":{"Ss_Name":"33/11 kV BHEL SECTOR_2 S/s","Ss_Id":"UPCL-BS","Ss_Cc_Mva":13,"Ss_Status":"Operatonal"}},
{"type":"Feature","geometry":{"type":"Point","coordinates":[78.085,29.92804]},"properties":{"Ss_Name":"33/11 kV JWALAPUR-III S/s","Ss_Id":"UPCL-JP","Ss_Cc_Mva":10,"Ss_Status":"Operatonal"}},
{"type":"Feature","geometry":{"type":"Point","coordinates":[78.10381,29.93616]},"properties":{"Ss_Name":"Import Point From 132 kV JWALAPUR S/s","Ss_Id":"UPCL-JT","Ss_Cc_Mva":10,"Ss_Status":"Operatonal"}},
{"type":"Feature","geometry":{"type":"Point","coordinates":[78.17164,29.94083]},"properties":{"Ss_Name":"33/11 kV GOURI SHANKAR S/s","Ss_Id":"UPCL-GS","Ss_Cc_Mva":10,"Ss_Status":"Operatonal"}},
{"type":"Feature","geometry":{"type":"Point","coordinates":[78.02238,29.74379]},"properties":{"Ss_Name":"33/11 kV Laksar S/s","Ss_Id":"UPCL-LS","Ss_Cc_Mva":16,"Ss_Status":"Operatonal"}},
{"type":"Feature","geometry":{"type":"Point","coordinates":[77.93336,29.80807]},"properties":{"Ss_Name":"33/11 kV Landhora S/s","Ss_Id":"UPCL-LD","Ss_Cc_Mva":13,"Ss_Status":"Operatonal"}},
{"type":"Feature","geometry":{"type":"Point","coordinates":[77.86411,29.87281]},"properties":{"Ss_Name":"132/33/11 kV Ramnagar S/s","Ss_Id":"UPCL-RM","Ss_Cc_Mva":138,"Ss_Status":"Operatonal"}},
{"type":"Feature","geometry":{"type":"Point","coordinates":[77.88675,29.87318]},"properties":{"Ss_Name":"33/11 kV No.6 Canal S/s","Ss_Id":"UPCL-CL","Ss_Cc_Mva":24,"Ss_Status":"Operatonal"}},
{"type":"Feature","geometry":{"type":"Point","coordinates":[77.89273,29.87476]},"properties":{"Ss_Name":"33/11kV Solanipuram S/s","Ss_Id":"UPCL-SP","Ss_Cc_Mva":10,"Ss_Status":"Operatonal"}},
{"type":"Feature","geometry":{"type":"Point","coordinates":[77.866,29.87533]},"properties":{"Ss_Name":"33/11 kV Ramnagar New S/s","Ss_Id":"UPCL-RR","Ss_Cc_Mva":16,"Ss_Status":"Operatonal"}},
{"type":"Feature","geometry":{"type":"Point","coordinates":[77.86557,29.87551]},"properties":{"Ss_Name":"33/11 kV Ramnagar S/s","Ss_Id":"UPCL-RG","Ss_Cc_Mva":26,"Ss_Status":"Operatonal"}},
{"type":"Feature","geometry":{"type":"Point","coordinates":[77.77552,29.81423]},"properties":{"Ss_Name":"33/11 kV Jhabrera S/s","Ss_Id":"UPCL-JB","Ss_Cc_Mva":20,"Ss_Status":"Operatonal"}},
{"type":"Feature","geometry":{"type":"Point","coordinates":[77.86066,29.79098]},"properties":{"Ss_Name":"33/11 kV MANGLORE S/s","Ss_Id":"UPCL-MG","Ss_Cc_Mva":25,"Ss_Status":"Operatonal"}},
{"type":"Feature","geometry":{"type":"Point","coordinates":[77.87051,29.80856]},"properties":{"Ss_Name":"33/11 kV NEW MANGLORE S/s","Ss_Id":"UPCL-NM","Ss_Cc_Mva":25,"Ss_Status":"Operatonal"}},
{"type":"Feature","geometry":{"type":"Point","coordinates":[78.1605,29.94434]},"properties":{"Ss_Name":"33/11 kV LALTARO PUL S/s","Ss_Id":"UPCL-LP","Ss_Cc_Mva":20,"Ss_Status":"Operatonal"}},
{"type":"Feature","geometry":{"type":"Point","coordinates":[78.12088,29.92561]},"properties":{"Ss_Name":"33/11 kV ARYA NAGAR S/s","Ss_Id":"UPCL-AN","Ss_Cc_Mva":20,"Ss_Status":"Operatonal"}},
{"type":"Feature","geometry":{"type":"Point","coordinates":[78.14401,29.9273]},"properties":{"Ss_Name":"33/11 kV KANKHAL- 3 S/s","Ss_Id":"UPCL-KI","Ss_Cc_Mva":20,"Ss_Status":"Operatonal"}},
{"type":"Feature","geometry":{"type":"Point","coordinates":[79.53451,29.24938]},"properties":{"Ss_Name":"33/11 kV Kathgodam S/s","Ss_Id":"UPCL-KO","Ss_Cc_Mva":10,"Ss_Status":"Operatonal"}},
{"type":"Feature","geometry":{"type":"Point","coordinates":[79.5449,29.29248]},"properties":{"Ss_Name":"66/11 kV Rani Bag S/s","Ss_Id":"UPCL-RB","Ss_Cc_Mva":5,"Ss_Status":"Operatonal"}},
{"type":"Feature","geometry":{"type":"Point","coordinates":[79.51458,29.19239]},"properties":{"Ss_Name":"33/11 kV Transport Nagar S/s","Ss_Id":"UPCL-TN","Ss_Cc_Mva":16,"Ss_Status":"Operatonal"}},
{"type":"Feature","geometry":{"type":"Point","coordinates":[79.52985,29.20222]},"properties":{"Ss_Name":"33/11 kV Terha Bigha S/s","Ss_Id":"UPCL-TB","Ss_Cc_Mva":20,"Ss_Status":"Operatonal"}},
{"type":"Feature","geometry":{"type":"Point","coordinates":[79.53342,29.23111]},"properties":{"Ss_Name":"33/11 kV Subhash Nagar S/s","Ss_Id":"UPCL-SB","Ss_Cc_Mva":13,"Ss_Status":"Operatonal"}},
{"type":"Feature","geometry":{"type":"Point","coordinates":[79.5277,29.2146]},"properties":{"Ss_Name":"33/11 kV K.D Chauraha S/s","Ss_Id":"UPCL-KD","Ss_Cc_Mva":20,"Ss_Status":"Operatonal"}},
{"type":"Feature","geometry":{"type":"Point","coordinates":[79.44709,29.39363]},"properties":{"Ss_Name":"33/11 kV SUKHATAL S/s","Ss_Id":"UPCL-SH","Ss_Cc_Mva":10,"Ss_Status":"Operatonal"}},
{"type":"Feature","geometry":{"type":"Point","coordinates":[79.48323,29.38602]},"properties":{"Ss_Name":"33/11 kV PINES S/s","Ss_Id":"UPCL-PI","Ss_Cc_Mva":10,"Ss_Status":"Operatonal"}},
{"type":"Feature","geometry":{"type":"Point","coordinates":[79.12502,29.39336]},"properties":{"Ss_Name":"33/11 kV Ghasmandi S/s","Ss_Id":"UPCL-GM","Ss_Cc_Mva":13,"Ss_Status":"Operatonal"}},
{"type":"Feature","geometry":{"type":"Point","coordinates":[79.35305,29.26558]},"properties":{"Ss_Name":"33/11 KV Kaladhungi S/s","Ss_Id":"UPCL-KL","Ss_Cc_Mva":11.15,"Ss_Status":"Operatonal"}},
{"type":"Feature","geometry":{"type":"Point","coordinates":[79.54881,29.35847]},"properties":{"Ss_Name":"33/11 KV Bhimtal S/s","Ss_Id":"UPCL-BM","Ss_Cc_Mva":8.15,"Ss_Status":"Operatonal"}},
{"type":"Feature","geometry":{"type":"Point","coordinates":[79.52933,29.38129]},"properties":{"Ss_Name":"33/11kv Ghorakhal S/s","Ss_Id":"UPCL-GH","Ss_Cc_Mva":10,"Ss_Status":"Operatonal"}},
{"type":"Feature","geometry":{"type":"Point","coordinates":[79.51528,29.07205]},"properties":{"Ss_Name":"33/11 KV Lalkuwan S/s","Ss_Id":"UPCL-LK","Ss_Cc_Mva":15,"Ss_Status":"Operatonal"}},
{"type":"Feature","geometry":{"type":"Point","coordinates":[79.54427,29.36654]},"properties":{"Ss_Name":"33/11 KV Mehragaon S/s","Ss_Id":"UPCL-MH","Ss_Cc_Mva":5,"Ss_Status":"Operatonal"}},
{"type":"Feature","geometry":{"type":"Point","coordinates":[78.51687,29.74238]},"properties":{"Ss_Name":"33/11 kV Kotdwara S/s","Ss_Id":"UPCL-KW","Ss_Cc_Mva":10,"Ss_Status":"Operatonal"}},
{"type":"Feature","geometry":{"type":"Point","coordinates":[78.53603,29.75572]},"properties":{"Ss_Name":"33/11 kV Gavaisot S/s","Ss_Id":"UPCL-GV","Ss_Cc_Mva":10,"Ss_Status":"Operatonal"}},
{"type":"Feature","geometry":{"type":"Point","coordinates":[78.78588,30.2219]},"properties":{"Ss_Name":"33/11 kV SRINAGAR S/s","Ss_Id":"UPCL-SN","Ss_Cc_Mva":8.15,"Ss_Status":"Operatonal"}},
{"type":"Feature","geometry":{"type":"Point","coordinates":[78.60742,29.80504]},"properties":{"Ss_Name":"33/11 kV Dugadda S/s","Ss_Id":"UPCL-DG","Ss_Cc_Mva":3,"Ss_Status":"Operatonal"}},
{"type":"Feature","geometry":{"type":"Point","coordinates":[78.76428,30.15207]},"properties":{"Ss_Name":"33/11 kV RANSI S/s","Ss_Id":"UPCL-RS","Ss_Cc_Mva":8,"Ss_Status":"Operatonal"}},
{"type":"Feature","geometry":{"type":"Point","coordinates":[78.67906,29.86719]},"properties":{"Ss_Name":"33/11 kV Jaiharikhal S/s","Ss_Id":"UPCL-JK","Ss_Cc_Mva":10,"Ss_Status":"Operatonal"}},
{"type":"Feature","geometry":{"type":"Point","coordinates":[80.21092,29.57619]},"properties":{"Ss_Name":"33/11kV Pithoragarh S/s","Ss_Id":"UPCL-PG","Ss_Cc_Mva":16,"Ss_Status":"Operatonal"}},
{"type":"Feature","geometry":{"type":"Point","coordinates":[80.23705,29.57556]},"properties":{"Ss_Name":"33/11kV BIN S/s","Ss_Id":"UPCL-BI","Ss_Cc_Mva":10,"Ss_Status":"Operatonal"}},
{"type":"Feature","geometry":{"type":"Point","coordinates":[80.52338,29.83418]},"properties":{"Ss_Name":"33/11 KV Dharchula S/s","Ss_Id":"UPCL-DC","Ss_Cc_Mva":8,"Ss_Status":"Operatonal"}},
{"type":"Feature","geometry":{"type":"Point","coordinates":[80.26463,29.79347]},"properties":{"Ss_Name":"33/11 KV Didihat S/s","Ss_Id":"UPCL-DD","Ss_Cc_Mva":6,"Ss_Status":"Operatonal"}},
{"type":"Feature","geometry":{"type":"Point","coordinates":[79.09103,30.5228]},"properties":{"Ss_Name":"33/11KV Ukhimath S/s","Ss_Id":"UPCL-UM","Ss_Cc_Mva":5,"Ss_Status":"Operatonal"}},
{"type":"Feature","geometry":{"type":"Point","coordinates":[79.08191,30.52466]},"properties":{"Ss_Name":"33/11KV Guptakshi","Ss_Id":"UPCL-GT","Ss_Cc_Mva":5,"Ss_Status":"Operatonal"}},
{"type":"Feature","geometry":{"type":"Point","coordinates":[78.98587,30.29085]},"properties":{"Ss_Name":"33/11 kV Rudraprayag S/s","Ss_Id":"UPCL-RP","Ss_Cc_Mva":10,"Ss_Status":"Operatonal"}},
{"type":"Feature","geometry":{"type":"Point","coordinates":[78.74965,30.21871]},"properties":{"Ss_Name":"33/11 KV Kirtinagar S/s","Ss_Id":"UPCL-KN","Ss_Cc_Mva":8.15,"Ss_Status":"Operatonal"}},
{"type":"Feature","geometry":{"type":"Point","coordinates":[78.43388,30.37604]},"properties":{"Ss_Name":"33/11 kV NEW TEHRI S/s","Ss_Id":"UPCL-NT","Ss_Cc_Mva":13,"Ss_Status":"Operatonal"}},
{"type":"Feature","geometry":{"type":"Point","coordinates":[78.38554,30.34294]},"properties":{"Ss_Name":"33/11 kV Chamba S/s","Ss_Id":"UPCL-CB","Ss_Cc_Mva":10,"Ss_Status":"Operatonal"}},
{"type":"Feature","geometry":{"type":"Point","coordinates":[78.60085,30.15576]},"properties":{"Ss_Name":"33/11 KV Devprayag S/s","Ss_Id":"UPCL-DV","Ss_Cc_Mva":11.15,"Ss_Status":"Operatonal"}},
{"type":"Feature","geometry":{"type":"Point","coordinates":[78.28637,30.12642]},"properties":{"Ss_Name":"33/11 kV Dhalwala S/s","Ss_Id":"UPCL-DW","Ss_Cc_Mva":5,"Ss_Status":"Operatonal"}},
{"type":"Feature","geometry":{"type":"Point","coordinates":[78.30076,30.11849]},"properties":{"Ss_Name":"33/11 kV Muni ki Reti S/s","Ss_Id":"UPCL-MI","Ss_Cc_Mva":10,"Ss_Status":"Operatonal"}},
{"type":"Feature","geometry":{"type":"Point","coordinates":[78.28668,30.14724]},"properties":{"Ss_Name":"33/11 kV Narendranagar S/s","Ss_Id":"UPCL-NN","Ss_Cc_Mva":10,"Ss_Status":"Operatonal"}},
{"type":"Feature","geometry":{"type":"Point","coordinates":[79.14877,29.15996]},"properties":{"Ss_Name":"33/11 kV MANDI BAZPUR S/s","Ss_Id":"UPCL-MD","Ss_Cc_Mva":13,"Ss_Status":"Operatonal"}},
{"type":"Feature","geometry":{"type":"Point","coordinates":[79.12001,29.13268]},"properties":{"Ss_Name":"33/11 kV DORAHA S/s","Ss_Id":"UPCL-DR","Ss_Cc_Mva":18,"Ss_Status":"Operatonal"}},
{"type":"Feature","geometry":{"type":"Point","coordinates":[79.22897,29.04239]},"properties":{"Ss_Name":"33/11 kV GADARPUR S/s","Ss_Id":"UPCL-GP","Ss_Cc_Mva":13,"Ss_Status":"Operatonal"}},
{"type":"Feature","geometry":{"type":"Point","coordinates":[78.82981,29.2912]},"properties":{"Ss_Name":"33/11 kV Jaspur S/s","Ss_Id":"UPCL-JR","Ss_Cc_Mva":21,"Ss_Status":"Operatonal"}},
{"type":"Feature","geometry":{"type":"Point","coordinates":[78.84541,29.29068]},"properties":{"Ss_Name":"33/11 kV Amritpur Patti Jaspur S/s","Ss_Id":"UPCL-AP","Ss_Cc_Mva":16,"Ss_Status":"Operatonal"}},
{"type":"Feature","geometry":{"type":"Point","coordinates":[78.96453,29.23329]},"properties":{"Ss_Name":"33/11 kV Manpur S/s","Ss_Id":"UPCL-MN","Ss_Cc_Mva":13,"Ss_Status":"Operatonal"}},
{"type":"Feature","geometry":{"type":"Point","coordinates":[78.95474,29.21892]},"properties":{"Ss_Name":"33/11 kV Pakkakot S/s","Ss_Id":"UPCL-PK","Ss_Cc_Mva":16,"Ss_Status":"Operatonal"}},
{"type":"Feature","geometry":{"type":"Point","coordinates":[78.96705,29.20678]},"properties":{"Ss_Name":"33/11 kV Kashipur S/s","Ss_Id":"UPCL-KP","Ss_Cc_Mva":23,"Ss_Status":"Operatonal"}},
{"type":"Feature","geometry":{"type":"Point","coordinates":[79.96481,28.92721]},"properties":{"Ss_Name":"33/11kV KHATIMA S/s","Ss_Id":"UPCL-KH","Ss_Cc_Mva":16,"Ss_Status":"Operatonal"}},
{"type":"Feature","geometry":{"type":"Point","coordinates":[79.97029,28.91834]},"properties":{"Ss_Name":"33/11kV MELARAJ ROAD S/s","Ss_Id":"UPCL-ML","Ss_Cc_Mva":20,"Ss_Status":"Operatonal"}},
{"type":"Feature","geometry":{"type":"Point","coordinates":[79.40785,28.96354]},"properties":{"Ss_Name":"33/11kV Badhaipura S/s","Ss_Id":"UPCL-BH","Ss_Cc_Mva":23,"Ss_Status":"Operatonal"}},
{"type":"Feature","geometry":{"type":"Point","coordinates":[79.38885,28.97301]},"properties":{"Ss_Name":"33/11kV Navodaya S/s","Ss_Id":"UPCL-NY","Ss_Cc_Mva":20,"Ss_Status":"Operatonal"}},
{"type":"Feature","geometry":{"type":"Point","coordinates":[79.4007,28.98972]},"properties":{"Ss_Name":"33/11kV Matkota S/s","Ss_Id":"UPCL-MT","Ss_Cc_Mva":26,"Ss_Status":"Operatonal"}},
{"type":"Feature","geometry":{"type":"Point","coordinates":[79.39949,28.97228]},"properties":{"Ss_Name":"33/11 kV Circle Office S/s","Ss_Id":"UPCL-CO","Ss_Cc_Mva":20,"Ss_Status":"Operatonal"}},
{"type":"Feature","geometry":{"type":"Point","coordinates":[79.71124,28.9265]},"properties":{"Ss_Name":"33/11 kV SITARGANJ S/s","Ss_Id":"UPCL-SG","Ss_Cc_Mva":18,"Ss_Status":"Operatonal"}},
{"type":"Feature","geometry":{"type":"Point","coordinates":[79.16645,29.09897]},"properties":{"Ss_Name":"33/11 kV Kelakhera S/s","Ss_Id":"UPCL-KE","Ss_Cc_Mva":10,"Ss_Status":"Operatonal"}},
{"type":"Feature","geometry":{"type":"Point","coordinates":[79.32449,29.05491]},"properties":{"Ss_Name":"Dineshpur","Ss_Id":"UPCL-DN","Ss_Cc_Mva":18,"Ss_Status":"Operatonal"}},
{"type":"Feature","geometry":{"type":"Point","coordinates":[78.94863,29.13959]},"properties":{"Ss_Name":"33/11 kV Mahuakheraganj S/s","Ss_Id":"UPCL-MJ","Ss_Cc_Mva":23,"Ss_Status":"Operatonal"}},
{"type":"Feature","geometry":{"type":"Point","coordinates":[78.79038,29.27999]},"properties":{"Ss_Name":"33/11 KV Mahuadabra S/s","Ss_Id":"UPCL-MU","Ss_Cc_Mva":10,"Ss_Status":"Operatonal"}},
{"type":"Feature","geometry":{"type":"Point","coordinates":[79.68821,29.02939]},"properties":{"Ss_Name":"33/11 KV JailCamp S/s","Ss_Id":"UPCL-JC","Ss_Cc_Mva":13,"Ss_Status":"Operatonal"}},
{"type":"Feature","geometry":{"type":"Point","coordinates":[79.07348,29.1546]},"properties":{"Ss_Name":"33/11kv Pipaliya S/s","Ss_Id":"UPCL-ST","Ss_Cc_Mva":20,"Ss_Status":"Operatonal"}},
{"type":"Feature","geometry":{"type":"Point","coordinates":[79.50507,28.91433]},"properties":{"Ss_Name":"33/11 kV KICHHA S/s","Ss_Id":"UPCL-KC","Ss_Cc_Mva":98,"Ss_Status":"Operatonal"}},
{"type":"Feature","geometry":{"type":"Point","coordinates":[79.50573,28.9153]},"properties":{"Ss_Name":"33/11 kV GIS KICHHA S/s","Ss_Id":"UPCL-NK","Ss_Cc_Mva":20,"Ss_Status":"Operatonal"}}
]}