{"type":"FeatureCollection", "features": [
{"type":"Feature","geometry":{"type":"Polygon","coordinates":[[[78.23743,29.82649],[78.22623,29.82743],[78.21105,29.83211],[78.19535,29.83276],[78.19163,29.8365],[78.1808,29.8344],[78.17757,29.83029],[78.18281,29.82018],[78.1874,29.81551],[78.18762,29.80798],[78.19355,29.8032],[78.19467,29.797],[78.19376,29.79649],[78.18954,29.80229],[78.1819,29.80189],[78.17917,29.78837],[78.1859,29.77602],[78.19573,29.78036],[78.20059,29.77594],[78.20634,29.76666],[78.20656,29.76459],[78.20372,29.76237],[78.203,29.75923],[78.20484,29.75179],[78.21029,29.74971],[78.21381,29.75038],[78.21583,29.75324],[78.21898,29.76659],[78.23385,29.77273],[78.23542,29.77625],[78.23985,29.78016],[78.23731,29.78838],[78.23975,29.79289],[78.24311,29.80862],[78.2361,29.81378],[78.23743,29.82649]]]},"properties":{"Name":"Placemark","risk":5}},
{"type":"Feature","geometry":{"type":"Polygon","coordinates":[[[78.96373,29.31845],[78.96367,29.3211],[78.96148,29.31916],[78.96373,29.31845]]]},"properties":{"Name":"Placemark","risk":5}},
{"type":"Feature","geometry":{"type":"Polygon","coordinates":[[[78.99874,29.32067],[78.99506,29.32283],[78.99265,29.32065],[78.98867,29.3215],[78.98803,29.32074],[78.99009,29.3173],[78.99147,29.31707],[78.99555,29.31848],[79.00069,29.31775],[78.99874,29.32067]]]},"properties":{"Name":"Placemark","risk":2}},
{"type":"Feature","geometry":{"type":"Polygon","coordinates":[[[78.8286,29.368],[78.82581,29.36734],[78.82312,29.36055],[78.82337,29.35791],[78.81197,29.33999],[78.80115,29.3348],[78.80418,29.33074],[78.80473,29.32717],[78.80915,29.32646],[78.81016,29.32044],[78.80533,29.31904],[78.7982,29.31901],[78.79706,29.31729],[78.79858,29.31727],[78.79804,29.31607],[78.80155,29.31328],[78.81129,29.31731],[78.81164,29.32771],[78.81322,29.33034],[78.8141,29.33101],[78.81594,29.33007],[78.81924,29.33264],[78.82814,29.33449],[78.8307,29.33774],[78.82983,29.33863],[78.82795,29.33814],[78.82657,29.34002],[78.82479,29.33924],[78.82547,29.33754],[78.8229,29.33698],[78.82172,29.33896],[78.82592,29.34251],[78.82804,29.34232],[78.83541,29.35068],[78.83074,29.35149],[78.82718,29.35462],[78.82825,29.35993],[78.82636,29.36143],[78.8276,29.36377],[78.82586,29.36555],[78.83013,29.36785],[78.8286,29.368]]]},"properties":{"Name":"Placemark","risk":3}},
{"type":"Feature","geometry":{"type":"Polygon","coordinates":[[[79.25492,29.38104],[79.2665,29.40144],[79.26803,29.41265],[79.2669,29.41278],[79.26329,29.41905],[79.26549,29.41967],[79.27025,29.42733],[79.2771,29.43269],[79.28237,29.44568],[79.2795,29.45042],[79.27648,29.45188],[79.28137,29.45963],[79.27978,29.46117],[79.2786,29.45974],[79.27552,29.45983],[79.27674,29.46912],[79.2714,29.46673],[79.26934,29.46829],[79.26907,29.46526],[79.26621,29.46498],[79.26375,29.46802],[79.25855,29.46741],[79.25896,29.47043],[79.26262,29.47294],[79.26086,29.48026],[79.25966,29.48027],[79.25401,29.47378],[79.25401,29.47102],[79.25548,29.47054],[79.25351,29.46861],[79.25302,29.46544],[79.25872,29.46269],[79.25705,29.45942],[79.25275,29.46282],[79.25009,29.46048],[79.24982,29.46198],[79.24749,29.46061],[79.24585,29.46096],[79.23975,29.45497],[79.23828,29.45686],[79.24201,29.46084],[79.24397,29.46656],[79.2467,29.46906],[79.2454,29.46957],[79.23922,29.46305],[79.23449,29.46693],[79.23507,29.46867],[79.24383,29.4698],[79.24488,29.47121],[79.24201,29.47326],[79.23941,29.47953],[79.2363,29.48006],[79.23293,29.47872],[79.23232,29.48125],[79.23699,29.48549],[79.23133,29.49065],[79.22817,29.49091],[79.228,29.49295],[79.22949,29.4945],[79.22287,29.49907],[79.2195,29.49863],[79.21664,29.50098],[79.21444,29.50003],[79.20941,29.50179],[79.21353,29.50743],[79.21304,29.51265],[79.21064,29.51228],[79.20942,29.51336],[79.20646,29.51226],[79.20298,29.51385],[79.20367,29.52034],[79.19545,29.52674],[79.17717,29.53588],[79.16911,29.53495],[79.1608,29.53823],[79.1467,29.5405],[79.14529,29.54248],[79.14666,29.5438],[79.14641,29.54684],[79.14429,29.5517],[79.14188,29.55301],[79.13951,29.553],[79.1355,29.54904],[79.12973,29.54877],[79.12408,29.54563],[79.11166,29.54377],[79.10976,29.5469],[79.11035,29.55267],[79.11105,29.55419],[79.11233,29.55411],[79.11257,29.55642],[79.11001,29.55945],[79.10545,29.56026],[79.09496,29.56766],[79.09209,29.56812],[79.09272,29.57332],[79.09712,29.57658],[79.09808,29.5817],[79.10066,29.58353],[79.10692,29.58274],[79.11311,29.58452],[79.11558,29.58737],[79.12158,29.58616],[79.12723,29.58341],[79.13052,29.58417],[79.12744,29.58812],[79.12579,29.59774],[79.12186,29.60111],[79.11935,29.59957],[79.11219,29.59975],[79.10855,29.60102],[79.10598,29.60442],[79.09348,29.6057],[79.09794,29.60783],[79.09642,29.61236],[79.09747,29.61594],[79.09571,29.61646],[79.09574,29.61872],[79.09365,29.62164],[79.09589,29.62769],[79.08768,29.62946],[79.08609,29.62792],[79.07974,29.62659],[79.07834,29.62225],[79.08007,29.61948],[79.07903,29.61877],[79.07303,29.6221],[79.06966,29.62185],[79.06763,29.6139],[79.06623,29.6117],[79.06367,29.61067],[79.06389,29.60555],[79.06129,29.60499],[79.05498,29.6062],[79.04952,29.60329],[79.04565,29.60281],[79.04407,29.60447],[79.0418,29.60337],[79.03684,29.60548],[79.03657,29.60644],[79.03892,29.60675],[79.02961,29.61233],[79.0297,29.6153],[79.03257,29.61713],[79.02902,29.61904],[79.02786,29.62156],[79.02385,29.62221],[79.0218,29.62107],[79.01464,29.62342],[79.01312,29.62264],[79.01197,29.62387],[79.00235,29.62469],[79.00428,29.62593],[79.01788,29.62386],[79.01589,29.63199],[79.01386,29.63499],[79.00668,29.63253],[79.00415,29.63495],[79.0024,29.62988],[78.99689,29.62855],[78.99528,29.63596],[78.99264,29.63641],[78.98756,29.63319],[78.98241,29.63364],[78.97997,29.63674],[78.97238,29.64065],[78.96706,29.64275],[78.96253,29.64157],[78.95876,29.6462],[78.95382,29.64759],[78.95039,29.647],[78.94466,29.65159],[78.93815,29.65215],[78.93517,29.65813],[78.92779,29.65789],[78.92597,29.66073],[78.92311,29.65932],[78.91852,29.65932],[78.91087,29.66375],[78.90672,29.6682],[78.89921,29.66884],[78.89881,29.67093],[78.89673,29.67224],[78.88914,29.67244],[78.89022,29.66706],[78.89302,29.66472],[78.89521,29.65873],[78.89742,29.65871],[78.89951,29.65695],[78.90968,29.65663],[78.91255,29.65335],[78.91606,29.65218],[78.91905,29.6476],[78.92462,29.64559],[78.92945,29.6453],[78.93237,29.64277],[78.93838,29.64507],[78.94147,29.64464],[78.94166,29.64322],[78.93303,29.63825],[78.92677,29.63929],[78.91415,29.6486],[78.90898,29.65441],[78.90492,29.65321],[78.88955,29.65541],[78.8886,29.65672],[78.87592,29.66015],[78.87385,29.66273],[78.85688,29.6667],[78.85082,29.67116],[78.84892,29.67471],[78.84674,29.67586],[78.84678,29.67871],[78.84463,29.68078],[78.85075,29.68067],[78.8545,29.68309],[78.85491,29.6882],[78.85609,29.69139],[78.85939,29.69429],[78.85875,29.69596],[78.84868,29.69698],[78.84491,29.69861],[78.84347,29.69785],[78.84085,29.70001],[78.83386,29.69905],[78.8279,29.70072],[78.8236,29.70803],[78.82059,29.70944],[78.81968,29.71217],[78.81587,29.71175],[78.8146,29.71367],[78.81147,29.71481],[78.80915,29.71895],[78.80537,29.72001],[78.8016,29.72378],[78.79605,29.72487],[78.79643,29.72793],[78.79454,29.72991],[78.78947,29.72905],[78.7877,29.7236],[78.78467,29.72532],[78.78244,29.72404],[78.776,29.72888],[78.77221,29.73014],[78.76861,29.73304],[78.76839,29.73592],[78.77072,29.7365],[78.77059,29.7388],[78.76269,29.74424],[78.75943,29.74514],[78.76388,29.74602],[78.76517,29.74774],[78.76067,29.74857],[78.75959,29.7508],[78.75534,29.74812],[78.74865,29.74968],[78.73619,29.75862],[78.74021,29.75954],[78.74152,29.76418],[78.74433,29.76586],[78.7394,29.76501],[78.73405,29.7676],[78.73715,29.77182],[78.73605,29.77337],[78.73195,29.77556],[78.72992,29.77281],[78.72587,29.77171],[78.72107,29.77676],[78.72132,29.78183],[78.7186,29.78381],[78.70819,29.78203],[78.70068,29.78655],[78.69927,29.78618],[78.69982,29.78437],[78.70169,29.78414],[78.70357,29.77999],[78.70104,29.77952],[78.69993,29.78131],[78.69632,29.78193],[78.69503,29.78503],[78.69642,29.7848],[78.69733,29.78702],[78.69593,29.79038],[78.68948,29.79369],[78.6889,29.79925],[78.68638,29.799],[78.68378,29.79648],[78.68508,29.80048],[78.67716,29.79487],[78.6773,29.79314],[78.67437,29.79067],[78.67784,29.78929],[78.67967,29.78676],[78.67652,29.78023],[78.66885,29.77953],[78.66725,29.77636],[78.66773,29.77079],[78.65929,29.77799],[78.65355,29.77921],[78.651,29.77769],[78.64906,29.78189],[78.6455,29.78301],[78.6457,29.7876],[78.64854,29.78783],[78.65051,29.78948],[78.64773,29.7924],[78.6505,29.79894],[78.64294,29.8001],[78.64032,29.80332],[78.63635,29.80183],[78.63299,29.80316],[78.62965,29.79897],[78.62678,29.79801],[78.61994,29.80398],[78.61758,29.79916],[78.61767,29.79293],[78.61567,29.79252],[78.61252,29.78942],[78.61244,29.78769],[78.60804,29.78673],[78.59668,29.7911],[78.60073,29.80045],[78.59371,29.79967],[78.59171,29.79814],[78.58476,29.80185],[78.57976,29.80195],[78.57685,29.80466],[78.57252,29.80538],[78.574,29.79967],[78.57902,29.79248],[78.5735,29.78599],[78.56917,29.79173],[78.56531,29.79292],[78.5634,29.79515],[78.55801,29.79624],[78.55126,29.8003],[78.55055,29.79829],[78.54845,29.80084],[78.54845,29.80295],[78.54675,29.80404],[78.54332,29.8023],[78.54276,29.80357],[78.54098,29.8027],[78.54028,29.8045],[78.54413,29.80619],[78.5414,29.81146],[78.54439,29.81301],[78.54204,29.8134],[78.54046,29.81755],[78.53654,29.81722],[78.53045,29.81045],[78.53024,29.80793],[78.52421,29.8087],[78.52171,29.80629],[78.52179,29.80889],[78.51865,29.80937],[78.51975,29.80601],[78.51448,29.80153],[78.50854,29.80426],[78.50289,29.81178],[78.49606,29.8112],[78.48754,29.81301],[78.48807,29.80746],[78.48329,29.79922],[78.4832,29.79158],[78.48052,29.79096],[78.47912,29.78752],[78.47859,29.78078],[78.4803,29.78007],[78.47934,29.77881],[78.48062,29.77703],[78.47919,29.76819],[78.48821,29.76358],[78.49983,29.76356],[78.5101,29.76031],[78.5187,29.75609],[78.53025,29.75626],[78.54105,29.75856],[78.5361,29.75637],[78.53426,29.75058],[78.53549,29.74998],[78.53388,29.74288],[78.53484,29.74023],[78.53268,29.73355],[78.53371,29.7281],[78.52854,29.72513],[78.53049,29.71702],[78.52675,29.71241],[78.52624,29.70769],[78.52702,29.70464],[78.52596,29.70056],[78.52739,29.6949],[78.52306,29.69016],[78.52171,29.68257],[78.52503,29.67333],[78.52413,29.66774],[78.52304,29.65822],[78.52534,29.65611],[78.53395,29.63918],[78.54008,29.63217],[78.54189,29.62723],[78.54848,29.62391],[78.56559,29.60297],[78.58206,29.58589],[78.58613,29.58394],[78.6205,29.55765],[78.62552,29.55684],[78.64023,29.54709],[78.64863,29.54664],[78.65362,29.54456],[78.66201,29.53698],[78.67851,29.52583],[78.69866,29.50798],[78.70626,29.50268],[78.71605,29.50059],[78.72109,29.50249],[78.73086,29.50045],[78.73273,29.50199],[78.73876,29.50067],[78.74331,29.50121],[78.75355,29.49801],[78.75748,29.49547],[78.76133,29.49016],[78.77425,29.48033],[78.80129,29.46472],[78.81149,29.46634],[78.82828,29.45877],[78.83763,29.45764],[78.83922,29.45795],[78.84017,29.46023],[78.83497,29.46131],[78.83603,29.46359],[78.84277,29.4666],[78.84404,29.46523],[78.84695,29.46622],[78.84899,29.46334],[78.84495,29.46147],[78.84285,29.45795],[78.84614,29.45776],[78.85082,29.45964],[78.85282,29.45762],[78.85223,29.4543],[78.87953,29.44416],[78.88364,29.44404],[78.88433,29.45097],[78.89291,29.45289],[78.89714,29.45167],[78.89499,29.44738],[78.89903,29.44545],[78.897,29.44184],[78.90139,29.4415],[78.90549,29.4389],[78.91154,29.43725],[78.91375,29.44064],[78.92218,29.44038],[78.92088,29.43694],[78.91862,29.43546],[78.91959,29.43443],[78.92628,29.43429],[78.93634,29.43822],[78.94342,29.43875],[78.94085,29.43524],[78.94312,29.43469],[78.94045,29.43458],[78.93274,29.4306],[78.92635,29.42517],[78.92514,29.41989],[78.92242,29.41607],[78.92258,29.41328],[78.9195,29.40969],[78.91997,29.40395],[78.91309,29.40094],[78.91184,29.39809],[78.91221,29.39422],[78.90327,29.38494],[78.89418,29.38163],[78.88867,29.37266],[78.88141,29.37485],[78.87804,29.37407],[78.87827,29.37252],[78.8826,29.36974],[78.88236,29.36775],[78.88034,29.3664],[78.88051,29.36426],[78.86787,29.36011],[78.86343,29.35748],[78.85306,29.36018],[78.85321,29.35512],[78.8583,29.35011],[78.86116,29.35113],[78.86633,29.34975],[78.87105,29.34521],[78.87698,29.34703],[78.87793,29.34838],[78.87675,29.34891],[78.87945,29.35358],[78.88759,29.34191],[78.89433,29.34546],[78.90212,29.34602],[78.9127,29.3448],[78.91912,29.34202],[78.92903,29.34147],[78.9332,29.33632],[78.94034,29.33236],[78.94992,29.32914],[78.95296,29.32536],[78.95668,29.32469],[78.95979,29.32138],[78.96377,29.34189],[78.96664,29.34735],[78.97231,29.35067],[78.9709,29.3536],[78.97266,29.3557],[78.99961,29.34398],[79.00217,29.33989],[79.00185,29.33679],[79.00534,29.33242],[79.00483,29.32764],[78.99882,29.32572],[79.00165,29.32364],[79.00272,29.32078],[79.00518,29.32057],[79.01387,29.3276],[79.01956,29.32468],[79.02236,29.32657],[79.02757,29.32115],[79.03046,29.31332],[79.08885,29.35902],[79.10396,29.37614],[79.12232,29.37616],[79.13846,29.38468],[79.14058,29.37638],[79.14638,29.36747],[79.14745,29.3619],[79.14609,29.35877],[79.15428,29.34588],[79.16727,29.33811],[79.17685,29.33457],[79.1806,29.32911],[79.1831,29.32079],[79.1852,29.32845],[79.19422,29.33635],[79.20419,29.33957],[79.21255,29.34016],[79.21989,29.34232],[79.22757,29.34937],[79.23486,29.34731],[79.23916,29.35101],[79.24053,29.36317],[79.24057,29.36578],[79.23938,29.36578],[79.23857,29.36472],[79.23911,29.36639],[79.25131,29.37238],[79.2513,29.37417],[79.25521,29.37861],[79.25492,29.38104]]]},"properties":{"Name":"Placemark","risk":5}},
{"type":"Feature","geometry":{"type":"MultiPolygon","coordinates":[[[[79.94753,28.73849],[79.94633,28.74479],[79.94408,28.74794],[79.94651,28.74216],[79.94461,28.73715],[79.94753,28.73849]]],[[[79.9389,28.75306],[79.94257,28.75566],[79.94362,28.75846],[79.94321,28.75978],[79.94315,28.75798],[79.9389,28.75306]]]]},"properties":{"Name":"Placemark","risk":3}},
{"type":"Feature","geometry":{"type":"MultiPolygon","coordinates":[[[[79.94771,28.72818],[79.9444,28.73296],[79.94639,28.72919],[79.95038,28.72613],[79.94771,28.72818]]],[[[79.97082,28.72851],[80.02997,28.74856],[79.95316,28.72428],[79.9544,28.72286],[79.97082,28.72851]]]]},"properties":{"Name":"Placemark","risk":3}},
{"type":"Feature","geometry":{"type":"Polygon","coordinates":[[[79.94032,28.788],[79.92843,28.78969],[79.93982,28.78772],[79.9248,28.77523],[79.94032,28.788]]]},"properties":{"Name":"Placemark","risk":3}},
{"type":"Feature","geometry":{"type":"Polygon","coordinates":[[[78.248,30.03735],[78.24837,30.03586],[78.2209,30.05498],[78.22292,30.05683],[78.21937,30.05574],[78.21514,30.05843],[78.21001,30.06526],[78.20964,30.06799],[78.20374,30.07237],[78.19576,30.06682],[78.18667,30.06867],[78.18027,30.07098],[78.16764,30.08267],[78.1613,30.08445],[78.15463,30.08875],[78.14443,30.08718],[78.14246,30.09204],[78.13416,30.09686],[78.12882,30.10245],[78.1268,30.10766],[78.12236,30.10801],[78.12102,30.11443],[78.11529,30.1144],[78.11281,30.11644],[78.11293,30.1216],[78.10825,30.12654],[78.11047,30.12898],[78.10608,30.12738],[78.07614,30.15732],[78.06633,30.16965],[78.07684,30.17463],[78.09046,30.17285],[78.0885,30.17527],[78.08074,30.17883],[78.07549,30.18497],[78.06829,30.19032],[78.06418,30.1945],[78.06326,30.19801],[78.05778,30.20627],[78.04786,30.21546],[78.04352,30.21907],[78.04074,30.21645],[78.03778,30.22137],[78.03123,30.2225],[78.03081,30.22472],[78.02505,30.2318],[78.02622,30.23375],[78.02209,30.23841],[78.02323,30.24993],[78.01489,30.24928],[78.00822,30.25356],[78.0067,30.25114],[77.99827,30.24724],[77.98758,30.24727],[77.97954,30.24402],[77.9775,30.24467],[77.97648,30.24673],[77.96839,30.23901],[77.96457,30.23847],[77.96377,30.23734],[77.96062,30.23679],[77.95613,30.24023],[77.95508,30.23779],[77.94828,30.23337],[77.94704,30.22917],[77.94304,30.22746],[77.94065,30.22409],[77.94052,30.22123],[77.93647,30.21793],[77.93564,30.2149],[77.93078,30.21206],[77.92467,30.21277],[77.92006,30.21098],[77.91942,30.20605],[77.92124,30.20431],[77.91566,30.199],[77.91418,30.19399],[77.91571,30.19113],[77.91178,30.18618],[77.91202,30.18253],[77.90874,30.17859],[77.89965,30.17183],[77.90079,30.16984],[77.88369,30.15135],[77.87853,30.14105],[77.93136,30.10017],[77.92197,30.09188],[77.91953,30.08733],[77.92003,30.0814],[77.93293,30.07333],[77.96145,30.04461],[77.97625,30.0332],[77.97191,30.02652],[77.98395,30.01421],[77.99425,30.01121],[78.00326,30.00254],[78.01192,29.99724],[78.01541,29.99849],[78.01446,29.99971],[78.02193,30.0073],[78.03602,30.00386],[78.03642,30.0026],[78.03311,30.00053],[78.03386,29.99792],[78.04004,29.9952],[78.045,29.99653],[78.05101,29.98811],[78.08372,29.96503],[78.11141,29.94957],[78.13853,29.93813],[78.13959,29.93972],[78.14214,29.93994],[78.14218,29.94151],[78.14423,29.94242],[78.14834,29.9483],[78.15735,29.95157],[78.16481,29.95283],[78.17027,29.9568],[78.17284,29.96361],[78.17059,29.96775],[78.17115,29.97116],[78.17254,29.97356],[78.17613,29.9739],[78.18019,29.97815],[78.18392,29.9904],[78.18977,29.99641],[78.18892,29.99768],[78.19003,30.00393],[78.18739,30.01049],[78.18843,30.01283],[78.19012,30.00937],[78.19265,30.00776],[78.2031,30.00241],[78.20955,30.00056],[78.2104,30.00152],[78.21227,29.99947],[78.25143,30.03551],[78.248,30.03735]]]},"properties":{"Name":"Placemark","risk":5}},
{"type":"Feature","geometry":{"type":"Polygon","coordinates":[[[80.03627,29.08981],[80.01599,29.13496],[80.0122,29.13917],[80.00687,29.14179],[79.84029,29.14838],[79.7999,29.16171],[79.71409,29.21112],[79.70389,29.23424],[79.69885,29.23982],[79.64532,29.26442],[79.60857,29.29534],[79.57925,29.30527],[79.56831,29.3163],[79.56316,29.3192],[79.55104,29.32052],[79.54122,29.31845],[79.53253,29.31466],[79.52292,29.30774],[79.51085,29.3064],[79.49909,29.30102],[79.48748,29.30433],[79.46108,29.30571],[79.45548,29.30357],[79.4448,29.29521],[79.44332,29.26399],[79.45051,29.26303],[79.45728,29.26495],[79.4699,29.27808],[79.48229,29.27714],[79.49669,29.27294],[79.51215,29.27569],[79.52315,29.27415],[79.52728,29.27224],[79.53431,29.26612],[79.5415,29.26356],[79.54304,29.25513],[79.55087,29.24625],[79.55034,29.24119],[79.55159,29.23685],[79.56039,29.22195],[79.56846,29.21651],[79.5713,29.2039],[79.5741,29.19913],[79.5886,29.1892],[79.60156,29.17704],[79.61105,29.17063],[79.63418,29.14787],[79.63931,29.14496],[79.66824,29.13571],[79.69521,29.13488],[79.71231,29.13763],[79.72644,29.13183],[79.73436,29.11694],[79.77301,29.0756],[79.7784,29.07189],[79.7853,29.07057],[79.83869,29.07114],[79.9253,29.06704],[79.98185,29.0496],[80.01798,29.04424],[80.04785,29.06368],[80.04788,29.06368],[80.03627,29.08981]],[[79.57119,29.27859],[79.59076,29.27237],[79.6276,29.24159],[79.67703,29.21899],[79.68687,29.19671],[79.6911,29.19169],[79.78518,29.13735],[79.83533,29.12108],[79.99121,29.11535],[80.01003,29.07329],[79.9896,29.07629],[79.9302,29.09432],[79.8398,29.09862],[79.79243,29.09815],[79.76012,29.13271],[79.75188,29.14913],[79.74606,29.15408],[79.71718,29.16548],[79.69272,29.16236],[79.67412,29.1629],[79.65418,29.16943],[79.63261,29.19066],[79.62297,29.19717],[79.60917,29.21001],[79.60058,29.21558],[79.59682,29.23177],[79.59302,29.23597],[79.58514,29.2399],[79.58247,29.24463],[79.58306,29.255],[79.58026,29.25977],[79.57415,29.26485],[79.57413,29.27309],[79.57119,29.27859]]]},"properties":{"Name":"Placemark","risk":4}},
{"type":"Feature","geometry":{"type":"Polygon","coordinates":[[[78.30059,29.87352],[78.29247,29.88119],[78.28291,29.88673],[78.27684,29.89706],[78.27184,29.89792],[78.27028,29.87469],[78.25043,29.83764],[78.23743,29.82649],[78.2361,29.81378],[78.24311,29.80862],[78.23975,29.79289],[78.23731,29.78838],[78.24419,29.78878],[78.2504,29.79186],[78.25441,29.79702],[78.25558,29.80323],[78.27018,29.81456],[78.27786,29.82319],[78.2819,29.83396],[78.28254,29.83956],[78.30059,29.87352]]]},"properties":{"Name":"Placemark","risk":5}},
{"type":"Feature","geometry":{"type":"MultiPolygon","coordinates":[[[[78.52413,29.66774],[78.52503,29.67333],[78.52171,29.68257],[78.52306,29.69016],[78.52739,29.6949],[78.52596,29.70056],[78.52702,29.70464],[78.52624,29.70769],[78.51702,29.71572],[78.51871,29.70177],[78.52145,29.69347],[78.52054,29.68379],[78.52235,29.67456],[78.5218,29.66894],[78.52413,29.66774]]],[[[78.48207,29.73891],[78.47634,29.74084],[78.47023,29.74072],[78.48207,29.73891]]],[[[78.35081,29.859],[78.34753,29.85817],[78.34476,29.85963],[78.34165,29.86055],[78.33389,29.85581],[78.33154,29.85084],[78.32809,29.85053],[78.32985,29.84857],[78.3507,29.78791],[78.39276,29.76739],[78.4043,29.7642],[78.38625,29.7743],[78.36611,29.85182],[78.36463,29.84843],[78.35788,29.85041],[78.35248,29.85883],[78.35081,29.859]]]]},"properties":{"Name":"Placemark","risk":4}},
{"type":"Feature","geometry":{"type":"Polygon","coordinates":[[[79.4448,29.29521],[79.44298,29.29376],[79.37922,29.31527],[79.31794,29.33092],[79.30581,29.34429],[79.29002,29.3562],[79.26847,29.37607],[79.26307,29.38856],[79.25492,29.38104],[79.25521,29.37861],[79.2513,29.37417],[79.25131,29.37238],[79.23911,29.36639],[79.23938,29.36578],[79.24057,29.36578],[79.24053,29.36317],[79.26785,29.33674],[79.28289,29.32544],[79.29725,29.30961],[79.30126,29.30684],[79.36937,29.28918],[79.44332,29.26399],[79.4448,29.29521]]]},"properties":{"Name":"Placemark","risk":5}},
{"type":"Feature","geometry":{"type":"Polygon","coordinates":[[[80.01798,29.04424],[80.02326,28.94931],[80.01845,28.94907],[80.01338,28.94726],[79.99529,28.93714],[79.99046,28.93143],[79.9829,28.91114],[79.98223,28.88346],[79.98021,28.87879],[79.97778,28.86485],[79.97862,28.84527],[79.98822,28.8167],[79.99753,28.80535],[80.00721,28.78532],[80.02025,28.77222],[80.03168,28.75072],[80.0518,28.77773],[80.04625,28.78772],[80.03399,28.79984],[80.02511,28.81846],[80.01628,28.82925],[80.00975,28.84814],[80.00906,28.86324],[80.01327,28.87684],[80.014,28.90712],[80.01798,28.9173],[80.02547,28.92145],[80.06168,28.9198],[80.07783,28.94599],[80.05466,28.94758],[80.04933,29.05677],[80.04785,29.06368],[80.01798,29.04424]]]},"properties":{"Name":"Placemark","risk":3}},
{"type":"Feature","geometry":{"type":"Polygon","coordinates":[[[80.04788,29.06368],[80.06852,29.06693],[80.09667,29.07655],[80.11747,29.09302],[80.1315,29.10004],[80.14472,29.10264],[80.15765,29.11014],[80.16318,29.11601],[80.16527,29.12483],[80.16759,29.12638],[80.15979,29.12983],[80.14269,29.13014],[80.12153,29.12622],[80.0993,29.11552],[80.08025,29.10026],[80.06007,29.09347],[80.03627,29.08981],[80.04788,29.06368]]]},"properties":{"Name":"Placemark","risk":4}},
{"type":"Feature","geometry":{"type":"Polygon","coordinates":[[[78.21227,29.99947],[78.20608,29.99144],[78.20128,29.98863],[78.20662,29.98265],[78.2095,29.97692],[78.19845,29.96997],[78.19732,29.9644],[78.19274,29.96085],[78.19057,29.95544],[78.18151,29.94785],[78.17802,29.94638],[78.18558,29.94553],[78.18906,29.94354],[78.19813,29.94375],[78.20989,29.94816],[78.21542,29.94215],[78.21999,29.94035],[78.23623,29.92846],[78.24367,29.92783],[78.24735,29.93183],[78.25435,29.92765],[78.26287,29.9263],[78.26544,29.92716],[78.27265,29.92547],[78.27494,29.92322],[78.27525,29.91987],[78.27227,29.91721],[78.26687,29.90431],[78.27184,29.89792],[78.27684,29.89706],[78.28291,29.88673],[78.29247,29.88119],[78.30059,29.87352],[78.3093,29.86631],[78.31501,29.86349],[78.31785,29.85798],[78.32248,29.85648],[78.32809,29.85053],[78.33154,29.85084],[78.33389,29.85581],[78.34165,29.86055],[78.34476,29.85963],[78.34753,29.85817],[78.35081,29.859],[78.35248,29.85883],[78.35788,29.85041],[78.36463,29.84843],[78.36611,29.85182],[78.37256,29.85635],[78.37847,29.85833],[78.38222,29.86291],[78.38508,29.86254],[78.38438,29.86439],[78.39077,29.86982],[78.39382,29.87552],[78.38644,29.88029],[78.38021,29.8786],[78.38206,29.88816],[78.37562,29.89604],[78.36993,29.89709],[78.37046,29.90397],[78.36826,29.90436],[78.3705,29.90779],[78.36715,29.91013],[78.3722,29.91335],[78.37063,29.91885],[78.3668,29.92105],[78.35896,29.93018],[78.35358,29.92994],[78.3509,29.93441],[78.34679,29.93538],[78.34386,29.93874],[78.34488,29.94409],[78.34231,29.94969],[78.338,29.95162],[78.33681,29.95641],[78.33257,29.96075],[78.32249,29.96787],[78.32392,29.96873],[78.32655,29.96772],[78.32949,29.96827],[78.33152,29.97051],[78.33187,29.97319],[78.32687,29.97763],[78.31247,29.98558],[78.31299,29.98633],[78.31703,29.98489],[78.31859,29.98668],[78.32198,29.98496],[78.32351,29.98594],[78.32434,29.99632],[78.32286,29.99764],[78.32121,29.99598],[78.31806,29.99695],[78.31952,29.9973],[78.32511,30.00637],[78.33768,30.01967],[78.33566,30.02339],[78.34015,30.02653],[78.34139,30.03446],[78.3395,30.03606],[78.34094,30.03645],[78.34197,30.04223],[78.34349,30.0428],[78.34302,30.04992],[78.34619,30.05372],[78.34605,30.05616],[78.34376,30.05654],[78.34018,30.05987],[78.33592,30.06104],[78.33789,30.06395],[78.33599,30.06985],[78.33363,30.07284],[78.33193,30.08743],[78.3336,30.08897],[78.33284,30.09123],[78.33474,30.09176],[78.33795,30.09055],[78.33892,30.09169],[78.33809,30.09488],[78.34321,30.102],[78.35055,30.10096],[78.35333,30.10212],[78.35791,30.11228],[78.36539,30.11377],[78.37136,30.10964],[78.3731,30.11017],[78.37163,30.10569],[78.37531,30.10621],[78.37769,30.10392],[78.37381,30.10045],[78.37376,30.09825],[78.37136,30.1004],[78.36762,30.09964],[78.36616,30.1022],[78.36041,30.09994],[78.36251,30.09844],[78.36355,30.0917],[78.36682,30.09056],[78.37199,30.08229],[78.3696,30.08044],[78.3754,30.07706],[78.38115,30.08154],[78.38146,30.07989],[78.38456,30.07791],[78.39004,30.07631],[78.39193,30.07939],[78.39162,30.08316],[78.39478,30.0849],[78.39322,30.08775],[78.39732,30.08706],[78.39823,30.08406],[78.40089,30.08393],[78.40362,30.08418],[78.40492,30.08748],[78.40234,30.09053],[78.40224,30.09537],[78.40051,30.09893],[78.39516,30.10302],[78.39816,30.10622],[78.40246,30.10835],[78.41283,30.10521],[78.41345,30.09712],[78.41779,30.09556],[78.42144,30.09717],[78.42252,30.09448],[78.42513,30.09281],[78.4249,30.07931],[78.42678,30.07726],[78.4324,30.07717],[78.43027,30.07228],[78.43224,30.07048],[78.44272,30.07381],[78.44403,30.07601],[78.43694,30.07979],[78.43516,30.08214],[78.43505,30.0992],[78.44018,30.11165],[78.4376,30.11345],[78.42446,30.11437],[78.42326,30.12264],[78.42004,30.12947],[78.40824,30.13713],[78.40226,30.13753],[78.39324,30.13548],[78.39216,30.13373],[78.39405,30.12669],[78.39196,30.12206],[78.38257,30.12176],[78.37383,30.1168],[78.34921,30.12956],[78.3429,30.13465],[78.33458,30.13376],[78.33204,30.13169],[78.32984,30.12408],[78.32578,30.12572],[78.32105,30.12569],[78.31514,30.12315],[78.31113,30.11949],[78.30991,30.11644],[78.31182,30.10962],[78.30958,30.10479],[78.30443,30.10171],[78.29972,30.10238],[78.29519,30.10128],[78.29153,30.0983],[78.29151,30.09482],[78.29517,30.08904],[78.29503,30.08723],[78.29189,30.07755],[78.28111,30.06009],[78.26373,30.04791],[78.25152,30.04518],[78.24869,30.04235],[78.248,30.03735],[78.25143,30.03551],[78.21227,29.99947]]]},"properties":{"Name":"Placemark","risk":4}}
]}